No errors
No warnings
102 ms
data source=metars
4813 results
raw_text,station_id,observation_time,latitude,longitude,temp_c,dewpoint_c,wind_dir_degrees,wind_speed_kt,wind_gust_kt,visibility_statute_mi,altim_in_hg,sea_level_pressure_mb,corrected,auto,auto_station,maintenance_indicator_on,no_signal,lightning_sensor_off,freezing_rain_sensor_off,present_weather_sensor_off,wx_string,sky_cover,cloud_base_ft_agl,sky_cover,cloud_base_ft_agl,sky_cover,cloud_base_ft_agl,sky_cover,cloud_base_ft_agl,flight_category,three_hr_pressure_tendency_mb,maxT_c,minT_c,maxT24hr_c,minT24hr_c,precip_in,pcp3hr_in,pcp6hr_in,pcp24hr_in,snow_in,vert_vis_ft,metar_type,elevation_m
ZMCK 220430Z VRB02MPS CAVOK M02/M08 Q1005 NOSIG,ZMCK,2024-03-22T04:30:00Z,47.651,106.822,-2,-8,VRB,4,,6+,29.68,,,,,,TRUE,,,,,CAVOK,,,,,,,,VFR,,,,,,,,,,,,METAR,1366
WIII 220430Z 06005KT 4000 -RA BKN020 26/24 Q1009 NOSIG,WIII,2024-03-22T04:30:00Z,-6.125,106.659,26,24,60,5,,2.49,29.79,,,,,,TRUE,,,,-RA,BKN,2000,,,,,,,IFR,,,,,,,,,,,,METAR,9
WAJJ 220430Z 24004KT 190V300 9999 SCT013 29/25 Q1008 NOSIG,WAJJ,2024-03-22T04:30:00Z,-2.573,140.514,29,25,240,4,,6+,29.76,,,,,,TRUE,,,,,SCT,1300,,,,,,,VFR,,,,,,,,,,,,METAR,93
WADL 220430Z 19004KT 150V240 9000 BKN016 31/25 Q1010 NOSIG,WADL,2024-03-22T04:30:00Z,-8.757,116.277,31,25,190,4,,5.59,29.82,,,,,,TRUE,,,,,BKN,1600,,,,,,,MVFR,,,,,,,,,,,,METAR,97
VNKT 220430Z 28005KT 5000 BR FEW010 SCT030 BKN100 17/13 Q1017 NOSIG,VNKT,2024-03-22T04:30:00Z,27.697,85.359,17,13,280,5,,3.11,30.03,,,,,,TRUE,,,,BR,FEW,1000,SCT,3000,BKN,10000,,,MVFR,,,,,,,,,,,,METAR,1334
VEHO 220430Z 25004KT 6000 BR SCT090 OVC080 20/19 Q1013,VEHO,2024-03-22T04:30:00Z,-99.99,-99.99,20,19,250,4,,3.73,29.91,,,,,,,,,,BR,SCT,9000,OVC,8000,,,,,MVFR,,,,,,,,,,,,METAR,9999
UBBN 220430Z 13008KT 9999 SCT040CB BKN100 08/06 Q1009 NOSIG RMK QFE682,UBBN,2024-03-22T04:30:00Z,39.189,45.458,8,6,130,8,,6+,29.79,,,,,,TRUE,,,,,SCT,4000,BKN,10000,,,,,VFR,,,,,,,,,,,,METAR,857
UBBG 220430Z 08006KT 0350 R12/0350 DZ FG VV001 06/06 Q1014 NOSIG,UBBG,2024-03-22T04:30:00Z,40.738,46.318,6,6,80,6,,0.22,29.94,,,,,,TRUE,,,,DZ FG,OVX,0,,,,,,,LIFR,,,,,,,,,,,100,METAR,333
ORBI 220430Z 14009KT 9999 BKN035 SCT100 16/07 Q1009,ORBI,2024-03-22T04:30:00Z,33.263,44.235,16,7,140,9,,6+,29.79,,,,,,,,,,,BKN,3500,SCT,10000,,,,,VFR,,,,,,,,,,,,METAR,37
OPKC 220430Z 28009KT 4000 HZ NSC 28/18 Q1010 NOSIG,OPKC,2024-03-22T04:30:00Z,24.902,67.139,28,18,280,9,,2.49,29.82,,,,,,TRUE,,,,HZ,CLR,,,,,,,,IFR,,,,,,,,,,,,METAR,20
LEMO 220430Z 04009KT 7000 SCT030 15/14 Q1012 NOSIG,LEMO,2024-03-22T04:30:00Z,37.175,-5.616,15,14,40,9,,4.35,29.88,,,,,,TRUE,,,,,SCT,3000,,,,,,,MVFR,,,,,,,,,,,,METAR,82
LEJR 220430Z 02003KT 9999 BKN032 13/12 Q1011,LEJR,2024-03-22T04:30:00Z,36.751,-6.056,13,12,20,3,,6+,29.85,,,,,,,,,,,BKN,3200,,,,,,,VFR,,,,,,,,,,,,METAR,25
LBWN 220430Z AUTO 33004KT 300V010 9999 SCT012/// 03/01 Q1019 TEMPO BKN010,LBWN,2024-03-22T04:30:00Z,43.232,27.825,3,1,330,4,,6+,30.09,,,TRUE,,,,,,,,SCT,1200,,,,,,,VFR,,,,,,,,,,,,METAR,74
LBSF 220430Z 15003KT 050V210 CAVOK M01/M04 Q1019 NOSIG,LBSF,2024-03-22T04:30:00Z,42.694,23.414,-1,-4,150,3,,6+,30.09,,,,,,TRUE,,,,,CAVOK,,,,,,,,VFR,,,,,,,,,,,,METAR,531
LBPD 220430Z AUTO 25002KT 9999 FEW070/// 01/00 Q1019 NOSIG,LBPD,2024-03-22T04:30:00Z,42.064,24.86,1,0,250,2,,6+,30.09,,,TRUE,,,TRUE,,,,,FEW,7000,,,,,,,VFR,,,,,,,,,,,,METAR,182
LBGO 220430Z AUTO VRB01KT 9999 4200W NCD M01/M02 Q1021 TEMPO 4000 BR,LBGO,2024-03-22T04:30:00Z,43.151,25.713,-1,-2,VRB,1,,6+,30.15,,,TRUE,,,,,,,,CLR,,,,,,,,VFR,,,,,,,,,,,,METAR,84
LBBG 220430Z AUTO 36009KT 9999 NCD 03/01 Q1019 NOSIG,LBBG,2024-03-22T04:30:00Z,42.569,27.514,3,1,360,9,,6+,30.09,,,TRUE,,,TRUE,,,,,CLR,,,,,,,,VFR,,,,,,,,,,,,METAR,41
KVUJ 220430Z AUTO 00000KT 10SM CLR 09/03 A3022 RMK AO2 T00920029,KVUJ,2024-03-22T04:30:00Z,35.4173,-80.1508,9.2,2.9,0,0,,10+,30.22,,,TRUE,TRUE,,,,,,,CLR,,,,,,,,VFR,,,,,,,,,,,,METAR,174
KUKF 220430Z AUTO 00000KT 10SM CLR 07/00 A3023 RMK AO2,KUKF,2024-03-22T04:30:00Z,36.2188,-81.1002,7,0,0,0,,10+,30.23,,,TRUE,TRUE,,,,,,,CLR,,,,,,,,VFR,,,,,,,,,,,,METAR,383
KSUT 220430Z AUTO 07004KT 10SM CLR 12/10 A3023 RMK AO2 T01180102,KSUT,2024-03-22T04:30:00Z,33.9292,-78.0722,11.8,10.2,70,4,,10+,30.23,,,TRUE,TRUE,,,,,,,CLR,,,,,,,,VFR,,,,,,,,,,,,METAR,6
KSIF 220430Z AUTO 00000KT 10SM CLR 05/M01 A3020 RMK AO2 T00511012,KSIF,2024-03-22T04:30:00Z,36.4408,-79.8544,5.1,-1.2,0,0,,10+,30.20,,,TRUE,TRUE,,,,,,,CLR,,,,,,,,VFR,,,,,,,,,,,,METAR,206
KS59 220430Z AUTO 10003KT 10SM A3000 ,KS59,2024-03-22T04:30:00Z,48.2834,-115.492,,,100,3,,10+,30.00,,,TRUE,,,,,,,,,,,,,,,,VFR,,,,,,,,,,,,METAR,793
KRUQ 220430Z AUTO 00000KT 10SM CLR 09/01 A3017 RMK AO2 T00870007,KRUQ,2024-03-22T04:30:00Z,35.6441,-80.5236,8.7,0.7,0,0,,10+,30.17,,,TRUE,TRUE,,,,,,,CLR,,,,,,,,VFR,,,,,,,,,,,,METAR,231
KRHP 220430Z AUTO 00000KT 10SM SCT085 07/02 A3014 RMK AO2 T00650024,KRHP,2024-03-22T04:30:00Z,35.1939,-83.8618,6.5,2.4,0,0,,10+,30.14,,,TRUE,TRUE,,,,,,,SCT,8500,,,,,,,VFR,,,,,,,,,,,,METAR,515
KQFU 220430Z AUTO 15006G12KT 9999 OVC060 14/M03 A2989 RMK A02 TSNO,KQFU,2024-03-22T04:30:00Z,-99.99,-99.99,14,-3,150,6,12,6+,29.89,,,TRUE,TRUE,,,TRUE,,,,OVC,6000,,,,,,,VFR,,,,,,,,,,,,METAR,9999
KQFB 220430Z AUTO 16003G12KT 9999 FEW050 15/01 A3007 RMK A02 TSNO,KQFB,2024-03-22T04:30:00Z,-99.99,-99.99,15,1,160,3,12,6+,30.07,,,TRUE,TRUE,,,TRUE,,,,FEW,5000,,,,,,,VFR,,,,,,,,,,,,METAR,9999
KQEP 220430Z AUTO 14004G12KT 9999 BKN065 15/M03 A2989 RMK A02 TSNO,KQEP,2024-03-22T04:30:00Z,-99.99,-99.99,15,-3,140,4,12,6+,29.89,,,TRUE,TRUE,,,TRUE,,,,BKN,6500,,,,,,,VFR,,,,,,,,,,,,METAR,9999
KMQI 220430Z AUTO 10008KT 10SM CLR 08/02 A3029 RMK AO2 T00760021,KMQI,2024-03-22T04:30:00Z,35.9188,-75.6989,7.6,2.1,100,8,,10+,30.29,,,TRUE,TRUE,,,,,,,CLR,,,,,,,,VFR,,,,,,,,,,,,METAR,3
KJNX 220430Z AUTO 16003KT 10SM CLR 10/05 A3023 RMK AO2,KJNX,2024-03-22T04:30:00Z,35.5369,-78.3934,10,5,160,3,,10+,30.23,,,TRUE,TRUE,,,,,,,CLR,,,,,,,,VFR,,,,,,,,,,,,METAR,41
KIXA 220430Z AUTO 00000KT 10SM CLR 04/04 A3026 RMK AO2,KIXA,2024-03-22T04:30:00Z,36.331,-77.6333,4,4,0,0,,10+,30.26,,,TRUE,TRUE,,,,,,,CLR,,,,,,,,VFR,,,,,,,,,,,,METAR,43
KHRJ 220430Z AUTO 12005KT 10SM CLR 10/05 A3023 RMK AO2 T01030054,KHRJ,2024-03-22T04:30:00Z,35.3794,-78.7356,10.3,5.4,120,5,,10+,30.23,,,TRUE,TRUE,,,,,,,CLR,,,,,,,,VFR,,,,,,,,,,,,METAR,55
KHBI 220430Z AUTO 15005KT 10SM CLR 12/00 A3020 RMK AO2 T01230000,KHBI,2024-03-22T04:30:00Z,35.6527,-79.8942,12.3,0,150,5,,10+,30.20,,,TRUE,TRUE,,,,,,,CLR,,,,,,,,VFR,,,,,,,,,,,,METAR,199
KGWW 220430Z AUTO 13005KT 10SM CLR 07/04 A3024 RMK AO2 T00710041,KGWW,2024-03-22T04:30:00Z,35.4637,-77.9604,7.1,4.1,130,5,,10+,30.24,,,TRUE,TRUE,,,,,,,CLR,,,,,,,,VFR,,,,,,,,,,,,METAR,40
KGEV 220430Z AUTO 00000KT 10SM CLR 09/M04 A3020 RMK AO2 T00931036,KGEV,2024-03-22T04:30:00Z,36.4312,-81.4206,9.3,-3.6,0,0,,10+,30.20,,,TRUE,TRUE,,,,,,,CLR,,,,,,,,VFR,,,,,,,,,,,,METAR,961
KFQD 220430Z AUTO 00000KT 10SM CLR 12/01 A3017 RMK AO2,KFQD,2024-03-22T04:30:00Z,35.43,-81.936,12,1,0,0,,10+,30.17,,,TRUE,TRUE,,,,,,,CLR,,,,,,,,VFR,,,,,,,,,,,,METAR,325
KEYF 220430Z AUTO 09004KT 10SM CLR 10/08 A3022 RMK AO2 T00980078,KEYF,2024-03-22T04:30:00Z,34.6042,-78.579,9.8,7.8,90,4,,10+,30.22,,,TRUE,TRUE,,,,,,,CLR,,,,,,,,VFR,,,,,,,,,,,,METAR,39
KEHO 220430Z AUTO 00000KT 10SM CLR 14/02 A3015 RMK AO2 T01410023,KEHO,2024-03-22T04:30:00Z,35.2556,-81.5986,14.1,2.3,0,0,,10+,30.15,,,TRUE,TRUE,,,,,,,CLR,,,,,,,,VFR,,,,,,,,,,,,METAR,261
KEDE 220430Z AUTO 11004KT 10SM CLR 07/06 A3028 RMK AO2 T00700057,KEDE,2024-03-22T04:30:00Z,36.0286,-76.5668,7,5.7,110,4,,10+,30.28,,,TRUE,TRUE,,,,,,,CLR,,,,,,,,VFR,,,,,,,,,,,,METAR,4
KCPC 220430Z AUTO 08004KT 7SM CLR 11/09 A3022 RMK AO2 T01050089,KCPC,2024-03-22T04:30:00Z,34.2753,-78.7146,10.5,8.9,80,4,,7,30.22,,,TRUE,TRUE,,,,,,,CLR,,,,,,,,VFR,,,,,,,,,,,,METAR,27
KAFP 220430Z AUTO 00000KT 10SM CLR 13/04 A3018 RMK AO2 T01270038,KAFP,2024-03-22T04:30:00Z,35.0194,-80.0784,12.7,3.8,0,0,,10+,30.18,,,TRUE,TRUE,,,,,,,CLR,,,,,,,,VFR,,,,,,,,,,,,METAR,91
K7W6 220430Z AUTO 08012KT 10SM CLR 09/06 A3026 RMK AO2 T00940062,K7W6,2024-03-22T04:30:00Z,35.5594,-75.955,9.4,6.2,80,12,,10+,30.26,,,TRUE,TRUE,,,,,,,CLR,,,,,,,,VFR,,,,,,,,,,,,METAR,1
K3U3 220430Z AUTO 00000KT 10SM 03/00 A3006 ,K3U3,2024-03-22T04:30:00Z,46.1516,-112.868,3,0,0,0,,10+,30.06,,,TRUE,,,,,,,,,,,,,,,,VFR,,,,,,,,,,,,METAR,1534
K38S 220430Z AUTO 00000KT 10SM 04/04 A3008 ,K38S,2024-03-22T04:30:00Z,46.389,-112.769,4,4,0,0,,10+,30.08,,,TRUE,,,,,,,,,,,,,,,,VFR,,,,,,,,,,,,METAR,1430
K2W6 220430Z AUTO 00000KT 10SM CLR 00/M05 A3034 RMK AO1,K2W6,2024-03-22T04:30:00Z,38.315,-76.55,0,-5,0,0,,10+,30.34,,,TRUE,TRUE,,,,,,,CLR,,,,,,,,VFR,,,,,,,,,,,,METAR,40
K1A5 220430Z AUTO 00000KT 10SM CLR 05/03 A3018 RMK AO2 T00540033,K1A5,2024-03-22T04:30:00Z,35.2228,-83.415,5.4,3.3,0,0,,10+,30.18,,,TRUE,TRUE,,,,,,,CLR,,,,,,,,VFR,,,,,,,,,,,,METAR,611
HRYR 220430Z 34005KT 9999 SCT020 SCT090 19/18 Q1017 NOSIG,HRYR,2024-03-22T04:30:00Z,-1.969,30.14,19,18,340,5,,6+,30.03,,,,,,TRUE,,,,,SCT,2000,SCT,9000,,,,,VFR,,,,,,,,,,,,METAR,1493
FMMI 220430Z 14006KT 100V180 9999 FEW017 22/18 Q1018 NOSIG,FMMI,2024-03-22T04:30:00Z,-18.797,47.479,22,18,140,6,,6+,30.06,,,,,,TRUE,,,,,FEW,1700,,,,,,,VFR,,,,,,,,,,,,METAR,1269
DIAP 220430Z 27004KT 6000 -TSRA SCT010 FEW020CB BKN026 23/22 Q1009 TEMPO 3500 TSRA,DIAP,2024-03-22T04:30:00Z,5.261,-3.926,23,22,270,4,,3.73,29.79,,,,,,,,,,-TSRA,SCT,1000,FEW,2000,BKN,2600,,,MVFR,,,,,,,,,,,,METAR,4
CYCA 220430Z AUTO 07016G29KT 9SM -SN OVC011 M02/M03 A2981 RMK PRESFR SLP096,CYCA,2024-03-22T04:30:00Z,53.683,-57.042,-2,-3,70,16,29,9,29.81,1009.6,,TRUE,,,,,,,-SN,OVC,1100,,,,,,,MVFR,,,,,,,,,,,,SPECI,12
BKPR 220430Z 30004KT CAVOK 04/00 Q1018 NOSIG,BKPR,2024-03-22T04:30:00Z,42.576,21.03,4,0,300,4,,6+,30.06,,,,,,TRUE,,,,,CAVOK,,,,,,,,VFR,,,,,,,,,,,,METAR,545
KMTN 220429Z AUTO 00000KT 10SM CLR 02/M08 A3035 RMK AO2,KMTN,2024-03-22T04:29:00Z,39.3214,-76.4065,2,-8,0,0,,10+,30.35,,,TRUE,TRUE,,,,,,,CLR,,,,,,,,VFR,,,,,,,,,,,,METAR,2
KFME 220429Z AUTO 00000KT 10SM CLR M02/M07 A3035 RMK AO1,KFME,2024-03-22T04:29:00Z,39.086,-76.757,-2,-7,0,0,,10+,30.35,,,TRUE,TRUE,,,,,,,CLR,,,,,,,,VFR,,,,,,,,,,,,METAR,43
KSTP 220428Z 00000KT 2SM -SN BR FEW010 OVC020 M03/M04 A3023 RMK AO2 P0002 T10281044 $,KSTP,2024-03-22T04:28:00Z,44.9324,-93.0559,-2.8,-4.4,0,0,,2,30.23,,,,TRUE,TRUE,,,,,-SN BR,FEW,1000,OVC,2000,,,,,IFR,,,,,,0.02,,,,,,SPECI,213
KSEA 220428Z 00000KT 10SM BKN005 BKN010 OVC018 11/09 A3008 RMK AO2 T01060089,KSEA,2024-03-22T04:28:00Z,47.4447,-122.314,10.6,8.9,0,0,,10+,30.08,,,,TRUE,,,,,,,BKN,500,BKN,1000,OVC,1800,,,IFR,,,,,,,,,,,,SPECI,115
KNTD 220428Z 08003KT 10SM SCT012 14/12 A3009 RMK AO2 T01440122 CHINO S VISNO S $ ,KNTD,2024-03-22T04:28:00Z,34.124,-119.123,14.4,12.2,80,3,,10+,30.09,,,,TRUE,TRUE,,,,,,SCT,1200,,,,,,,VFR,,,,,,,,,,,,SPECI,1
KMWL 220428Z AUTO 24003KT 10SM SCT029 13/12 A2983 RMK AO2 T01280117,KMWL,2024-03-22T04:28:00Z,32.7816,-98.0602,12.8,11.7,240,3,,10+,29.83,,,TRUE,TRUE,,,,,,,SCT,2900,,,,,,,VFR,,,,,,,,,,,,SPECI,288
KIML 220428Z AUTO 33021G32KT 10SM FEW120 08/M03 A2986 RMK AO2 PK WND 33032/0422 WSHFT 0408 PRESRR T00781033,KIML,2024-03-22T04:28:00Z,40.5106,-101.624,7.8,-3.3,330,21,32,10+,29.86,,,TRUE,TRUE,,,,,,,FEW,12000,,,,,,,VFR,,,,,,,,,,,,SPECI,997
KCLL 220428Z AUTO 15004KT 3SM +TSRA BR FEW007 BKN038 OVC065 15/13 A2992 RMK AO2 PK WND 33032/0409 LTG DSNT ALQDS RAB14 TSB24 P0032 T01500128,KCLL,2024-03-22T04:28:00Z,30.5912,-96.3631,15,12.8,150,4,,3,29.92,,,TRUE,TRUE,,,,,,+TSRA BR,FEW,700,BKN,3800,OVC,6500,,,MVFR,,,,,,0.32,,,,,,SPECI,96
CYAH 220428Z AUTO 29009G15KT 2 1/2SM -SN OVC021 M19/M22 A3005 RMK SLP214,CYAH,2024-03-22T04:28:00Z,53.757,-73.676,-19,-22,290,9,15,2.5,30.05,1021.4,,TRUE,,,,,,,-SN,OVC,2100,,,,,,,IFR,,,,,,,,,,,,SPECI,298
PAAK 220427Z AUTO 31012KT 10SM SCT016 02/M01 A2964 RMK AO2 FZRANO,PAAK,2024-03-22T04:27:00Z,52.219,-174.208,2,-1,310,12,,10+,29.64,,,TRUE,TRUE,,,,TRUE,,,SCT,1600,,,,,,,VFR,,,,,,,,,,,,SPECI,11
KMOT 220427Z AUTO 34009KT 9SM SCT009 BKN015 OVC025 M07/M09 A3023 RMK AO2 SNE25 P0000 T10671089,KMOT,2024-03-22T04:27:00Z,48.252,-101.269,-6.7,-8.9,340,9,,9,30.23,,,TRUE,TRUE,,,,,,,SCT,900,BKN,1500,OVC,2500,,,MVFR,,,,,,0.005,,,,,,SPECI,507
KKLS 220427Z AUTO 00000KT 10SM SCT005 BKN110 10/09 A3007 RMK AO2,KKLS,2024-03-22T04:27:00Z,46.118,-122.898,10,9,0,0,,10+,30.07,,,TRUE,TRUE,,,,,,,SCT,500,BKN,11000,,,,,VFR,,,,,,,,,,,,SPECI,4
KDTN 220427Z AUTO 13010KT 10SM FEW022 BKN033 OVC090 13/11 A2994 RMK AO2 RAE06 P0000 T01330106,KDTN,2024-03-22T04:27:00Z,32.5429,-93.745,13.3,10.6,130,10,,10+,29.94,,,TRUE,TRUE,,,,,,,FEW,2200,BKN,3300,OVC,9000,,,VFR,,,,,,0.005,,,,,,SPECI,53
KATY 220427Z AUTO 07008G20KT 10SM BKN009 OVC055 M04/M07 A3009 RMK AO2 T10441067,KATY,2024-03-22T04:27:00Z,44.9045,-97.1496,-4.4,-6.7,70,8,20,10+,30.09,,,TRUE,TRUE,,,,,,,BKN,900,OVC,5500,,,,,IFR,,,,,,,,,,,,SPECI,531
EEEI 220427Z AUTO 22006KT 7000 BKN003/// OVC011/// 01/01 Q1009,EEEI,2024-03-22T04:27:00Z,59.26,24.209,1,1,220,6,,4.35,29.79,,,TRUE,,,,,,,,BKN,300,OVC,1100,,,,,LIFR,,,,,,,,,,,,SPECI,19
CZBF 220427Z AUTO 26018G28KT 5SM -SN FEW017 SCT043 BKN081 BKN091 M04/M08 A2939 RMK SLP958,CZBF,2024-03-22T04:27:00Z,47.628,-65.746,-4,-8,260,18,28,5,29.39,995.8,,TRUE,,,,,,,-SN,FEW,1700,SCT,4300,BKN,8100,BKN,9100,MVFR,,,,,,,,,,,,SPECI,60
PAMD 220426Z AUTO VRB06KT 10SM OVC005 03/02 A3017 RMK AO2 $,PAMD,2024-03-22T04:26:00Z,59.442,-146.317,3,2,VRB,6,,10+,30.17,,,TRUE,TRUE,TRUE,,,,,,OVC,500,,,,,,,IFR,,,,,,,,,,,,SPECI,20
PADM 220426Z AUTO 15015KT 10SM -RA BKN047 BKN060 OVC085 04/M02 A2964 RMK AO2 PK WND 14028/0411 WSHFT 0406 P0000,PADM,2024-03-22T04:26:00Z,61.865,-162.033,4,-2,150,15,,10+,29.64,,,TRUE,TRUE,,,,,,-RA,BKN,4700,BKN,6000,OVC,8500,,,VFR,,,,,,0.005,,,,,,SPECI,17
KOVS 220426Z AUTO VRB04KT -SN OVC005 M01/M03 A3016 RMK AO2 P0004 T10111028 $,KOVS,2024-03-22T04:26:00Z,43.1561,-90.6775,-1.1,-2.8,VRB,4,,,30.16,,,TRUE,TRUE,TRUE,,,,,-SN,OVC,500,,,,,,,IFR,,,,,,0.04,,,,,,SPECI,205
KGLS 220426Z AUTO 14015G25KT 9SM SCT011 BKN042 19/18 A2983 RMK AO2 T01940183,KGLS,2024-03-22T04:26:00Z,29.2704,-94.8642,19.4,18.3,140,15,25,9,29.83,,,TRUE,TRUE,,,,,,,SCT,1100,BKN,4200,,,,,VFR,,,,,,,,,,,,SPECI,2
CZVL 220426Z AUTO 35009KT 9SM -SN OVC023 M08/M10 A3030 RMK SLP310,CZVL,2024-03-22T04:26:00Z,53.67,-113.863,-8,-10,350,9,,9,30.30,1031,,TRUE,,,,,,,-SN,OVC,2300,,,,,,,MVFR,,,,,,,,,,,,SPECI,685
CYTL 220426Z AUTO 36005KT 5SM -SN BKN042 OVC066 M19/M21 A3018 RMK SLP251,CYTL,2024-03-22T04:26:00Z,53.816,-89.892,-19,-21,360,5,,5,30.18,1025.1,,TRUE,,,,,,,-SN,BKN,4200,OVC,6600,,,,,MVFR,,,,,,,,,,,,SPECI,218
CYPD 220426Z AUTO 24007G18KT 9SM -SN BKN026 BKN034 OVC043 M01/M06 A2962 RMK SLP039,CYPD,2024-03-22T04:26:00Z,45.657,-61.374,-1,-6,240,7,18,9,29.62,1003.9,,TRUE,,,,,,,-SN,BKN,2600,BKN,3400,OVC,4300,,,MVFR,,,,,,,,,,,,SPECI,106
CYMH 220426Z AUTO 06014G21KT 3/4SM -SN OVC006 M01/M02 A2967 RMK PRESFR SLP049,CYMH,2024-03-22T04:26:00Z,52.304,-55.833,-1,-2,60,14,21,0.75,29.67,1004.9,,TRUE,,,,,,,-SN,OVC,600,,,,,,,LIFR,,,,,,,,,,,,SPECI,18
CYEG 220426Z 36008KT 6SM -SN OVC035 M08/M10 A3028 RMK SC8 SLP306,CYEG,2024-03-22T04:26:00Z,53.308,-113.592,-8,-10,360,8,,6,30.28,1030.6,,,,,,,,,-SN,OVC,3500,,,,,,,VFR,,,,,,,,,,,,SPECI,710
OPLA 220425Z 11012KT 2000 -RA SCT040 BKN100 20/17 Q1013 TEMPO 34015G35KT 1500 TSRA FEW030CB RMK QFE987 A29.92,OPLA,2024-03-22T04:25:00Z,31.522,74.404,20,17,110,12,,1.24,29.91,,,,,,,,,,-RA,SCT,4000,BKN,10000,,,,,IFR,,,,,,,,,,,,METAR,217
KW40 220425Z AUTO 11006KT 10SM CLR 08/05 A3024 RMK AO2 T00800050,KW40,2024-03-22T04:25:00Z,35.2211,-78.0404,8,5,110,6,,10+,30.24,,,TRUE,TRUE,,,,,,,CLR,,,,,,,,VFR,,,,,,,,,,,,METAR,50
KW29 220425Z AUTO 02005KT 10SM CLR 05/M10 A3033 RMK AO2 T00551098,KW29,2024-03-22T04:25:00Z,38.9777,-76.3276,5.5,-9.8,20,5,,10+,30.33,,,TRUE,TRUE,,,,,,,CLR,,,,,,,,VFR,,,,,,,,,,,,METAR,1
KTTA 220425Z AUTO 00000KT 10SM CLR 04/02 A3021 RMK AO2 T00440018,KTTA,2024-03-22T04:25:00Z,35.5762,-79.1035,4.4,1.8,0,0,,10+,30.21,,,TRUE,TRUE,,,,,,,CLR,,,,,,,,VFR,,,,,,,,,,,,METAR,71
KTDF 220425Z AUTO 06004KT 10SM CLR 03/00 A3022 RMK AO2,KTDF,2024-03-22T04:25:00Z,36.284,-78.9884,3,0,60,4,,10+,30.22,,,TRUE,TRUE,,,,,,,CLR,,,,,,,,VFR,,,,,,,,,,,,METAR,180
KSVH 220425Z AUTO 00000KT 10SM CLR 09/01 A3018 RMK AO2 T00910006,KSVH,2024-03-22T04:25:00Z,35.7635,-80.9473,9.1,0.6,0,0,,10+,30.18,,,TRUE,TRUE,,,,,,,CLR,,,,,,,,VFR,,,,,,,,,,,,METAR,286
KSMP 220425Z AUTO 00000KT 1 1/4SM -RA BR OVC011 03/03 A3005 RMK AO2 RAE05B21 P0001 T00330028 ,KSMP,2024-03-22T04:25:00Z,47.2764,-121.338,3.3,2.8,0,0,,1.25,30.05,,,TRUE,TRUE,,,,,,-RA BR,OVC,1100,,,,,,,IFR,,,,,,0.01,,,,,,SPECI,1206
KSEM 220425Z AUTO 00000KT 10SM FEW046 SCT060 BKN090 15/12 A3001 RMK AO2,KSEM,2024-03-22T04:25:00Z,32.3367,-86.9836,15,12,0,0,,10+,30.01,,,TRUE,TRUE,,,,,,,FEW,4600,SCT,6000,BKN,9000,,,VFR,,,,,,,,,,,,METAR,48
KSCR 220425Z AUTO 00000KT 10SM CLR 11/01 A3019 RMK AO2 T01110005,KSCR,2024-03-22T04:25:00Z,35.7058,-79.5051,11.1,0.5,0,0,,10+,30.19,,,TRUE,TRUE,,,,,,,CLR,,,,,,,,VFR,,,,,,,,,,,,METAR,182
KS85 220425Z AUTO 04004KT 5SM BR FEW008 OVC043 M07/M07 A3020 RMK A01 Culbertson ,KS85,2024-03-22T04:25:00Z,48.1525,-104.498,-7,-7,40,4,,5,30.20,,,TRUE,TRUE,,,,,,BR,FEW,800,OVC,4300,,,,,MVFR,,,,,,,,,,,,METAR,596
KRCZ 220425Z AUTO 12004KT 10SM CLR 12/06 A3018 RMK AO2 T01170061,KRCZ,2024-03-22T04:25:00Z,34.8955,-79.7576,11.7,6.1,120,4,,10+,30.18,,,TRUE,TRUE,,,,,,,CLR,,,,,,,,VFR,,,,,,,,,,,,METAR,110
KPGV 220425Z AUTO 14004KT 10SM CLR 08/06 A3026 RMK AO2,KPGV,2024-03-22T04:25:00Z,35.6374,-77.3851,8,6,140,4,,10+,30.26,,,TRUE,TRUE,,,,,,,CLR,,,,,,,,VFR,,,,,,,,,,,,METAR,6
KONX 220425Z AUTO 10004KT 10SM CLR 07/02 A3030 RMK AO2 T00710017,KONX,2024-03-22T04:25:00Z,36.399,-76.014,7.1,1.7,100,4,,10+,30.30,,,TRUE,TRUE,,,,,,,CLR,,,,,,,,VFR,,,,,,,,,,,,METAR,4
KMWK 220425Z AUTO 07003KT 10SM CLR 13/M05 A3021 RMK AO2 T01261055,KMWK,2024-03-22T04:25:00Z,36.4568,-80.5548,12.6,-5.5,70,3,,10+,30.21,,,TRUE,TRUE,,,,,,,CLR,,,,,,,,VFR,,,,,,,,,,,,METAR,374
KMRN 220425Z AUTO 00000KT 10SM CLR 09/02 A3017 RMK AO2 T00880015,KMRN,2024-03-22T04:25:00Z,35.8192,-81.6097,8.8,1.5,0,0,,10+,30.17,,,TRUE,TRUE,,,,,,,CLR,,,,,,,,VFR,,,,,,,,,,,,METAR,375
KMCZ 220425Z AUTO 11004KT 10SM CLR 05/02 A3027 RMK AO2 T00540020,KMCZ,2024-03-22T04:25:00Z,35.862,-77.178,5.4,2,110,4,,10+,30.27,,,TRUE,TRUE,,,,,,,CLR,,,,,,,,VFR,,,,,,,,,,,,METAR,23
KLHZ 220425Z AUTO 15004KT 10SM CLR 07/02 A3024 RMK AO2,KLHZ,2024-03-22T04:25:00Z,36.0229,-78.3341,7,2,150,4,,10+,30.24,,,TRUE,TRUE,,,,,,,CLR,,,,,,,,VFR,,,,,,,,,,,,METAR,104
KLFT 220425Z AUTO 05004KT 10SM OVC008 14/14 A2992 RMK AO2 T01440139,KLFT,2024-03-22T04:25:00Z,30.1986,-91.9896,14.4,13.9,50,4,,10+,29.92,,,TRUE,TRUE,,,,,,,OVC,800,,,,,,,IFR,,,,,,,,,,,,SPECI,9
KISO 220425Z AUTO 00000KT 10SM CLR 08/06 A3025 RMK AO2 T00810055,KISO,2024-03-22T04:25:00Z,35.324,-77.6187,8.1,5.5,0,0,,10+,30.25,,,TRUE,TRUE,,,,,,,CLR,,,,,,,,VFR,,,,,,,,,,,,METAR,27
KIPJ 220425Z AUTO 00000KT 10SM CLR 08/03 A3016 RMK AO2 T00830026,KIPJ,2024-03-22T04:25:00Z,35.4861,-81.1564,8.3,2.6,0,0,,10+,30.16,,,TRUE,TRUE,,,,,,,CLR,,,,,,,,VFR,,,,,,,,,,,,METAR,266
KHVR 220425Z AUTO 06005KT 2 1/2SM -SN BR OVC030 M06/M08 A3024 RMK AO2 P0001 T10611078,KHVR,2024-03-22T04:25:00Z,48.5425,-109.764,-6.1,-7.8,60,5,,2.5,30.24,,,TRUE,TRUE,,,,,,-SN BR,OVC,3000,,,,,,,IFR,,,,,,0.01,,,,,,SPECI,789
KHRF 220425Z AUTO 19009KT 10SM FEW030 SCT045 BKN060 06/02 A3007 RMK AO2 Hamilton ,KHRF,2024-03-22T04:25:00Z,46.2575,-114.127,6,2,190,9,,10+,30.07,,,TRUE,TRUE,,,,,,,FEW,3000,SCT,4500,BKN,6000,,,VFR,,,,,,,,,,,,METAR,1112
KHNZ 220425Z AUTO 11003KT 10SM CLR 06/M01 A3022 RMK AO2 T00641010,KHNZ,2024-03-22T04:25:00Z,36.3635,-78.5289,6.4,-1,110,3,,10+,30.22,,,TRUE,TRUE,,,,,,,CLR,,,,,,,,VFR,,,,,,,,,,,,METAR,158
KEXX 220425Z AUTO 00000KT 10SM CLR 08/02 A3018 RMK AO2 T00800020,KEXX,2024-03-22T04:25:00Z,35.7804,-80.3084,8,2,0,0,,10+,30.18,,,TRUE,TRUE,,,,,,,CLR,,,,,,,,VFR,,,,,,,,,,,,METAR,221
KETC 220425Z AUTO 11004KT 7SM CLR 07/03 A3027 RMK AO2 T00690034,KETC,2024-03-22T04:25:00Z,35.9363,-77.5416,6.9,3.4,110,4,,7,30.27,,,TRUE,TRUE,,,,,,,CLR,,,,,,,,VFR,,,,,,,,,,,,METAR,15
KESN 220425Z AUTO 00000KT 10SM CLR 01/M07 A3033 RMK AO2 T00071069,KESN,2024-03-22T04:25:00Z,38.804,-76.069,0.7,-6.9,0,0,,10+,30.33,,,TRUE,TRUE,,,,,,,CLR,,,,,,,,VFR,,,,,,,,,,,,METAR,14
KDPL 220425Z AUTO 10003KT 7SM CLR 08/06 A3025 RMK AO2,KDPL,2024-03-22T04:25:00Z,34.9994,-77.9799,8,6,100,3,,7,30.25,,,TRUE,TRUE,,,,,,,CLR,,,,,,,,VFR,,,,,,,,,,,,METAR,39
KCTZ 220425Z AUTO 00000KT 10SM CLR 10/08 A3024 RMK AO2 T00960078,KCTZ,2024-03-22T04:25:00Z,34.9752,-78.3627,9.6,7.8,0,0,,10+,30.24,,,TRUE,TRUE,,,,,,,CLR,,,,,,,,VFR,,,,,,,,,,,,METAR,43
KCII 220425Z AUTO 03007KT 7SM M06/M07 A3017 RMK A01 ,KCII,2024-03-22T04:25:00Z,47.8262,-112.17,-6,-7,30,7,,7,30.17,,,TRUE,TRUE,,,,,,,,,,,,,,,VFR,,,,,,,,,,,,METAR,1202
KCGS 220425Z AUTO 00000KT 10SM CLR 01/M07 A3034 RMK AO2 T00061069,KCGS,2024-03-22T04:25:00Z,38.9806,-76.9251,0.6,-6.9,0,0,,10+,30.34,,,TRUE,TRUE,,,,,,,CLR,,,,,,,,VFR,,,,,,,,,,,,METAR,15
KCGE 220425Z AUTO 00000KT 10SM M00/M04 A3033 RMK A01,KCGE,2024-03-22T04:25:00Z,38.5372,-76.0309,0,-4,0,0,,10+,30.33,,,TRUE,TRUE,,,,,,,,,,,,,,,VFR,,,,,,,,,,,,METAR,5
KCBE 220425Z AUTO 35003KT 10SM CLR 02/M11 A3034 RMK AO2 T00151108,KCBE,2024-03-22T04:25:00Z,39.6182,-78.7598,1.5,-10.8,350,3,,10+,30.34,,,TRUE,TRUE,,,,,,,CLR,,,,,,,,VFR,,,,,,,,,,,,METAR,226
KBVI 220425Z AUTO 00000KT 10SM CLR M03/M11 A3030 RMK AO2,KBVI,2024-03-22T04:25:00Z,40.7735,-80.3825,-3,-11,0,0,,10+,30.30,,,TRUE,TRUE,,,,,,,CLR,,,,,,,,VFR,,,,,,,,,,,,METAR,387
KASJ 220425Z AUTO 00000KT 10SM CLR 05/03 A3027 RMK AO2 T00450027,KASJ,2024-03-22T04:25:00Z,36.2941,-77.1724,4.5,2.7,0,0,,10+,30.27,,,TRUE,TRUE,,,,,,,CLR,,,,,,,,VFR,,,,,,,,,,,,METAR,20
KACZ 220425Z AUTO 09003KT 10SM CLR 07/06 A3024 RMK AO2 T00730060,KACZ,2024-03-22T04:25:00Z,34.718,-78.005,7.3,6,90,3,,10+,30.24,,,TRUE,TRUE,,,,,,,CLR,,,,,,,,VFR,,,,,,,,,,,,METAR,30
K6S8 220425Z AUTO 06012KT 10SM M00/M00 A3011 RMK A01 Laurel ,K6S8,2024-03-22T04:25:00Z,45.703,-108.761,0,0,60,12,,10+,30.11,,,TRUE,TRUE,,,,,,,,,,,,,,,VFR,,,,,,,,,,,,METAR,1072
K4U6 220425Z AUTO 04006KT 10SM M07/M07 A3014 RMK A01 Circle ,K4U6,2024-03-22T04:25:00Z,47.419,-105.562,-7,-7,40,6,,10+,30.14,,,TRUE,TRUE,,,,,,,,,,,,,,,VFR,,,,,,,,,,,,METAR,739
K2G4 220425Z AUTO 00000KT 10SM CLR M03/M14 A3020 RMK AO2 TSNO,K2G4,2024-03-22T04:25:00Z,39.5827,-79.3418,-3,-14,0,0,,10+,30.20,,,TRUE,TRUE,,,TRUE,,,,CLR,,,,,,,,VFR,,,,,,,,,,,,METAR,908
K24A 220425Z AUTO 13006KT 10SM CLR 11/01 A3016 RMK AO2 T01130008,K24A,2024-03-22T04:25:00Z,35.3156,-83.2071,11.3,0.8,130,6,,10+,30.16,,,TRUE,TRUE,,,,,,,CLR,,,,,,,,VFR,,,,,,,,,,,,METAR,864
K0W3 220425Z AUTO 32004KT 10SM CLR 01/M13 A3030 RMK AO2 T00131132 $,K0W3,2024-03-22T04:25:00Z,39.566,-76.202,1.3,-13.2,320,4,,10+,30.30,,,TRUE,TRUE,TRUE,,,,,,CLR,,,,,,,,VFR,,,,,,,,,,,,METAR,125
EHWO 220425Z AUTO 23009KT 210V270 7000 BR OVC120 10/08 Q1019 WHT,EHWO,2024-03-22T04:25:00Z,51.448,4.342,10,8,230,9,,4.35,30.09,,,TRUE,,,,,,,BR,OVC,12000,,,,,,,MVFR,,,,,,,,,,,,METAR,15
EHVL 220425Z AUTO 23019KT 5000 DZ FEW023 BKN029 OVC032 10/08 Q1015 WHT,EHVL,2024-03-22T04:25:00Z,53.297,5.086,10,8,230,19,,3.11,29.97,,,TRUE,,,,,,,DZ,FEW,2300,BKN,2900,OVC,3200,,,MVFR,,,,,,,,,,,,METAR,2
EHVK 220425Z AUTO 23011KT 200V260 7000 BR OVC100 11/09 Q1018 WHT,EHVK,2024-03-22T04:25:00Z,51.658,5.707,11,9,230,11,,4.35,30.06,,,TRUE,,,,,,,BR,OVC,10000,,,,,,,MVFR,,,,,,,,,,,,METAR,20
EHSC 220425Z AUTO 23022KT 9999 ///////// 10/09 Q1018 W09/H11,EHSC,2024-03-22T04:25:00Z,51.926,3.67,10,9,230,22,,6+,30.06,,,TRUE,,,,,,,,,,,,,,,,VFR,,,,,,,,,,,,METAR,19
EHSA 220425Z AUTO 22026KT 9999 ///////// 10/08 Q1018 W09/H14,EHSA,2024-03-22T04:25:00Z,51.998,3.275,10,8,220,26,,6+,30.06,,,TRUE,,,,,,,,,,,,,,,,VFR,,,,,,,,,,,,METAR,18
EHRD 220425Z AUTO 23013KT 9000 FEW010 10/08 Q1018 NOSIG,EHRD,2024-03-22T04:25:00Z,51.954,4.444,10,8,230,13,,5.59,30.06,,,TRUE,,,TRUE,,,,,FEW,1000,,,,,,,VFR,,,,,,,,,,,,METAR,-4
EHPG 220425Z AUTO 24026KT 9999 SCT031 10/08 Q1017,EHPG,2024-03-22T04:25:00Z,52.36,3.342,10,8,240,26,,6+,30.03,,,TRUE,,,,,,,,SCT,3100,,,,,,,VFR,,,,,,,,,,,,METAR,24
EHMG 220425Z AUTO 24022KT 8000 FEW015CB SCT022 OVC025 10/07 Q1015,EHMG,2024-03-22T04:25:00Z,53.614,4.96,10,7,240,22,,4.97,29.97,,,TRUE,,,,,,,,FEW,1500,SCT,2200,OVC,2500,,,MVFR,,,,,,,,,,,,METAR,30
EHMA 220425Z AUTO 23018KT 4800 BR FEW001 BKN030 BKN039 10/08 Q1014,EHMA,2024-03-22T04:25:00Z,53.492,5.942,10,8,230,18,,2.98,29.94,,,TRUE,,,,,,,BR,FEW,100,BKN,3000,BKN,3900,,,IFR,,,,,,,,,,,,METAR,27
EHLW 220425Z AUTO 24013KT 200V260 8000 BR FEW009 SCT041 OVC053 10/09 Q1015 BLU,EHLW,2024-03-22T04:25:00Z,53.223,5.752,10,9,240,13,,4.97,29.97,,,TRUE,,,,,,,BR,FEW,900,SCT,4100,OVC,5300,,,MVFR,,,,,,,,,,,,METAR,1
EHLE 220425Z AUTO 23012KT 200V260 6000 BR FEW008 BKN009 OVC011 10/09 Q1017,EHLE,2024-03-22T04:25:00Z,52.456,5.522,10,9,230,12,,3.73,30.03,,,TRUE,,,,,,,BR,FEW,800,BKN,900,OVC,1100,,,IFR,,,,,,,,,,,,METAR,-3
EHKV 220425Z AUTO 26025KT 9999 BKN022 BKN026 OVC037 10/07 Q1015,EHKV,2024-03-22T04:25:00Z,53.269,3.628,10,7,260,25,,6+,29.97,,,TRUE,,,,,,,,BKN,2200,BKN,2600,OVC,3700,,,MVFR,,,,,,,,,,,,METAR,28
EHKD 220425Z AUTO 23015KT 200V260 5000 -SHRA FEW015CB OVC021 10/09 Q1016 REDZ WHT,EHKD,2024-03-22T04:25:00Z,52.927,4.781,10,9,230,15,,3.11,30.00,,,TRUE,,,,,,,-SHRA,FEW,1500,OVC,2100,,,,,MVFR,,,,,,,,,,,,METAR,1
EHJR 220425Z AUTO 25023KT //// // ///////// 09/07 Q1015 RE// W08/H12,EHJR,2024-03-22T04:25:00Z,53.218,3.22,9,7,250,23,,,29.97,,,TRUE,,,,,,,,,,,,,,,,VFR,,,,,,,,,,,,METAR,31
EHJA 220425Z AUTO 24024KT 9999 FEW024/// OVC029/// 09/07 Q1013,EHJA,2024-03-22T04:25:00Z,53.824,2.945,9,7,240,24,,6+,29.91,,,TRUE,,,,,,,,FEW,2400,OVC,2900,,,,,MVFR,,,,,,,,,,,,METAR,34
EHHW 220425Z AUTO 25015KT 220V280 9999 FEW020/// OVC024/// 09/07 Q1013,EHHW,2024-03-22T04:25:00Z,54.037,6.042,9,7,250,15,,6+,29.91,,,TRUE,,,,,,,,FEW,2000,OVC,2400,,,,,MVFR,,,,,,,,,,,,METAR,10
EHGR 220425Z AUTO 24006KT 200V270 9000 BR OVC110 11/08 Q1018 BLU,EHGR,2024-03-22T04:25:00Z,51.565,4.935,11,8,240,6,,5.59,30.06,,,TRUE,,,,,,,BR,OVC,11000,,,,,,,VFR,,,,,,,,,,,,METAR,12
EHGG 220425Z AUTO 24011KT 210V270 4900 SCT008/// BKN010/// OVC014/// 11/09 Q1015,EHGG,2024-03-22T04:25:00Z,53.12,6.579,11,9,240,11,,3.04,29.97,,,TRUE,,,,,,,,SCT,800,BKN,1000,OVC,1400,,,MVFR,,,,,,,,,,,,METAR,2
EHFD 220425Z AUTO 26024KT 5000 -RA FEW012/// BKN022/// BKN027/// 08/07 Q1011 RERA REDZ,EHFD,2024-03-22T04:25:00Z,54.854,4.696,8,7,260,24,,3.11,29.85,,,TRUE,,,,,,,-RA,FEW,1200,BKN,2200,BKN,2700,,,MVFR,,,,,,,,,,,,METAR,24
EHEH 220425Z AUTO 23009KT 200V270 9999 BKN089 OVC130 11/09 Q1019 BLU,EHEH,2024-03-22T04:25:00Z,51.45,5.377,11,9,230,9,,6+,30.09,,,TRUE,,,,,,,,BKN,8900,OVC,13000,,,,,VFR,,,,,,,,,,,,METAR,20
EHDV 220425Z AUTO 25019KT 6000 -RA FEW007/// SCT014/// BKN017/// 09/07 Q1012,EHDV,2024-03-22T04:25:00Z,54.326,2.936,9,7,250,19,,3.73,29.88,,,TRUE,,,,,,,-RA,FEW,700,SCT,1400,BKN,1700,,,MVFR,,,,,,,,,,,,METAR,36
EHDL 220425Z AUTO 24009KT 180V280 7000 BR SCT009 OVC010 11/09 Q1017 GRN,EHDL,2024-03-22T04:25:00Z,52.061,5.887,11,9,240,9,,4.35,30.03,,,TRUE,,,,,,,BR,SCT,900,OVC,1000,,,,,MVFR,,,,,,,,,,,,METAR,49
EHBK 220425Z AUTO 22012KT 9999 NSC 12/09 Q1020,EHBK,2024-03-22T04:25:00Z,50.905,5.762,12,9,220,12,,6+,30.12,,,TRUE,,,,,,,,CLR,,,,,,,,VFR,,,,,,,,,,,,METAR,112
EHAM 220425Z 23010KT 9999 FEW010 SCT028 10/09 Q1017 NOSIG,EHAM,2024-03-22T04:25:00Z,52.315,4.79,10,9,230,10,,6+,30.03,,,,,,TRUE,,,,,FEW,1000,SCT,2800,,,,,VFR,,,,,,,,,,,,METAR,-2
EHAK 220425Z AUTO 25024KT 9999 FEW031/// SCT036/// BKN041/// 08/07 Q1010,EHAK,2024-03-22T04:25:00Z,55.399,3.81,8,7,250,24,,6+,29.82,,,TRUE,,,,,,,,FEW,3100,SCT,3600,BKN,4100,,,VFR,,,,,,,,,,,,METAR,33
CYWK 220425Z AUTO 02010G16KT 9SM BKN024 BKN029 OVC035 M04/M06 A2957 RMK SLP045,CYWK,2024-03-22T04:25:00Z,52.927,-66.874,-4,-6,20,10,16,9,29.57,1004.5,,TRUE,,,,,,,,BKN,2400,BKN,2900,OVC,3500,,,MVFR,,,,,,,,,,,,SPECI,547
CYBW 220425Z AUTO 18004KT 3SM -SN OVC028 M08/M09 A3017 RMK SLP290,CYBW,2024-03-22T04:25:00Z,51.108,-114.382,-8,-9,180,4,,3,30.17,1029,,TRUE,,,,,,,-SN,OVC,2800,,,,,,,MVFR,,,,,,,,,,,,SPECI,1197
PAVC 220424Z AUTO 21010KT 1/2SM -RA FG OVC002 03/03 A2955 RMK AO2 P0000,PAVC,2024-03-22T04:24:00Z,55.115,-162.271,3,3,210,10,,0.5,29.55,,,TRUE,TRUE,,,,,,-RA FG,OVC,200,,,,,,,LIFR,,,,,,0.005,,,,,,SPECI,48
KMSN 220424Z AUTO 12006KT 1SM R36/4500VP6000FT -SN BR OVC024 M02/M03 A3018 RMK AO2 SNB05 P0000 T10171033,KMSN,2024-03-22T04:24:00Z,43.1407,-89.3452,-1.7,-3.3,120,6,,1,30.18,,,TRUE,TRUE,,,,,,-SN BR,OVC,2400,,,,,,,IFR,,,,,,0.005,,,,,,SPECI,262
KLNR 220424Z AUTO 07007KT 1/2SM SN FZFG VV010 M02/M03 A3018 RMK AO2 P0002 T10171028,KLNR,2024-03-22T04:24:00Z,43.2111,-90.1874,-1.7,-2.8,70,7,,0.5,30.18,,,TRUE,TRUE,,,,,,SN FZFG,OVX,0,,,,,,,LIFR,,,,,,0.02,,,,,1000,SPECI,218
KFCM 220424Z AUTO 09004KT 1 1/4SM -SN BR FEW007 OVC025 M03/M04 A3020 RMK AO2 P0000 T10281044,KFCM,2024-03-22T04:24:00Z,44.8321,-93.4705,-2.8,-4.4,90,4,,1.25,30.20,,,TRUE,TRUE,,,,,,-SN BR,FEW,700,OVC,2500,,,,,IFR,,,,,,0.005,,,,,,SPECI,276
CYPX 220424Z AUTO 10007KT 6SM -SN OVC012 M12/M13 A2989 RMK SLP125,CYPX,2024-03-22T04:24:00Z,60.045,-77.281,-12,-13,100,7,,6,29.89,1012.5,,TRUE,,,,,,,-SN,OVC,1200,,,,,,,MVFR,,,,,,,,,,,,SPECI,10
CYAY 220424Z AUTO 06013G18KT 9SM -SN BKN009 OVC014 M00/M01 A2956 RMK SLP014,CYAY,2024-03-22T04:24:00Z,51.39,-56.081,0,-1,60,13,18,9,29.56,1001.4,,TRUE,,,,,,,-SN,BKN,900,OVC,1400,,,,,IFR,,,,,,,,,,,,SPECI,23
PAVL 220423Z AUTO 15013KT 1 1/4SM -SN BR SCT006 OVC010 01/00 A2957 RMK AO2 P0000 T00060000 TSNO,PAVL,2024-03-22T04:23:00Z,67.731,-164.548,0.6,0,150,13,,1.25,29.57,,,TRUE,TRUE,,,TRUE,,,-SN BR,SCT,600,OVC,1000,,,,,IFR,,,,,,0.005,,,,,,SPECI,6
PAMY 220423Z AUTO 13014KT 9SM -SN SCT007 BKN023 OVC033 01/00 A2938 RMK AO2 P0000 FZRANO,PAMY,2024-03-22T04:23:00Z,60.376,-166.262,1,0,130,14,,9,29.38,,,TRUE,TRUE,,,,TRUE,,-SN,SCT,700,BKN,2300,OVC,3300,,,MVFR,,,,,,0.005,,,,,,SPECI,14
KLWT 220423Z AUTO 30010KT 10SM BKN012 OVC021 M06/M08 A3012 RMK AO2 T10561078,KLWT,2024-03-22T04:23:00Z,47.0544,-109.457,-5.6,-7.8,300,10,,10+,30.12,,,TRUE,TRUE,,,,,,,BKN,1200,OVC,2100,,,,,MVFR,,,,,,,,,,,,SPECI,1254
KEVM 220423Z AUTO 06003KT 10SM OVC100 M06/M18 A3020 RMK AO1,KEVM,2024-03-22T04:23:00Z,47.4274,-92.4972,-6,-18,60,3,,10+,30.20,,,TRUE,TRUE,,,,,,,OVC,10000,,,,,,,VFR,,,,,,,,,,,,METAR,419
CYDQ 220423Z AUTO 08006KT 9SM -SN BKN021 OVC042 M07/M09 A3034 RMK SLP324,CYDQ,2024-03-22T04:23:00Z,55.741,-120.188,-7,-9,80,6,,9,30.34,1032.4,,TRUE,,,,,,,-SN,BKN,2100,OVC,4200,,,,,MVFR,,,,,,,,,,,,SPECI,658
KRST 220422Z AUTO 05005KT 2SM -SN BR BKN025 BKN034 OVC042 M03/M04 A3015 RMK AO2 P0001 T10331044,KRST,2024-03-22T04:22:00Z,43.904,-92.4921,-3.3,-4.4,50,5,,2,30.15,,,TRUE,TRUE,,,,,,-SN BR,BKN,2500,BKN,3400,OVC,4200,,,IFR,,,,,,0.01,,,,,,SPECI,398
KNXF 220422Z AUTO 00000KT 10SM SCT011 13/ A3009 RMK AO2 T0133 $,KNXF,2024-03-22T04:22:00Z,33.287,-117.456,13.3,,0,0,,10+,30.09,,,TRUE,TRUE,TRUE,,,,,,SCT,1100,,,,,,,VFR,,,,,,,,,,,,SPECI,28
KBTR 220422Z AUTO 08004KT 10SM OVC014 13/11 A2996 RMK AO2 T01280111,KBTR,2024-03-22T04:22:00Z,30.5378,-91.1468,12.8,11.1,80,4,,10+,29.96,,,TRUE,TRUE,,,,,,,OVC,1400,,,,,,,MVFR,,,,,,,,,,,,SPECI,20
CZPC 220422Z AUTO 14004KT 5SM -SN BKN050 OVC071 M08/M09 A3019 RMK SLP295,CZPC,2024-03-22T04:22:00Z,49.522,-114.005,-8,-9,140,4,,5,30.19,1029.5,,TRUE,,,,,,,-SN,BKN,5000,OVC,7100,,,,,MVFR,,,,,,,,,,,,SPECI,1187
CYQX 220422Z 21016G25KT 15SM -RA OVC045 01/M01 A2963 RMK SC8 SLP042,CYQX,2024-03-22T04:22:00Z,48.946,-54.576,1,-1,210,16,25,15,29.63,1004.2,,,,,,,,,-RA,OVC,4500,,,,,,,VFR,,,,,,,,,,,,SPECI,144
CYBC 220422Z AUTO 32009G15KT 9SM -SNRA OVC046 00/M01 A2950 RMK SLP994,CYBC,2024-03-22T04:22:00Z,49.135,-68.202,0,-1,320,9,15,9,29.50,999.4,,TRUE,,,,,,,-SN -RA,OVC,4600,,,,,,,VFR,,,,,,,,,,,,SPECI,20
YBTL 220421Z AUTO 10017G27KT 5000 -SHRA SCT025 SCT042 BKN058 26/24 Q1012,YBTL,2024-03-22T04:21:00Z,-19.248,146.766,26,24,100,17,27,3.11,29.88,,,TRUE,,,,,,,-SHRA,SCT,2500,SCT,4200,BKN,5800,,,MVFR,,,,,,,,,,,,SPECI,4
KWLD 220421Z AUTO 12005KT 10SM SCT009 13/13 A2993 RMK AO2 T01330133 $,KWLD,2024-03-22T04:21:00Z,37.1649,-97.035,13.3,13.3,120,5,,10+,29.93,,,TRUE,TRUE,TRUE,,,,,,SCT,900,,,,,,,VFR,,,,,,,,,,,,SPECI,351
KSFY 220421Z AUTO 10009KT 10SM BKN090 BKN110 03/M08 A3013 RMK AO2,KSFY,2024-03-22T04:21:00Z,42.0454,-90.1101,3,-8,100,9,,10+,30.13,,,TRUE,TRUE,,,,,,,BKN,9000,BKN,11000,,,,,VFR,,,,,,,,,,,,METAR,188
KRKP 220421Z AUTO 00000KT 6SM BR OVC003 20/19 A2987 RMK AO2 T02000194,KRKP,2024-03-22T04:21:00Z,28.0837,-97.0467,20,19.4,0,0,,6,29.87,,,TRUE,TRUE,,,,,,BR,OVC,300,,,,,,,LIFR,,,,,,,,,,,,SPECI,8
CYGV 220421Z AUTO 05018G24KT 5SM -SN FEW008 BKN014 BKN022 OVC028 M01/M02 A2928 RMK SLP920,CYGV,2024-03-22T04:21:00Z,50.286,-63.606,-1,-2,50,18,24,5,29.28,992,,TRUE,,,,,,,-SN,FEW,800,BKN,1400,BKN,2200,OVC,2800,MVFR,,,,,,,,,,,,SPECI,32
CYFC 220421Z AUTO 25015G21KT 5SM -SN SCT025 BKN033 OVC041 M05/M09 A2968 RMK SLP055,CYFC,2024-03-22T04:21:00Z,45.873,-66.539,-5,-9,250,15,21,5,29.68,1005.5,,TRUE,,,,,,,-SN,SCT,2500,BKN,3300,OVC,4100,,,MVFR,,,,,,,,,,,,SPECI,16
PKWA 220420Z COR 06010KT 10SM SCT017 SCT026 30/24 A2984 RMK AO2 PNO TSNO,PKWA,2024-03-22T04:20:00Z,8.72,167.724,30,24,60,10,,10+,29.84,,TRUE,,TRUE,,,TRUE,,,,SCT,1700,SCT,2600,,,,,VFR,,,,,,,,,,,,METAR,6
PAOM 220420Z 12014KT 3/4SM R28/5000VP6000FT -SN BR VV006 01/M01 A2955 RMK AO2 P0001 T00061006 $,PAOM,2024-03-22T04:20:00Z,64.5111,-165.44,0.6,-0.6,120,14,,0.75,29.55,,,,TRUE,TRUE,,,,,-SN BR,OVX,0,,,,,,,LIFR,,,,,,0.01,,,,,600,SPECI,6
LWSK 220420Z VRB01KT 9999 SCT097 06/00 Q1018 NOSIG,LWSK,2024-03-22T04:20:00Z,41.952,21.627,6,0,VRB,1,,6+,30.06,,,,,,TRUE,,,,,SCT,9700,,,,,,,VFR,,,,,,,,,,,,METAR,232
LTFM 220420Z 36012KT 9999 -SHRA SCT013 BKN025 06/03 Q1017 NOSIG,LTFM,2024-03-22T04:20:00Z,41.262,28.74,6,3,360,12,,6+,30.03,,,,,,TRUE,,,,-SHRA,SCT,1300,BKN,2500,,,,,MVFR,,,,,,,,,,,,METAR,99
LTFJ 220420Z 02008KT 280V080 9999 SCT013 BKN028 BKN070 06/03 Q1016 NOSIG,LTFJ,2024-03-22T04:20:00Z,40.899,29.309,6,3,20,8,,6+,30.00,,,,,,TRUE,,,,,SCT,1300,BKN,2800,BKN,7000,,,MVFR,,,,,,,,,,,,METAR,83
LTFE 220420Z VRB01KT CAVOK 03/02 Q1015 NOSIG,LTFE,2024-03-22T04:20:00Z,37.245,27.673,3,2,VRB,1,,6+,29.97,,,,,,TRUE,,,,,CAVOK,,,,,,,,VFR,,,,,,,,,,,,METAR,6
LTFC 220420Z 02004KT 340V060 9999 FEW040 M01/M04 Q1013,LTFC,2024-03-22T04:20:00Z,37.855,30.368,-1,-4,20,4,,6+,29.91,,,,,,,,,,,FEW,4000,,,,,,,VFR,,,,,,,,,,,,METAR,862
LTCS 220420Z 18006KT 9999 SCT004 BKN035 BKN080 06/06 Q1006,LTCS,2024-03-22T04:20:00Z,37.445,38.904,6,6,180,6,,6+,29.70,,,,,,,,,,,SCT,400,BKN,3500,BKN,8000,,,VFR,,,,,,,,,,,,METAR,825
LTCJ 220420Z 33007KT 280V010 7000 SHRA FEW025CB BKN035 07/07 Q1007 NOSIG,LTCJ,2024-03-22T04:20:00Z,37.93,41.117,7,7,330,7,,4.35,29.73,,,,,,TRUE,,,,SHRA,FEW,2500,BKN,3500,,,,,MVFR,,,,,,,,,,,,METAR,559
LTCG 220420Z 29003KT 9999 SCT016 BKN033 07/06 Q1013 RERA NOSIG,LTCG,2024-03-22T04:20:00Z,40.995,39.782,7,6,290,3,,6+,29.91,,,,,,TRUE,,,,,SCT,1600,BKN,3300,,,,,VFR,,,,,,,,,,,,METAR,28
LTCE 220420Z 10006KT 2000 -SN BKN020 BKN070 00/M00 Q1007 RESN NOSIG,LTCE,2024-03-22T04:20:00Z,39.956,41.17,0,0,100,6,,1.24,29.73,,,,,,TRUE,,,,-SN,BKN,2000,BKN,7000,,,,,IFR,,,,,,,,,,,,METAR,1758
LTCC 220420Z 02008KT 9999 -SHRA BKN035 BKN090 06/06 Q1007 NOSIG,LTCC,2024-03-22T04:20:00Z,37.894,40.201,6,6,20,8,,6+,29.73,,,,,,TRUE,,,,-SHRA,BKN,3500,BKN,9000,,,,,VFR,,,,,,,,,,,,METAR,676
LTBU 220420Z 35011KT 9999 SCT030 02/00 Q1017,LTBU,2024-03-22T04:20:00Z,41.139,27.919,2,0,350,11,,6+,30.03,,,,,,,,,,,SCT,3000,,,,,,,VFR,,,,,,,,,,,,METAR,165
LTBS 220420Z 01008KT CAVOK 06/01 Q1014 NOSIG,LTBS,2024-03-22T04:20:00Z,36.713,28.793,6,1,10,8,,6+,29.94,,,,,,TRUE,,,,,CAVOK,,,,,,,,VFR,,,,,,,,,,,,METAR,2
LTBR 220420Z VRB04KT 7000 -SHSNRA FEW015 BKN025 BKN080 03/03 Q1015 TEMPO 2500 SHSNRA,LTBR,2024-03-22T04:20:00Z,40.255,29.562,3,3,VRB,4,,4.35,29.97,,,,,,,,,,-SHSN -SHRA,FEW,1500,BKN,2500,BKN,8000,,,MVFR,,,,,,,,,,,,METAR,233
LTBJ 220420Z VRB02KT 9999 SCT030 SCT080 03/03 Q1015 NOSIG,LTBJ,2024-03-22T04:20:00Z,38.285,27.155,3,3,VRB,2,,6+,29.97,,,,,,TRUE,,,,,SCT,3000,SCT,8000,,,,,VFR,,,,,,,,,,,,METAR,123
LTBA 220420Z 36010KT 9999 SCT025 SCT080 05/03 Q1017,LTBA,2024-03-22T04:20:00Z,40.982,28.821,5,3,360,10,,6+,30.03,,,,,,,,,,,SCT,2500,SCT,8000,,,,,VFR,,,,,,,,,,,,METAR,33
LTAZ 220420Z 27004KT 9999 FEW017 BKN027 00/M01 Q1012,LTAZ,2024-03-22T04:20:00Z,38.771,34.521,0,-1,270,4,,6+,29.88,,,,,,,,,,,FEW,1700,BKN,2700,,,,,MVFR,,,,,,,,,,,,METAR,944
LTAU 220420Z 31006KT 280V340 9999 SCT010 BKN025 BKN080 01/M01 Q1010 NOSIG,LTAU,2024-03-22T04:20:00Z,38.77,35.495,1,-1,310,6,,6+,29.82,,,,,,TRUE,,,,,SCT,1000,BKN,2500,BKN,8000,,,MVFR,,,,,,,,,,,,METAR,1053
LTAT 220420Z 30010KT 9999 -RA FEW013 BKN035 BKN090 06/02 Q1006 NOSIG,LTAT,2024-03-22T04:20:00Z,38.435,38.092,6,2,300,10,,6+,29.70,,,,,,TRUE,,,,-RA,FEW,1300,BKN,3500,BKN,9000,,,VFR,,,,,,,,,,,,METAR,850
LTAP 220420Z 00000KT 9999 FEW022 BKN040 BKN090 01/00 Q1012 NOSIG,LTAP,2024-03-22T04:20:00Z,40.826,35.52,1,0,0,0,,6+,29.88,,,,,,TRUE,,,,,FEW,2200,BKN,4000,BKN,9000,,,VFR,,,,,,,,,,,,METAR,536
LTAJ 220420Z 25003KT 220V290 9999 BKN025 BKN070 07/06 Q1006 NOSIG,LTAJ,2024-03-22T04:20:00Z,36.947,37.479,7,6,250,3,,6+,29.70,,,,,,TRUE,,,,,BKN,2500,BKN,7000,,,,,MVFR,,,,,,,,,,,,METAR,684
LTAI 220420Z 32010KT CAVOK 10/M02 Q1012 NOSIG,LTAI,2024-03-22T04:20:00Z,36.9,30.798,10,-2,320,10,,6+,29.88,,,,,,TRUE,,,,,CAVOK,,,,,,,,VFR,,,,,,,,,,,,METAR,50
LTAG 220420Z 27002KT 9999 SCT030 BKN090 10/05 Q1008 NOSIG,LTAG,2024-03-22T04:20:00Z,37.002,35.426,10,5,270,2,,6+,29.76,,,,,,TRUE,,,,,SCT,3000,BKN,9000,,,,,VFR,,,,,,,,,,,,METAR,62
LTAF 220420Z 00000KT 9999 SCT035 BKN100 10/08 Q1008 NOSIG,LTAF,2024-03-22T04:20:00Z,36.989,35.293,10,8,0,0,,6+,29.76,,,,,,TRUE,,,,,SCT,3500,BKN,10000,,,,,VFR,,,,,,,,,,,,METAR,19
LTAC 220420Z 00000KT 9999 -SN BKN035 BKN090 M04/M06 Q1012 NOSIG,LTAC,2024-03-22T04:20:00Z,40.128,32.995,-4,-6,0,0,,6+,29.88,,,,,,TRUE,,,,-SN,BKN,3500,BKN,9000,,,,,VFR,,,,,,,,,,,,METAR,952
LSZS 220420Z AUTO VRB02KT CAVOK M04/M06 Q1024,LSZS,2024-03-22T04:20:00Z,46.526,9.879,-4,-6,VRB,2,,6+,30.24,,,TRUE,,,,,,,,CAVOK,,,,,,,,VFR,,,,,,,,,,,,METAR,1708
LSZR 220420Z AUTO VRB01KT CAVOK 05/05 Q1023,LSZR,2024-03-22T04:20:00Z,47.485,9.561,5,5,VRB,1,,6+,30.21,,,TRUE,,,,,,,,CAVOK,,,,,,,,VFR,,,,,,,,,,,,METAR,396
LSZL 220420Z AUTO 00000KT 9999NDV NCD 06/03 Q1022 RMK,LSZL,2024-03-22T04:20:00Z,46.164,8.878,6,3,0,0,,,30.18,,,TRUE,,,,,,,,CLR,,,,,,,,VFR,,,,,,,,,,,,METAR,198
LSZH 220420Z AUTO 15001KT CAVOK 05/05 Q1023 NOSIG,LSZH,2024-03-22T04:20:00Z,47.48,8.536,5,5,150,1,,6+,30.21,,,TRUE,,,TRUE,,,,,CAVOK,,,,,,,,VFR,,,,,,,,,,,,METAR,424
LSZG 220420Z AUTO 00000KT CAVOK 06/06 Q1023,LSZG,2024-03-22T04:20:00Z,47.179,7.415,6,6,0,0,,6+,30.21,,,TRUE,,,,,,,,CAVOK,,,,,,,,VFR,,,,,,,,,,,,METAR,428
LSZC 220420Z AUTO VRB01KT 9999 OVC130 05/04 Q1024,LSZC,2024-03-22T04:20:00Z,46.972,8.392,5,4,VRB,1,,6+,30.24,,,TRUE,,,,,,,,OVC,13000,,,,,,,VFR,,,,,,,,,,,,METAR,445
LSZB 220420Z AUTO 09006KT 9999 OVC130 05/05 Q1023,LSZB,2024-03-22T04:20:00Z,46.914,7.497,5,5,90,6,,6+,30.21,,,TRUE,,,,,,,,OVC,13000,,,,,,,VFR,,,,,,,,,,,,METAR,510
LSZA 220420Z AUTO VRB01KT CAVOK 05/03 Q1022,LSZA,2024-03-22T04:20:00Z,46.004,8.91,5,3,VRB,1,,6+,30.18,,,TRUE,,,,,,,,CAVOK,,,,,,,,VFR,,,,,,,,,,,,METAR,276
LSMP 220420Z AUTO 20003KT 170V230 9999NDV OVC140 07/05 Q1024 RMK,LSMP,2024-03-22T04:20:00Z,46.844,6.916,7,5,200,3,,,30.24,,,TRUE,,,,,,,,OVC,14000,,,,,,,VFR,,,,,,,,,,,,METAR,490
LSMM 220420Z AUTO 00000KT 9999NDV BR FEW120 04/04 Q1024 RMK,LSMM,2024-03-22T04:20:00Z,46.743,8.11,4,4,0,0,,,30.24,,,TRUE,,,,,,,BR,FEW,12000,,,,,,,VFR,,,,,,,,,,,,METAR,570
LSME 220420Z AUTO 00000KT 9999NDV SCT130 05/04 Q1023 RMK,LSME,2024-03-22T04:20:00Z,47.092,8.305,5,4,0,0,,,30.21,,,TRUE,,,,,,,,SCT,13000,,,,,,,VFR,,,,,,,,,,,,METAR,427
LSMD 220420Z AUTO 12002KT 9999NDV BKN120 05/05 Q1023 RMK,LSMD,2024-03-22T04:20:00Z,47.399,8.648,5,5,120,2,,,30.21,,,TRUE,,,,,,,,BKN,12000,,,,,,,VFR,,,,,,,,,,,,METAR,436
LSMA 220420Z AUTO 19002KT 9999NDV SCT130 04/03 Q1024 RMK,LSMA,2024-03-22T04:20:00Z,46.943,8.286,4,3,190,2,,,30.24,,,TRUE,,,,,,,,SCT,13000,,,,,,,VFR,,,,,,,,,,,,METAR,441
LSGS 220420Z AUTO VRB02KT 9999 SCT140 05/03 Q1025,LSGS,2024-03-22T04:20:00Z,46.219,7.33,5,3,VRB,2,,6+,30.27,,,TRUE,,,,,,,,SCT,14000,,,,,,,VFR,,,,,,,,,,,,METAR,482
LSGG 220420Z AUTO VRB02KT CAVOK 08/06 Q1023 NOSIG,LSGG,2024-03-22T04:20:00Z,46.248,6.128,8,6,VRB,2,,6+,30.21,,,TRUE,,,TRUE,,,,,CAVOK,,,,,,,,VFR,,,,,,,,,,,,METAR,411
LSGC 220420Z AUTO 23003KT CAVOK 04/04 Q1023,LSGC,2024-03-22T04:20:00Z,47.083,6.792,4,4,230,3,,6+,30.21,,,TRUE,,,,,,,,CAVOK,,,,,,,,VFR,,,,,,,,,,,,METAR,1018
LOWW 220420Z 29010KT 9999 FEW040 11/07 Q1021 NOSIG,LOWW,2024-03-22T04:20:00Z,48.117,16.582,11,7,290,10,,6+,30.15,,,,,,TRUE,,,,,FEW,4000,,,,,,,VFR,,,,,,,,,,,,METAR,179
LOWS 220420Z AUTO 16008KT 9999 NCD 05/05 Q1023,LOWS,2024-03-22T04:20:00Z,47.789,13.009,5,5,160,8,,6+,30.21,,,TRUE,,,,,,,,CLR,,,,,,,,VFR,,,,,,,,,,,,METAR,427
LOWL 220420Z AUTO 24006KT 7000 FEW046 05/05 Q1023 TEMPO 3000 BR,LOWL,2024-03-22T04:20:00Z,48.233,14.188,5,5,240,6,,4.35,30.21,,,TRUE,,,,,,,,FEW,4600,,,,,,,MVFR,,,,,,,,,,,,METAR,290
LOWK 220420Z AUTO 33006KT 4200 BR BKN002 06/06 Q1023,LOWK,2024-03-22T04:20:00Z,46.648,14.318,6,6,330,6,,2.61,30.21,,,TRUE,,,,,,,BR,BKN,200,,,,,,,LIFR,,,,,,,,,,,,METAR,450
LOWI 220420Z AUTO VRB01KT 9999 FEW009 BKN020 07/06 Q1025,LOWI,2024-03-22T04:20:00Z,47.26,11.344,7,6,VRB,1,,6+,30.27,,,TRUE,,,,,,,,FEW,900,BKN,2000,,,,,MVFR,,,,,,,,,,,,METAR,570
LOWG 220420Z AUTO 28004KT 9999 FEW070 SCT080 09/04 Q1021,LOWG,2024-03-22T04:20:00Z,46.997,15.447,9,4,280,4,,6+,30.15,,,TRUE,,,,,,,,FEW,7000,SCT,8000,,,,,VFR,,,,,,,,,,,,METAR,337
LLBG 220420Z 16007KT 9999 SCT044 14/07 Q1013 NOSIG,LLBG,2024-03-22T04:20:00Z,32.011,34.887,14,7,160,7,,6+,29.91,,,,,,TRUE,,,,,SCT,4400,,,,,,,VFR,,,,,,,,,,,,METAR,35
LIRZ 220420Z AUTO 01005KT 9999 BKN056/// 10/10 Q1019,LIRZ,2024-03-22T04:20:00Z,43.097,12.51,10,10,10,5,,6+,30.09,,,TRUE,,,,,,,,BKN,5600,,,,,,,VFR,,,,,,,,,,,,METAR,206
LIRQ 220420Z VRB01KT 4000 BR BKN005 12/12 Q1020,LIRQ,2024-03-22T04:20:00Z,43.81,11.205,12,12,VRB,1,,2.49,30.12,,,,,,,,,,BR,BKN,500,,,,,,,IFR,,,,,,,,,,,,METAR,33
LIRN 220420Z VRB01KT CAVOK 13/11 Q1018 NOSIG,LIRN,2024-03-22T04:20:00Z,40.885,14.292,13,11,VRB,1,,6+,30.06,,,,,,TRUE,,,,,CAVOK,,,,,,,,VFR,,,,,,,,,,,,METAR,76
LIRF 220420Z 34003KT CAVOK 12/11 Q1018 NOSIG,LIRF,2024-03-22T04:20:00Z,41.8,12.239,12,11,340,3,,6+,30.06,,,,,,TRUE,,,,,CAVOK,,,,,,,,VFR,,,,,,,,,,,,METAR,2
LIRA 220420Z VRB01KT 9999 BKN070 12/11 Q1018,LIRA,2024-03-22T04:20:00Z,41.808,12.585,12,11,VRB,1,,6+,30.06,,,,,,,,,,,BKN,7000,,,,,,,VFR,,,,,,,,,,,,METAR,101
LIPZ 220420Z 32003KT 3000 BCFG NSC 08/08 Q1020 NOSIG,LIPZ,2024-03-22T04:20:00Z,45.505,12.352,8,8,320,3,,1.86,30.12,,,,,,TRUE,,,,BCFG,CLR,,,,,,,,IFR,,,,,,,,,,,,METAR,3
LIPY 220420Z AUTO 20002KT 9000 BKN008/// BKN067/// 12/11 Q1019,LIPY,2024-03-22T04:20:00Z,43.617,13.36,12,11,200,2,,5.59,30.09,,,TRUE,,,,,,,,BKN,800,BKN,6700,,,,,IFR,,,,,,,,,,,,METAR,11
LIPX 220420Z 34006KT 5000 BR NSC 08/07 Q1021,LIPX,2024-03-22T04:20:00Z,45.387,10.872,8,7,340,6,,3.11,30.15,,,,,,,,,,BR,CLR,,,,,,,,MVFR,,,,,,,,,,,,METAR,67
LIPR 220420Z AUTO 27006KT 6000 BKN077/// 10/10 Q1020,LIPR,2024-03-22T04:20:00Z,44.02,12.612,10,10,270,6,,3.73,30.12,,,TRUE,,,,,,,,BKN,7700,,,,,,,MVFR,,,,,,,,,,,,METAR,10
LIPQ 220420Z AUTO 36004KT 6000 NCD 06/06 Q1020,LIPQ,2024-03-22T04:20:00Z,45.828,13.472,6,6,360,4,,3.73,30.12,,,TRUE,,,,,,,,CLR,,,,,,,,MVFR,,,,,,,,,,,,METAR,6
LIPO 220420Z AUTO 01006KT 3500 BR NCD 09/09 Q1021,LIPO,2024-03-22T04:20:00Z,45.429,10.331,9,9,10,6,,2.17,30.15,,,TRUE,,,,,,,BR,CLR,,,,,,,,IFR,,,,,,,,,,,,METAR,104
LIPH 220420Z AUTO 25001KT 2600 0300E BR NCD 07/07 Q1021,LIPH,2024-03-22T04:20:00Z,45.648,12.194,7,7,250,1,,1.62,30.15,,,TRUE,,,,,,,BR,CLR,,,,,,,,IFR,,,,,,,,,,,,METAR,10
LIPE 220420Z 25001KT 3000 R12/0450U R30/P2000N MIFG NSC 07/07 Q1021,LIPE,2024-03-22T04:20:00Z,44.531,11.297,7,7,250,1,,1.86,30.15,,,,,,,,,,MIFG,CLR,,,,,,,,IFR,,,,,,,,,,,,METAR,37
LIMZ 220420Z AUTO 18005KT 9999 NCD 06/04 Q1020,LIMZ,2024-03-22T04:20:00Z,44.547,7.623,6,4,180,5,,6+,30.12,,,TRUE,,,,,,,,CLR,,,,,,,,VFR,,,,,,,,,,,,METAR,377
LIMW 220420Z 34003KT CAVOK 07/M01 Q1022,LIMW,2024-03-22T04:20:00Z,45.735,7.351,7,-1,340,3,,6+,30.18,,,,,,,,,,,CAVOK,,,,,,,,VFR,,,,,,,,,,,,METAR,554
LIML 220420Z 36003KT 320V030 8000 NSC 10/09 Q1021 NOSIG,LIML,2024-03-22T04:20:00Z,45.461,9.263,10,9,360,3,,4.97,30.15,,,,,,TRUE,,,,,CLR,,,,,,,,MVFR,,,,,,,,,,,,METAR,109
LIMJ 220420Z 02003KT 350V050 CAVOK 11/08 Q1020,LIMJ,2024-03-22T04:20:00Z,44.413,8.838,11,8,20,3,,6+,30.12,,,,,,,,,,,CAVOK,,,,,,,,VFR,,,,,,,,,,,,METAR,3
LIMF 220420Z 05003KT 5000 BR NSC 09/09 Q1021,LIMF,2024-03-22T04:20:00Z,45.203,7.649,9,9,50,3,,3.11,30.15,,,,,,,,,,BR,CLR,,,,,,,,MVFR,,,,,,,,,,,,METAR,295
LIME 220420Z VRB02KT CAVOK 09/06 Q1021 NOSIG,LIME,2024-03-22T04:20:00Z,45.674,9.704,9,6,VRB,2,,6+,30.15,,,,,,TRUE,,,,,CAVOK,,,,,,,,VFR,,,,,,,,,,,,METAR,239
LIMC 220420Z 05005KT 010V070 1500 BR NSC 09/07 Q1021 NOSIG,LIMC,2024-03-22T04:20:00Z,45.631,8.728,9,7,50,5,,0.93,30.15,,,,,,TRUE,,,,BR,CLR,,,,,,,,LIFR,,,,,,,,,,,,METAR,221
LIEO 220420Z AUTO 28003KT 230V340 9999 BKN020/// 14/12 Q1019,LIEO,2024-03-22T04:20:00Z,40.899,9.518,14,12,280,3,,6+,30.09,,,TRUE,,,,,,,,BKN,2000,,,,,,,MVFR,,,,,,,,,,,,METAR,8
LIEE 220420Z 33008KT 0900 R32/1900U FG FEW005 12/11 Q1018,LIEE,2024-03-22T04:20:00Z,39.243,9.06,12,11,330,8,,0.56,30.06,,,,,,,,,,FG,FEW,500,,,,,,,LIFR,,,,,,,,,,,,METAR,1
LIEA 220420Z 28002KT CAVOK 11/11 Q1018,LIEA,2024-03-22T04:20:00Z,40.631,8.289,11,11,280,2,,6+,30.06,,,,,,,,,,,CAVOK,,,,,,,,VFR,,,,,,,,,,,,METAR,22
LICR 220420Z AUTO 01011KT 9999 NCD 13/11 Q1018,LICR,2024-03-22T04:20:00Z,38.072,15.654,13,11,10,11,,6+,30.06,,,TRUE,,,,,,,,CLR,,,,,,,,VFR,,,,,,,,,,,,METAR,16
LICJ 220420Z 04004KT 350V070 CAVOK 14/10 Q1020,LICJ,2024-03-22T04:20:00Z,38.176,13.091,14,10,40,4,,6+,30.12,,,,,,,,,,,CAVOK,,,,,,,,VFR,,,,,,,,,,,,METAR,20
LICD 220420Z AUTO 17005KT 9999 NCD 15/12 Q1018,LICD,2024-03-22T04:20:00Z,35.498,12.618,15,12,170,5,,6+,30.06,,,TRUE,,,,,,,,CLR,,,,,,,,VFR,,,,,,,,,,,,METAR,20
LICC 220420Z 24005KT 9999 SCT120 07/06 Q1018,LICC,2024-03-22T04:20:00Z,37.467,15.064,7,6,240,5,,6+,30.06,,,,,,,,,,,SCT,12000,,,,,,,VFR,,,,,,,,,,,,METAR,6
LICB 220420Z AUTO 06004KT 9999 NCD 05/05 Q1018,LICB,2024-03-22T04:20:00Z,36.994,14.606,5,5,60,4,,6+,30.06,,,TRUE,,,,,,,,CLR,,,,,,,,VFR,,,,,,,,,,,,METAR,212
LICA 220420Z AUTO 21005KT 9999 BKN014/// 13/11 Q1018,LICA,2024-03-22T04:20:00Z,38.908,16.242,13,11,210,5,,6+,30.06,,,TRUE,,,,,,,,BKN,1400,,,,,,,MVFR,,,,,,,,,,,,METAR,7
LIBR 220420Z 01003KT 330V040 CAVOK 11/08 Q1017,LIBR,2024-03-22T04:20:00Z,40.658,17.951,11,8,10,3,,6+,30.03,,,,,,,,,,,CAVOK,,,,,,,,VFR,,,,,,,,,,,,METAR,5
LIBP 220420Z AUTO VRB02KT 9999 OVC062/// 12/12 Q1020,LIBP,2024-03-22T04:20:00Z,42.432,14.181,12,12,VRB,2,,6+,30.12,,,TRUE,,,,,,,,OVC,6200,,,,,,,VFR,,,,,,,,,,,,METAR,10
LIBD 220420Z 29009KT CAVOK 14/09 Q1017,LIBD,2024-03-22T04:20:00Z,41.138,16.765,14,9,290,9,,6+,30.03,,,,,,,,,,,CAVOK,,,,,,,,VFR,,,,,,,,,,,,METAR,42
LGTS 220420Z VRB02KT 9999 FEW030 04/03 Q1017 NOSIG,LGTS,2024-03-22T04:20:00Z,40.52,22.971,4,3,VRB,2,,6+,30.03,,,,,,TRUE,,,,,FEW,3000,,,,,,,VFR,,,,,,,,,,,,METAR,4
LGSR 220420Z 23004KT 9999 FEW025 12/09 Q1015,LGSR,2024-03-22T04:20:00Z,36.399,25.479,12,9,230,4,,6+,29.97,,,,,,,,,,,FEW,2500,,,,,,,VFR,,,,,,,,,,,,METAR,31
LGSM 220420Z VRB03KT 9999 FEW020 06/04 Q1015,LGSM,2024-03-22T04:20:00Z,37.69,26.912,6,4,VRB,3,,6+,29.97,,,,,,,,,,,FEW,2000,,,,,,,VFR,,,,,,,,,,,,METAR,5
LGSA 220420Z 29007KT 9999 FEW020 10/09 Q1015,LGSA,2024-03-22T04:20:00Z,35.54,24.141,10,9,290,7,,6+,29.97,,,,,,,,,,,FEW,2000,,,,,,,VFR,,,,,,,,,,,,METAR,122
LGRX 220420Z 00000KT CAVOK 06/06 Q1017,LGRX,2024-03-22T04:20:00Z,38.151,21.426,6,6,0,0,,6+,30.03,,,,,,,,,,,CAVOK,,,,,,,,VFR,,,,,,,,,,,,METAR,16
LGRP 220420Z 31010KT CAVOK 14/02 Q1014 NOSIG,LGRP,2024-03-22T04:20:00Z,36.405,28.086,14,2,310,10,,6+,29.94,,,,,,TRUE,,,,,CAVOK,,,,,,,,VFR,,,,,,,,,,,,METAR,3
LGPZ 220420Z 05005KT 9999 FEW025 09/08 Q1017,LGPZ,2024-03-22T04:20:00Z,38.921,20.761,9,8,50,5,,6+,30.03,,,,,,,,,,,FEW,2500,,,,,,,VFR,,,,,,,,,,,,METAR,3
LGPA 220420Z AUTO 07006KT //// // ////// 09/08 Q1015 RE//,LGPA,2024-03-22T04:20:00Z,37.022,25.114,9,8,70,6,,,29.97,,,TRUE,,,,,,,,,,,,,,,,VFR,,,,,,,,,,,,METAR,42
LGMT 220420Z VRB03KT 9999 FEW020 SCT025 09/07 Q1018,LGMT,2024-03-22T04:20:00Z,39.054,26.604,9,7,VRB,3,,6+,30.06,,,,,,,,,,,FEW,2000,SCT,2500,,,,,VFR,,,,,,,,,,,,METAR,4
LGLM 220420Z 00000KT 9999 FEW025 09/05 Q1017,LGLM,2024-03-22T04:20:00Z,39.917,25.236,9,5,0,0,,6+,30.03,,,,,,,,,,,FEW,2500,,,,,,,VFR,,,,,,,,,,,,METAR,4
LGKZ 220420Z AUTO 34004KT //// // ////// 05/M03 Q1017 RE//,LGKZ,2024-03-22T04:20:00Z,40.288,21.842,5,-3,340,4,,,30.03,,,TRUE,,,,,,,,,,,,,,,,VFR,,,,,,,,,,,,METAR,615
LGKV 220420Z 00000KT 9999 FEW020 04/02 Q1017,LGKV,2024-03-22T04:20:00Z,40.915,24.622,4,2,0,0,,6+,30.03,,,,,,,,,,,FEW,2000,,,,,,,VFR,,,,,,,,,,,,METAR,5
LGKR 220420Z 00000KT 9999 FEW018 08/07 Q1017 NOSIG,LGKR,2024-03-22T04:20:00Z,39.61,19.913,8,7,0,0,,6+,30.03,,,,,,TRUE,,,,,FEW,1800,,,,,,,VFR,,,,,,,,,,,,METAR,2
LGKO 220420Z 34004KT 9999 FEW018 11/04 Q1015,LGKO,2024-03-22T04:20:00Z,36.801,27.091,11,4,340,4,,6+,29.97,,,,,,,,,,,FEW,1800,,,,,,,VFR,,,,,,,,,,,,METAR,130
LGKL 220420Z 32007KT CAVOK 08/06 Q1016,LGKL,2024-03-22T04:20:00Z,37.068,22.026,8,6,320,7,,6+,30.00,,,,,,,,,,,CAVOK,,,,,,,,VFR,,,,,,,,,,,,METAR,4
LGIR 220420Z 17010KT 9999 FEW020 09/04 Q1016 NOSIG,LGIR,2024-03-22T04:20:00Z,35.337,25.173,9,4,170,10,,6+,30.00,,,,,,TRUE,,,,,FEW,2000,,,,,,,VFR,,,,,,,,,,,,METAR,37
LGIO 220420Z AUTO VRB01KT //// // ////// 00/00 Q1018 RE//,LGIO,2024-03-22T04:20:00Z,39.696,20.823,0,0,VRB,1,,,30.06,,,TRUE,,,,,,,,,,,,,,,,VFR,,,,,,,,,,,,METAR,476
LGEL 220420Z 00000KT CAVOK 08/06 Q1015,LGEL,2024-03-22T04:20:00Z,38.064,23.556,8,6,0,0,,6+,29.97,,,,,,,,,,,CAVOK,,,,,,,,VFR,,,,,,,,,,,,METAR,21
LGBL 220420Z VRB03KT 9999 FEW030 06/04 Q1016,LGBL,2024-03-22T04:20:00Z,39.22,22.794,6,4,VRB,3,,6+,30.00,,,,,,,,,,,FEW,3000,,,,,,,VFR,,,,,,,,,,,,METAR,13
LGAV 220420Z 28005KT 100V090 CAVOK 05/04 Q1015 NOSIG,LGAV,2024-03-22T04:20:00Z,37.936,23.945,5,4,280,5,,6+,29.97,,,,,,TRUE,,,,,CAVOK,,,,,,,,VFR,,,,,,,,,,,,METAR,83
LGAL 220420Z 07006KT 9999 FEW030 05/03 Q1017,LGAL,2024-03-22T04:20:00Z,40.856,25.945,5,3,70,6,,6+,30.03,,,,,,,,,,,FEW,3000,,,,,,,VFR,,,,,,,,,,,,METAR,5
LGAD 220420Z VRB03KT 9999 FEW025 07/07 Q1017,LGAD,2024-03-22T04:20:00Z,37.923,21.287,7,7,VRB,3,,6+,30.03,,,,,,,,,,,FEW,2500,,,,,,,VFR,,,,,,,,,,,,METAR,8
LCRA 220420Z 04002KT 9999 FEW040 11/07 Q1010 NOSIG,LCRA,2024-03-22T04:20:00Z,34.59,32.988,11,7,40,2,,6+,29.82,,,,,,TRUE,,,,,FEW,4000,,,,,,,VFR,,,,,,,,,,,,METAR,23
LCEN 220420Z 24007KT 9999 FEW020 08/07 Q1010 NOSIG,LCEN,2024-03-22T04:20:00Z,35.155,33.496,8,7,240,7,,6+,29.82,,,,,,TRUE,,,,,FEW,2000,,,,,,,VFR,,,,,,,,,,,,METAR,91
LATI 220420Z 00000KT CAVOK 05/05 Q1018 NOSIG,LATI,2024-03-22T04:20:00Z,41.419,19.716,5,5,0,0,,6+,30.06,,,,,,TRUE,,,,,CAVOK,,,,,,,,VFR,,,,,,,,,,,,METAR,32
KXER 220420Z AUTO 12019KT 6SM BR SCT013 BKN100 BKN120 20/19 A2992 RMK A01,KXER,2024-03-22T04:20:00Z,27.946,-90.997,20,19,120,19,,6,29.92,,,TRUE,TRUE,,,,,,BR,SCT,1300,BKN,10000,BKN,12000,,,VFR,,,,,,,,,,,,METAR,40
KVOA 220420Z AUTO 11020G26KT 10SM CLR 20/14 A2996 RMK A01,KVOA,2024-03-22T04:20:00Z,29.2289,-87.7808,20,14,110,20,26,10+,29.96,,,TRUE,TRUE,,,,,,,CLR,,,,,,,,VFR,,,,,,,,,,,,METAR,53
KVAF 220420Z AUTO 10022KT 6SM HZ BKN013 BKN037 BKN045 23/19 A2984 RMK A01,KVAF,2024-03-22T04:20:00Z,27.3536,-94.6253,23,19,100,22,,6,29.84,,,TRUE,TRUE,,,,,,HZ,BKN,1300,BKN,3700,BKN,4500,,,MVFR,,,,,,,,,,,,METAR,38
KQFX 220420Z AUTO 13006G13KT 9999 BKN070 16/M02 A2990 RMK A02 TSNO,KQFX,2024-03-22T04:20:00Z,-99.99,-99.99,16,-2,130,6,13,6+,29.90,,,TRUE,TRUE,,,TRUE,,,,BKN,7000,,,,,,,VFR,,,,,,,,,,,,METAR,9999
KQFW 220420Z AUTO 16003G10KT 9999 FEW075 15/M04 A2972 RMK A02 TSNO,KQFW,2024-03-22T04:20:00Z,-99.99,-99.99,15,-4,160,3,10,6+,29.72,,,TRUE,TRUE,,,TRUE,,,,FEW,7500,,,,,,,VFR,,,,,,,,,,,,METAR,9999
KQFV 220420Z AUTO 11007G21KT 9999 BKN060 12/M05 A2990 RMK A02 TSNO,KQFV,2024-03-22T04:20:00Z,-99.99,-99.99,12,-5,110,7,21,6+,29.90,,,TRUE,TRUE,,,TRUE,,,,BKN,6000,,,,,,,VFR,,,,,,,,,,,,METAR,9999
KQFT 220420Z AUTO 18004G14KT 9999 SCT065 15/M03 A2987 RMK A02 TSNO,KQFT,2024-03-22T04:20:00Z,-99.99,-99.99,15,-3,180,4,14,6+,29.87,,,TRUE,TRUE,,,TRUE,,,,SCT,6500,,,,,,,VFR,,,,,,,,,,,,METAR,9999
KQEX 220420Z AUTO 18008G17KT 9999 CLR 15/01 A2990 RMK A02 TSNO,KQEX,2024-03-22T04:20:00Z,-99.99,-99.99,15,1,180,8,17,6+,29.90,,,TRUE,TRUE,,,TRUE,,,,CLR,,,,,,,,VFR,,,,,,,,,,,,METAR,9999
KQEW 220420Z AUTO 11008G16KT 9999 FEW055 14/M00 A2997 RMK A02 TSNO,KQEW,2024-03-22T04:20:00Z,-99.99,-99.99,14,0,110,8,16,6+,29.97,,,TRUE,TRUE,,,TRUE,,,,FEW,5500,,,,,,,VFR,,,,,,,,,,,,METAR,9999
KQEV 220420Z AUTO 20010G20KT 9999 FEW065 SCT150 16/M02 A2987 RMK A02 TSNO,KQEV,2024-03-22T04:20:00Z,-99.99,-99.99,16,-2,200,10,20,6+,29.87,,,TRUE,TRUE,,,TRUE,,,,FEW,6500,SCT,15000,,,,,VFR,,,,,,,,,,,,METAR,9999
KQEQ 220420Z AUTO 18009G13KT 9999 OVC060 14/M03 A2989 RMK A02 TSNO,KQEQ,2024-03-22T04:20:00Z,-99.99,-99.99,14,-3,180,9,13,6+,29.89,,,TRUE,TRUE,,,TRUE,,,,OVC,6000,,,,,,,VFR,,,,,,,,,,,,METAR,9999
KQEN 220420Z AUTO 27003KT 9999 CLR 08/M05 A2989 RMK A02 TSNO,KQEN,2024-03-22T04:20:00Z,-99.99,-99.99,8,-5,270,3,,6+,29.89,,,TRUE,TRUE,,,TRUE,,,,CLR,,,,,,,,VFR,,,,,,,,,,,,METAR,9999
KQEJ 220420Z AUTO 21005G10KT 9999 FEW070 SCT140 13/M04 A2986 RMK A02 TSNO,KQEJ,2024-03-22T04:20:00Z,-99.99,-99.99,13,-4,210,5,10,6+,29.86,,,TRUE,TRUE,,,TRUE,,,,FEW,7000,SCT,14000,,,,,VFR,,,,,,,,,,,,METAR,9999
KQEI 220420Z AUTO 14003G11KT 9999 SCT150 15/M05 A2988 RMK A02 TSNO,KQEI,2024-03-22T04:20:00Z,-99.99,-99.99,15,-5,140,3,11,6+,29.88,,,TRUE,TRUE,,,TRUE,,,,SCT,15000,,,,,,,VFR,,,,,,,,,,,,METAR,9999
KPAE 220420Z AUTO 15007KT 10SM -RA BKN025 OVC032 12/08 A3007 RMK AO2 RAB13 P0000 T01170083,KPAE,2024-03-22T04:20:00Z,47.9232,-122.283,11.7,8.3,150,7,,10+,30.07,,,TRUE,TRUE,,,,,,-RA,BKN,2500,OVC,3200,,,,,MVFR,,,,,,0.005,,,,,,SPECI,166
KOCW 220420Z AUTO 08003KT 10SM CLR 06/03 A3027 RMK AO2 T00560026,KOCW,2024-03-22T04:20:00Z,35.5703,-77.05,5.6,2.6,80,3,,10+,30.27,,,TRUE,TRUE,,,,,,,CLR,,,,,,,,VFR,,,,,,,,,,,,METAR,10
KM08 220420Z AUTO 00000KT 10SM OVC060 14/08 A2999 RMK A01,KM08,2024-03-22T04:20:00Z,35.2155,-89.0449,14,8,0,0,,10+,29.99,,,TRUE,TRUE,,,,,,,OVC,6000,,,,,,,VFR,,,,,,,,,,,,METAR,149
KIMM 220420Z AUTO 13005KT 10SM SCT050 20/18 A3005 RMK AO2,KIMM,2024-03-22T04:20:00Z,26.4321,-81.4073,20,18,130,5,,10+,30.05,,,TRUE,TRUE,,,,,,,SCT,5000,,,,,,,VFR,,,,,,,,,,,,METAR,11
KGTF 220420Z 01005KT 9SM -SN BKN013 OVC019 M04/M06 A3018 RMK AO2 P0000 T10441061,KGTF,2024-03-22T04:20:00Z,47.4733,-111.383,-4.4,-6.1,10,5,,9,30.18,,,,TRUE,,,,,,-SN,BKN,1300,OVC,1900,,,,,MVFR,,,,,,0.005,,,,,,SPECI,1117
KGHB 220420Z AUTO 6SM BR FEW100 21/19 A2986 RMK A01,KGHB,2024-03-22T04:20:00Z,27.8403,-91.9878,21,19,,,,6,29.86,,,TRUE,TRUE,,,,,,BR,FEW,10000,,,,,,,VFR,,,,,,,,,,,,METAR,30
KEYW 220420Z AUTO 12019G26KT 10SM SCT028 BKN035 BKN065 25/19 A3003 RMK AO2 PK WND 12027/0410 LTG DSNT W T02500194 $,KEYW,2024-03-22T04:20:00Z,24.5571,-81.7554,25,19.4,120,19,26,10+,30.03,,,TRUE,TRUE,TRUE,,,,,,SCT,2800,BKN,3500,BKN,6500,,,VFR,,,,,,,,,,,,SPECI,1
KDMW 220420Z AUTO 00000KT 10SM CLR 02/M11 A3029 RMK AO2,KDMW,2024-03-22T04:20:00Z,39.61,-77.007,2,-11,0,0,,10+,30.29,,,TRUE,TRUE,,,,,,,CLR,,,,,,,,VFR,,,,,,,,,,,,METAR,239
KCSM 220420Z 00000KT 1/4SM FG OVC005 08/07 A2990 RMK AO2 T00780072,KCSM,2024-03-22T04:20:00Z,35.3568,-99.2041,7.8,7.2,0,0,,0.25,29.90,,,,TRUE,,,,,,FG,OVC,500,,,,,,,LIFR,,,,,,,,,,,,SPECI,586
KCRS 220420Z AUTO 17006KT 4SM +TSRA BR BKN049 OVC070 14/13 A2990 RMK AO2 LTG DSNT SE TSE0358B14 P0011 T01440128,KCRS,2024-03-22T04:20:00Z,32.0316,-96.3994,14.4,12.8,170,6,,4,29.90,,,TRUE,TRUE,,,,,,+TSRA BR,BKN,4900,OVC,7000,,,,,MVFR,,,,,,0.11,,,,,,SPECI,136
KARV 220420Z AUTO 03004KT 10SM BKN065 OVC075 M04/M14 A3015 RMK AO2 T10451140,KARV,2024-03-22T04:20:00Z,45.9264,-89.7307,-4.5,-14,30,4,,10+,30.15,,,TRUE,TRUE,,,,,,,BKN,6500,OVC,7500,,,,,VFR,,,,,,,,,,,,METAR,494
KANR 220420Z AUTO 09015G32KT 9SM FEW004 SCT047 BKN070 21/18 A3005 RMK A01,KANR,2024-03-22T04:20:00Z,27.2264,-91.19,21,18,90,15,32,9,30.05,,,TRUE,TRUE,,,,,,,FEW,400,SCT,4700,BKN,7000,,,VFR,,,,,,,,,,,,METAR,92
K1MN 220420Z AUTO 04009KT 2 1/2SM -SN BR OVC036 M08/M09 A3022 RMK AO2 VIS 2 1/4V6 SLP272 $,K1MN,2024-03-22T04:20:00Z,48.67,-101.88,-8,-9,40,9,,2.5,30.22,1027.2,,TRUE,TRUE,TRUE,,,,,-SN BR,OVC,3600,,,,,,,IFR,,,,,,,,,,,,SPECI,569
K1HN 220420Z AUTO 02003KT 2 3/4SM -SN BR OVC047 M06/M07 A3020 RMK AO2 SLP267 $,K1HN,2024-03-22T04:20:00Z,47.97,-102.22,-6,-7,20,3,,2.75,30.20,1026.7,,TRUE,TRUE,TRUE,,,,,-SN BR,OVC,4700,,,,,,,IFR,,,,,,,,,,,,SPECI,578
EYVI 220420Z 19007KT 2000 BR OVC002 04/04 Q1015 TEMPO 1500 BKN002,EYVI,2024-03-22T04:20:00Z,54.634,25.286,4,4,190,7,,1.24,29.97,,,,,,,,,,BR,OVC,200,,,,,,,LIFR,,,,,,,,,,,,METAR,180
EYSA 220420Z 23004KT 4800 BR FEW004 OVC019 04/03 Q1014 NOSIG,EYSA,2024-03-22T04:20:00Z,55.894,23.395,4,3,230,4,,2.98,29.94,,,,,,TRUE,,,,BR,FEW,400,OVC,1900,,,,,IFR,,,,,,,,,,,,METAR,135
EYPA 220420Z 20007KT 9999 BKN004 OVC014 03/03 Q1014,EYPA,2024-03-22T04:20:00Z,55.973,21.092,3,3,200,7,,6+,29.94,,,,,,,,,,,BKN,400,OVC,1400,,,,,LIFR,,,,,,,,,,,,METAR,15
EYKA 220420Z 26005KT 3400 BR OVC003 05/04 Q1014,EYKA,2024-03-22T04:20:00Z,54.962,24.069,5,4,260,5,,2.11,29.94,,,,,,,,,,BR,OVC,300,,,,,,,LIFR,,,,,,,,,,,,METAR,68
EVVA 220420Z AUTO 21007KT 9999 OVC026 03/03 Q1011,EVVA,2024-03-22T04:20:00Z,57.361,21.545,3,3,210,7,,6+,29.85,,,TRUE,,,,,,,,OVC,2600,,,,,,,MVFR,,,,,,,,,,,,METAR,1
EVRA 220420Z 22005KT 9999 OVC021 04/01 Q1012 NOSIG,EVRA,2024-03-22T04:20:00Z,56.924,23.968,4,1,220,5,,6+,29.88,,,,,,TRUE,,,,,OVC,2100,,,,,,,MVFR,,,,,,,,,,,,METAR,7
EVLA 220420Z AUTO 20007KT 9999 OVC016/// 03/03 Q1013,EVLA,2024-03-22T04:20:00Z,56.517,21.097,3,3,200,7,,6+,29.91,,,TRUE,,,,,,,,OVC,1600,,,,,,,MVFR,,,,,,,,,,,,METAR,5
EVGA 220420Z 26004KT 6000 FEW004 BKN006 OVC011 04/03 Q1012 NOSIG,EVGA,2024-03-22T04:20:00Z,56.778,24.854,4,3,260,4,,3.73,29.88,,,,,,TRUE,,,,,FEW,400,BKN,600,OVC,1100,,,IFR,,,,,,,,,,,,METAR,61
ETWM 220420Z AUTO 23006KT //// // ////// 11/09 Q1016 ///,ETWM,2024-03-22T04:20:00Z,52.725,7.33,11,9,230,6,,,30.00,,,TRUE,,,,,,,,,,,,,,,,VFR,,,,,,,,,,,,METAR,18
ETSN 220420Z 19003KT 9000 FEW120 SCT360 03/02 Q1022 BLU+,ETSN,2024-03-22T04:20:00Z,48.71,11.21,3,2,190,3,,5.59,30.18,,,,,,,,,,,FEW,12000,SCT,36000,,,,,VFR,,,,,,,,,,,,METAR,378
ETSL 220420Z 18009KT 8000 FEW130 BKN320 04/03 Q1022 BLU+,ETSL,2024-03-22T04:20:00Z,48.185,10.861,4,3,180,9,,4.97,30.18,,,,,,,,,,,FEW,13000,BKN,32000,,,,,MVFR,,,,,,,,,,,,METAR,548
ETSI 220420Z 00000KT 0050 FG FEW120 BKN350 03/02 Q1022 RED,ETSI,2024-03-22T04:20:00Z,48.716,11.534,3,2,0,0,,0.03,30.18,,,,,,,,,,FG,FEW,12000,BKN,35000,,,,,LIFR,,,,,,,,,,,,METAR,366
ETSH 220420Z 20006KT 9999 BKN086 06/04 Q1019 BLU BLU,ETSH,2024-03-22T04:20:00Z,51.768,13.168,6,4,200,6,,6+,30.09,,,,,,,,,,,BKN,8600,,,,,,,VFR,,,,,,,,,,,,METAR,79
ETSB 220420Z 25005KT 9999 BKN080 08/06 Q1020 BLU,ETSB,2024-03-22T04:20:00Z,50.175,7.06,8,6,250,5,,6+,30.12,,,,,,,,,,,BKN,8000,,,,,,,VFR,,,,,,,,,,,,METAR,477
ETNW 220420Z 22012KT 9000 FEW017 BKN062 BKN140 10/07 Q1017 BLU,ETNW,2024-03-22T04:20:00Z,52.457,9.427,10,7,220,12,,5.59,30.03,,,,,,,,,,,FEW,1700,BKN,6200,BKN,14000,,,VFR,,,,,,,,,,,,METAR,57
ETNT 220420Z AUTO 23007KT //// // ////// 10/08 Q1014 ///,ETNT,2024-03-22T04:20:00Z,53.548,7.667,10,8,230,7,,,29.94,,,TRUE,,,,,,,,,,,,,,,,VFR,,,,,,,,,,,,METAR,5
ETNS 220420Z 23014KT 3500 -DZ BR BKN006 09/09 Q1013 YLO,ETNS,2024-03-22T04:20:00Z,54.457,9.52,9,9,230,14,,2.17,29.91,,,,,,,,,,-DZ BR,BKN,600,,,,,,,IFR,,,,,,,,,,,,METAR,22
ETNN 220420Z 18005KT 9999 FEW020 BKN080 BKN140 10/07 Q1020 BLU,ETNN,2024-03-22T04:20:00Z,50.829,6.66,10,7,180,5,,6+,30.12,,,,,,,,,,,FEW,2000,BKN,8000,BKN,14000,,,VFR,,,,,,,,,,,,METAR,108
ETNL 220420Z 22007KT 9999 BKN040 08/06 Q1014 BLU,ETNL,2024-03-22T04:20:00Z,53.916,12.279,8,6,220,7,,6+,29.94,,,,,,,,,,,BKN,4000,,,,,,,VFR,,,,,,,,,,,,METAR,40
ETNH 220420Z 22011KT 4000 -DZ BKN010 09/08 Q1013 GRN,ETNH,2024-03-22T04:20:00Z,54.312,9.538,9,8,220,11,,2.49,29.91,,,,,,,,,,-DZ,BKN,1000,,,,,,,IFR,,,,,,,,,,,,METAR,6
ETMN 220420Z 23009KT 9999 BKN016 BKN036 09/08 Q1014 WHT,ETMN,2024-03-22T04:20:00Z,53.765,8.658,9,8,230,9,,6+,29.94,,,,,,,,,,,BKN,1600,BKN,3600,,,,,MVFR,,,,,,,,,,,,METAR,23
ETHS 220420Z 22007KT 9999 FEW016 BKN045 08/06 Q1016 BLU,ETHS,2024-03-22T04:20:00Z,52.918,10.184,8,6,220,7,,6+,30.00,,,,,,,,,,,FEW,1600,BKN,4500,,,,,VFR,,,,,,,,,,,,METAR,71
ETHN 220420Z 21003KT 9999 FEW110 SCT380 04/02 Q1022 BLU+,ETHN,2024-03-22T04:20:00Z,49.398,9.958,4,2,210,3,,6+,30.18,,,,,,,,,,,FEW,11000,SCT,38000,,,,,VFR,,,,,,,,,,,,METAR,466
ETHL 220420Z 23003KT 5000 VCFG MIFG SCT120 SCT300 04/03 Q1022 WHT,ETHL,2024-03-22T04:20:00Z,48.218,9.91,4,3,230,3,,3.11,30.18,,,,,,,,,,VCFG MIFG,SCT,12000,SCT,30000,,,,,MVFR,,,,,,,,,,,,METAR,536
ETHF 220420Z 17007KT 9999 BKN080 BKN130 07/05 Q1020 BLU,ETHF,2024-03-22T04:20:00Z,51.114,9.286,7,5,170,7,,6+,30.12,,,,,,,,,,,BKN,8000,BKN,13000,,,,,VFR,,,,,,,,,,,,METAR,171
ETHC 220420Z 20006KT 9000 BKN016 BKN060 09/07 Q1017 WHT,ETHC,2024-03-22T04:20:00Z,52.591,10.022,9,7,200,6,,5.59,30.03,,,,,,,,,,,BKN,1600,BKN,6000,,,,,MVFR,,,,,,,,,,,,METAR,35
ETHB 220420Z 23010KT 9000 SCT015 BKN058 10/08 Q1017 BLU,ETHB,2024-03-22T04:20:00Z,52.279,9.082,10,8,230,10,,5.59,30.03,,,,,,,,,,,SCT,1500,BKN,5800,,,,,VFR,,,,,,,,,,,,METAR,69
ETHA 220420Z 23003KT 9999 MIFG FEW040 BKN250 03/03 Q1023 BLU+,ETHA,2024-03-22T04:20:00Z,47.834,10.867,3,3,230,3,,6+,30.21,,,,,,,,,,MIFG,FEW,4000,BKN,25000,,,,,VFR,,,,,,,,,,,,METAR,738
ETGG 220420Z AUTO 25014KT 2800 // ////// 08/08 Q1012 ///,ETGG,2024-03-22T04:20:00Z,54.827,9.506,8,8,250,14,,1.74,29.88,,,TRUE,,,,,,,,,,,,,,,,IFR,,,,,,,,,,,,METAR,33
ESUT 220420Z AUTO 15010KT 1900 -SN VV015 M01/M01 Q0991,ESUT,2024-03-22T04:20:00Z,65.806,15.083,-1,-1,150,10,,1.18,29.26,,,TRUE,,,,,,,-SN,OVX,0,,,,,,,IFR,,,,,,,,,,,1500,METAR,457
ESUP 220420Z 12009KT CAVOK M02/M03 Q1001,ESUP,2024-03-22T04:20:00Z,67.246,23.069,-2,-3,120,9,,6+,29.56,,,,,,,,,,,CAVOK,,,,,,,,VFR,,,,,,,,,,,,METAR,164
ESTL 220420Z AUTO 21011KT 5000 BR OVC003/// 06/06 Q1010 REDZ,ESTL,2024-03-22T04:20:00Z,56.083,13.213,6,6,210,11,,3.11,29.82,,,TRUE,,,,,,,BR,OVC,300,,,,,,,LIFR,,,,,,,,,,,,METAR,39
ESTA 220420Z AUTO 22009KT 8000 -DZ OVC005/// 07/07 Q1010 REDZ,ESTA,2024-03-22T04:20:00Z,56.294,12.848,7,7,220,9,,4.97,29.82,,,TRUE,,,,,,,-DZ,OVC,500,,,,,,,IFR,,,,,,,,,,,,METAR,19
ESSV 220420Z AUTO 21009KT 9999 -RA OVC020/// 04/03 Q1009,ESSV,2024-03-22T04:20:00Z,57.662,18.348,4,3,210,9,,6+,29.79,,,TRUE,,,,,,,-RA,OVC,2000,,,,,,,MVFR,,,,,,,,,,,,METAR,38
ESST 220420Z AUTO VRB02KT 2600 BR OVC003/// 02/01 Q1001,ESST,2024-03-22T04:20:00Z,60.158,12.992,2,1,VRB,2,,1.62,29.56,,,TRUE,,,,,,,BR,OVC,300,,,,,,,LIFR,,,,,,,,,,,,METAR,110
ESSP 220420Z AUTO 21009KT 9999 BKN018/// OVC029/// 04/02 Q1006,ESSP,2024-03-22T04:20:00Z,58.584,16.255,4,2,210,9,,6+,29.70,,,TRUE,,,,,,,,BKN,1800,OVC,2900,,,,,MVFR,,,,,,,,,,,,METAR,3
ESSL 220420Z AUTO 20009KT 9999 BKN011/// OVC027/// 04/02 Q1006,ESSL,2024-03-22T04:20:00Z,58.406,15.681,4,2,200,9,,6+,29.70,,,TRUE,,,,,,,,BKN,1100,OVC,2700,,,,,MVFR,,,,,,,,,,,,METAR,51
ESSD 220420Z 22008KT 190V250 9999 OVC006 02/01 Q1000,ESSD,2024-03-22T04:20:00Z,60.422,15.515,2,1,220,8,,6+,29.53,,,,,,,,,,,OVC,600,,,,,,,IFR,,,,,,,,,,,,METAR,151
ESSB 220420Z AUTO 19006KT 150V220 9999 OVC006/// 03/02 Q1005,ESSB,2024-03-22T04:20:00Z,59.356,17.933,3,2,190,6,,6+,29.68,,,TRUE,,,,,,,,OVC,600,,,,,,,IFR,,,,,,,,,,,,METAR,14
ESPE 220420Z AUTO 12008KT 9999 -SN VV029 M01/M03 Q0999,ESPE,2024-03-22T04:20:00Z,65.875,20.144,-1,-3,120,8,,6+,29.50,,,TRUE,,,,,,,-SN,OVX,0,,,,,,,MVFR,,,,,,,,,,,2900,METAR,182
ESPA 220420Z AUTO 12005KT 9999 OVC007/// M03/M04 Q1002,ESPA,2024-03-22T04:20:00Z,65.541,22.126,-3,-4,120,5,,6+,29.59,,,TRUE,,,,,,,,OVC,700,,,,,,,IFR,,,,,,,,,,,,METAR,12
ESOW 220420Z AUTO 19009KT 9999 OVC009/// 02/01 Q1004,ESOW,2024-03-22T04:20:00Z,59.595,16.638,2,1,190,9,,6+,29.65,,,TRUE,,,,,,,,OVC,900,,,,,,,IFR,,,,,,,,,,,,METAR,7
ESOK 220420Z AUTO 20006KT 3900 BR OVC002/// 03/02 Q1002,ESOK,2024-03-22T04:20:00Z,59.442,13.342,3,2,200,6,,2.42,29.59,,,TRUE,,,,,,,BR,OVC,200,,,,,,,LIFR,,,,,,,,,,,,METAR,101
ESOH 220420Z AUTO 20009KT 170V240 //// R18///// // OVC002/// 02/02 Q1001,ESOH,2024-03-22T04:20:00Z,60.02,13.579,2,2,200,9,,,29.56,,,TRUE,,,,,,,,OVC,200,,,,,,,LIFR,,,,,,,,,,,,METAR,145
ESOE 220420Z AUTO 20010KT 7000 BKN005/// OVC008/// 03/02 Q1003,ESOE,2024-03-22T04:20:00Z,59.229,15.046,3,2,200,10,,4.35,29.62,,,TRUE,,,,,,,,BKN,500,OVC,800,,,,,IFR,,,,,,,,,,,,METAR,57
ESNZ 220420Z AUTO 16008KT 9999 NCD 01/M02 Q0993,ESNZ,2024-03-22T04:20:00Z,63.199,14.489,1,-2,160,8,,6+,29.32,,,TRUE,,,,,,,,CLR,,,,,,,,VFR,,,,,,,,,,,,METAR,360
ESNX 220420Z AUTO 13013KT 1300 R30/P2000N -SN VV019 M02/M03 Q0996,ESNX,2024-03-22T04:20:00Z,65.592,19.283,-2,-3,130,13,,0.81,29.41,,,TRUE,,,,,,,-SN,OVX,0,,,,,,,LIFR,,,,,,,,,,,1900,METAR,380
ESNV 220420Z 13006KT 120V180 4300 -SN BKN007 OVC011 00/M02 Q0994,ESNV,2024-03-22T04:20:00Z,64.579,16.839,0,-2,130,6,,2.67,29.35,,,,,,,,,,-SN,BKN,700,OVC,1100,,,,,IFR,,,,,,,,,,,,METAR,348
ESNU 220420Z 15012KT 9999 -SN OVC003 M00/M01 Q1000,ESNU,2024-03-22T04:20:00Z,63.789,20.285,0,-1,150,12,,6+,29.53,,,,,,,,,,-SN,OVC,300,,,,,,,LIFR,,,,,,,,,,,,METAR,8
ESNS 220420Z AUTO 16007KT 130V190 9999 BKN053/// OVC076/// M00/M00 Q1000,ESNS,2024-03-22T04:20:00Z,64.625,21.077,0,0,160,7,,6+,29.53,,,TRUE,,,,,,,,BKN,5300,OVC,7600,,,,,VFR,,,,,,,,,,,,METAR,41
ESNQ 220420Z VRB02KT 9999 SG OVC042 M06/M08 Q0998,ESNQ,2024-03-22T04:20:00Z,67.823,20.34,-6,-8,VRB,2,,6+,29.47,,,,,,,,,,SG,OVC,4200,,,,,,,VFR,,,,,,,,,,,,METAR,447
ESNO 220420Z AUTO 16010KT 9999 -SN OVC004/// 00/M00 Q0998 RESG,ESNO,2024-03-22T04:20:00Z,63.412,18.98,0,0,160,10,,6+,29.47,,,TRUE,,,,,,,-SN,OVC,400,,,,,,,LIFR,,,,,,,,,,,,METAR,100
ESNN 220420Z AUTO 14009KT 9999 OVC015/// 01/M00 Q0998 REUP,ESNN,2024-03-22T04:20:00Z,62.532,17.436,1,0,140,9,,6+,29.47,,,TRUE,,,,,,,,OVC,1500,,,,,,,MVFR,,,,,,,,,,,,METAR,4
ESNL 220420Z AUTO 12008KT 3700 SG FEW005/// OVC011/// M00/M01 Q0996,ESNL,2024-03-22T04:20:00Z,64.552,18.711,0,-1,120,8,,2.3,29.41,,,TRUE,,,,,,,SG,FEW,500,OVC,1100,,,,,IFR,,,,,,,,,,,,METAR,220
ESNK 220420Z AUTO 16010KT 9999 R17///// R35/P2000N // OVC013/// 02/M00 Q0997,ESNK,2024-03-22T04:20:00Z,63.047,17.766,2,0,160,10,,6+,29.44,,,TRUE,,,,,,,,OVC,1300,,,,,,,MVFR,,,,,,,,,,,,METAR,4
ESNG 220420Z 09005KT 9999 FEW041 BKN055 M04/M06 Q0998,ESNG,2024-03-22T04:20:00Z,67.133,20.81,-4,-6,90,5,,6+,29.47,,,,,,,,,,,FEW,4100,BKN,5500,,,,,VFR,,,,,,,,,,,,METAR,300
ESND 220420Z AUTO 25004KT 150V300 9999 OVC018/// 01/M02 Q0996,ESND,2024-03-22T04:20:00Z,62.047,14.416,1,-2,250,4,,6+,29.41,,,TRUE,,,,,,,,OVC,1800,,,,,,,MVFR,,,,,,,,,,,,METAR,352
ESMX 220420Z AUTO 21010KT 6000 OVC003/// 04/04 Q1008 REUP,ESMX,2024-03-22T04:20:00Z,56.927,14.73,4,4,210,10,,3.73,29.76,,,TRUE,,,,,,,,OVC,300,,,,,,,LIFR,,,,,,,,,,,,METAR,176
ESMV 220420Z AUTO 20007KT 170V230 3700 -DZ BR OVC003/// 04/04 Q1007,ESMV,2024-03-22T04:20:00Z,57.29,14.134,4,4,200,7,,2.3,29.73,,,TRUE,,,,,,,-DZ BR,OVC,300,,,,,,,LIFR,,,,,,,,,,,,METAR,167
ESMT 220420Z AUTO 23017KT 3900 -RA OVC002/// 06/06 Q1009 REDZ,ESMT,2024-03-22T04:20:00Z,56.691,12.82,6,6,230,17,,2.42,29.79,,,TRUE,,,,,,,-RA,OVC,200,,,,,,,LIFR,,,,,,,,,,,,METAR,24
ESMS 220420Z 21014KT 2300 -RA BR OVC003 06/05 Q1011,ESMS,2024-03-22T04:20:00Z,55.539,13.373,6,5,210,14,,1.43,29.85,,,,,,,,,,-RA BR,OVC,300,,,,,,,LIFR,,,,,,,,,,,,METAR,68
ESMQ 220420Z AUTO 18007KT 2800 BR SCT003/// OVC005/// 04/04 Q1010,ESMQ,2024-03-22T04:20:00Z,56.685,16.284,4,4,180,7,,1.74,29.82,,,TRUE,,,,,,,BR,SCT,300,OVC,500,,,,,IFR,,,,,,,,,,,,METAR,3
ESMK 220420Z AUTO 21007KT 4500 BR BKN007/// OVC010/// 06/06 Q1011,ESMK,2024-03-22T04:20:00Z,55.922,14.085,6,6,210,7,,2.8,29.85,,,TRUE,,,,,,,BR,BKN,700,OVC,1000,,,,,IFR,,,,,,,,,,,,METAR,20
ESKS 220420Z AUTO 22011KT 4300 -FZDZ OVC003/// M00/M00 Q0997,ESKS,2024-03-22T04:20:00Z,61.165,12.834,0,0,220,11,,2.67,29.44,,,TRUE,,,,,,,-FZDZ,OVC,300,,,,,,,LIFR,,,,,,,,,,,,METAR,503
ESKN 220420Z 19008KT 9999 BKN007 03/02 Q1006,ESKN,2024-03-22T04:20:00Z,58.786,16.918,3,2,190,8,,6+,29.70,,,,,,,,,,,BKN,700,,,,,,,IFR,,,,,,,,,,,,METAR,41
ESKM 220420Z AUTO 21003KT 170V290 9999 OVC010/// 02/00 Q0999,ESKM,2024-03-22T04:20:00Z,60.96,14.507,2,0,210,3,,6+,29.50,,,TRUE,,,,,,,,OVC,1000,,,,,,,MVFR,,,,,,,,,,,,METAR,184
ESIB 220420Z AUTO 22015KT 7000 DZRA OVC005/// 05/05 Q1004,ESIB,2024-03-22T04:20:00Z,58.431,12.71,5,5,220,15,,4.35,29.65,,,TRUE,,,,,,,DZ RA,OVC,500,,,,,,,IFR,,,,,,,,,,,,METAR,51
ESIA 220420Z AUTO 21008KT 9999 OVC009/// 03/03 Q1004,ESIA,2024-03-22T04:20:00Z,58.514,14.507,3,3,210,8,,6+,29.65,,,TRUE,,,,,,,,OVC,900,,,,,,,IFR,,,,,,,,,,,,METAR,94
ESGT 220420Z AUTO 21009KT 2100 -DZ OVC004/// 06/05 Q1004,ESGT,2024-03-22T04:20:00Z,58.314,12.347,6,5,210,9,,1.3,29.65,,,TRUE,,,,,,,-DZ,OVC,400,,,,,,,LIFR,,,,,,,,,,,,METAR,40
ESGP 220420Z AUTO 21013KT 3300 BR OVC003/// 06/05 Q1005 REDZ REUP,ESGP,2024-03-22T04:20:00Z,57.781,11.869,6,5,210,13,,2.05,29.68,,,TRUE,,,,,,,BR,OVC,300,,,,,,,LIFR,,,,,,,,,,,,METAR,15
ESGJ 220420Z AUTO 21013KT 180V240 5000 BR OVC004/// 04/04 Q1005,ESGJ,2024-03-22T04:20:00Z,57.752,14.069,4,4,210,13,,3.11,29.68,,,TRUE,,,,,,,BR,OVC,400,,,,,,,LIFR,,,,,,,,,,,,METAR,224
ESGG 220420Z 22013KT 0550 R03/1200U R21/1400U -RA FG VV003 05/05 Q1005,ESGG,2024-03-22T04:20:00Z,57.667,12.285,5,5,220,13,,0.34,29.68,,,,,,,,,,-RA FG,OVX,0,,,,,,,LIFR,,,,,,,,,,,300,METAR,152
ESDF 220420Z AUTO 21007KT 7000 SCT008/// BKN013/// OVC025/// 04/04 Q1010,ESDF,2024-03-22T04:20:00Z,56.266,15.267,4,4,210,7,,4.35,29.82,,,TRUE,,,,,,,,SCT,800,BKN,1300,OVC,2500,,,MVFR,,,,,,,,,,,,METAR,52
ESCM 220420Z AUTO 20013KT 9999 OVC007/// 02/02 Q1004,ESCM,2024-03-22T04:20:00Z,59.899,17.589,2,2,200,13,,6+,29.65,,,TRUE,,,,,,,,OVC,700,,,,,,,IFR,,,,,,,,,,,,METAR,21
ESCF 220420Z AUTO 20010KT 9999 OVC009/// 03/03 Q1006,ESCF,2024-03-22T04:20:00Z,58.398,15.526,3,3,200,10,,6+,29.70,,,TRUE,,,,,,,,OVC,900,,,,,,,IFR,,,,,,,,,,,,METAR,86
ENZV 220420Z 20009KT 9999 OVC042 06/04 Q1003,ENZV,2024-03-22T04:20:00Z,58.884,5.637,6,4,200,9,,6+,29.62,,,,,,,,,,,OVC,4200,,,,,,,VFR,,,,,,,,,,,,METAR,7
ENWV 220420Z AUTO 25029KT 9000NDV BKN190/// 08/06 Q1007 W///S4,ENWV,2024-03-22T04:20:00Z,56.278,3.395,8,6,250,29,,,29.73,,,TRUE,,,,,,,,BKN,19000,,,,,,,VFR,,,,,,,,,,,,METAR,30
ENVD 220420Z 03009KT 9999 FEW015 SCT034 M06/M10 Q1008,ENVD,2024-03-22T04:20:00Z,70.065,29.835,-6,-10,30,9,,6+,29.76,,,,,,,,,,,FEW,1500,SCT,3400,,,,,VFR,,,,,,,,,,,,METAR,39
ENVA 220420Z AUTO 06003KT 020V100 9999 OVC076/// 05/M00 Q0992 RMK WIND 670FT 15006KT,ENVA,2024-03-22T04:20:00Z,63.46,10.931,5,0,60,3,,6+,29.29,,,TRUE,,,,,,,,OVC,7600,,,,,,,VFR,,,,,,,,,,,,METAR,12
ENUN 220420Z AUTO 14018KT 9999 -RA OVC030/// 06/07 Q0982 W06/S6,ENUN,2024-03-22T04:20:00Z,-99.99,-99.99,6,7,140,18,,6+,29.00,,,TRUE,,,,,,,-RA,OVC,3000,,,,,,,MVFR,,,,,,,,,,,,METAR,9999
ENUG 220420Z AUTO 09025G36KT 070V130 9999NDV // /// M01/M04 Q1004 W///S5,ENUG,2024-03-22T04:20:00Z,71.305,22.253,-1,-4,90,25,36,,29.65,,,TRUE,,,,,,,,,,,,,,,,VFR,,,,,,,,,,,,METAR,30
ENTO 220420Z AUTO 17005KT 0300 R18/P2000D R36/1000N FG VV003 04/04 Q1001,ENTO,2024-03-22T04:20:00Z,59.184,10.255,4,4,170,5,,0.19,29.56,,,TRUE,,,,,,,FG,OVX,0,,,,,,,LIFR,,,,,,,,,,,300,METAR,84
ENTC 220420Z 01008KT CAVOK M01/M06 Q0998 RMK WIND 2600FT 14022KT,ENTC,2024-03-22T04:20:00Z,69.675,18.916,-1,-6,10,8,,6+,29.47,,,,,,,,,,,CAVOK,,,,,,,,VFR,,,,,,,,,,,,METAR,9
ENST 220420Z 19020G31KT 9999 -RA FEW015 BKN018 05/02 Q0989 RMK WIND 300FT 19021KT,ENST,2024-03-22T04:20:00Z,65.961,12.472,5,2,190,20,31,6+,29.20,,,,,,,,,,-RA,FEW,1500,BKN,1800,,,,,MVFR,,,,,,,,,,,,METAR,17
ENSS 220420Z AUTO 03009KT 9999 -SHSN FEW015/// BKN022/// OVC035/// M04/M08 Q1008 RMK WIND 0500FT VRB04KT,ENSS,2024-03-22T04:20:00Z,70.355,31.044,-4,-8,30,9,,6+,29.76,,,TRUE,,,,,,,-SHSN,FEW,1500,BKN,2200,OVC,3500,,,MVFR,,,,,,,,,,,,METAR,13
ENSR 220420Z AUTO 17015KT 9999 OVC027/// 01/M03 Q1001 RMK WIND RWY 32 16014KT WIND 1119FT 14024KT,ENSR,2024-03-22T04:20:00Z,69.789,20.955,1,-3,170,15,,6+,29.56,,,TRUE,,,,,,,,OVC,2700,,,,,,,MVFR,,,,,,,,,,,,METAR,5
ENSL 220420Z AUTO 24037KT CAVOK 08/03 Q1002 W06/S4,ENSL,2024-03-22T04:20:00Z,58.367,1.907,8,3,240,37,,6+,29.59,,,TRUE,,,,,,,,CAVOK,,,,,,,,VFR,,,,,,,,,,,,METAR,50
ENSK 220420Z AUTO 08009KT 9999 SCT026/// OVC035/// 01/M01 Q0992,ENSK,2024-03-22T04:20:00Z,68.58,15.029,1,-1,80,9,,6+,29.29,,,TRUE,,,,,,,,SCT,2600,OVC,3500,,,,,VFR,,,,,,,,,,,,METAR,3
ENSH 220420Z AUTO 09018KT 9999 NCD 03/M02 Q0991 RMK WIND 0150FT /////KT,ENSH,2024-03-22T04:20:00Z,68.245,14.669,3,-2,90,18,,6+,29.26,,,TRUE,,,,,,,,CLR,,,,,,,,VFR,,,,,,,,,,,,METAR,9
ENSG 220420Z AUTO 24007KT 9999 -RA FEW016/// BKN030/// OVC039/// 02/M01 Q0996 RMK WIND 3806FT 23025G35KT,ENSG,2024-03-22T04:20:00Z,61.158,7.141,2,-1,240,7,,6+,29.41,,,TRUE,,,,,,,-RA,FEW,1600,BKN,3000,OVC,3900,,,MVFR,,,,,,,,,,,,METAR,493
ENSF 220420Z AUTO 25034KT 9999 FEW027/// FEW090/// SCT130/// 07/02 Q0992 W///S6,ENSF,2024-03-22T04:20:00Z,61.25,1.85,7,2,250,34,,6+,29.29,,,TRUE,,,,,,,,FEW,2700,FEW,9000,SCT,13000,,,VFR,,,,,,,,,,,,METAR,15
ENSE 220420Z AUTO 23034KT //// SCT025/// BKN140/// 07/02 Q0992 W///S7,ENSE,2024-03-22T04:20:00Z,61.45,2.15,7,2,230,34,,,29.29,,,TRUE,,,,,,,,SCT,2500,BKN,14000,,,,,VFR,,,,,,,,,,,,METAR,10
ENSD 220420Z AUTO 20011KT 170V230 9999 -RA FEW024/// SCT032/// OVC045/// 06/02 Q0994 RMK WIND RWY26 25007KT WIND 1140FT VRB09KT,ENSD,2024-03-22T04:20:00Z,61.829,6.104,6,2,200,11,,6+,29.35,,,TRUE,,,,,,,-RA,FEW,2400,SCT,3200,OVC,4500,,,VFR,,,,,,,,,,,,METAR,61
ENRY 220420Z AUTO 22006KT 180V240 1600 OVC001/// 04/04 Q1001,ENRY,2024-03-22T04:20:00Z,59.381,10.783,4,4,220,6,,0.99,29.56,,,TRUE,,,,,,,,OVC,100,,,,,,,LIFR,,,,,,,,,,,,METAR,45
ENRS 220420Z AUTO 12016KT 3700 -SN BKN004/// BKN006/// OVC012/// 01/00 Q0988,ENRS,2024-03-22T04:20:00Z,67.527,12.104,1,0,120,16,,2.3,29.17,,,TRUE,,,,,,,-SN,BKN,400,BKN,600,OVC,1200,,,LIFR,,,,,,,,,,,,METAR,4
ENRO 220420Z AUTO 14004KT 090V200 9999 FEW022/// M00/M04 Q0993,ENRO,2024-03-22T04:20:00Z,62.578,11.342,0,-4,140,4,,6+,29.32,,,TRUE,,,,,,,,FEW,2200,,,,,,,VFR,,,,,,,,,,,,METAR,624
ENRM 220420Z AUTO 17011KT 9999 -RA FEW016/// SCT023/// BKN028/// 05/02 Q0990,ENRM,2024-03-22T04:20:00Z,64.835,11.141,5,2,170,11,,6+,29.23,,,TRUE,,,,,,,-RA,FEW,1600,SCT,2300,BKN,2800,,,MVFR,,,,,,,,,,,,METAR,4
ENRA 220420Z AUTO 08005KT 050V130 9999 -RA SCT019/// OVC031/// 02/00 Q0991,ENRA,2024-03-22T04:20:00Z,66.364,14.302,2,0,80,5,,6+,29.26,,,TRUE,,,,,,,-RA,SCT,1900,OVC,3100,,,,,VFR,,,,,,,,,,,,METAR,66
ENQR 220420Z AUTO 23034KT 9999 SCT024/// BKN150/// 07/04 Q0990 W07/S7,ENQR,2024-03-22T04:20:00Z,61.53,2.22,7,4,230,34,,6+,29.23,,,TRUE,,,,,,,,SCT,2400,BKN,15000,,,,,VFR,,,,,,,,,,,,METAR,10
ENQC 220420Z AUTO 22038KT //// FEW018/// BKN075/// 07/01 Q0995 W///S6,ENQC,2024-03-22T04:20:00Z,60.886,3.61,7,1,220,38,,,29.38,,,TRUE,,,,,,,,FEW,1800,BKN,7500,,,,,VFR,,,,,,,,,,,,METAR,20
ENQA 220420Z AUTO 25041KT 6000 -RA SCT022/// BKN025/// BKN068/// 05/02 Q0997 W01/S6,ENQA,2024-03-22T04:20:00Z,60.645,3.725,5,2,250,41,,3.73,29.44,,,TRUE,,,,,,,-RA,SCT,2200,BKN,2500,BKN,6800,,,MVFR,,,,,,,,,,,,METAR,90
ENOV 220420Z AUTO 24013G24KT 210V290 9999 FEW039/// SCT051/// 07/M00 Q0993 RMK WIND RWY24 23011KT WIND 2090FT VRB29G47KT,ENOV,2024-03-22T04:20:00Z,62.18,6.078,7,0,240,13,24,6+,29.32,,,TRUE,,,,,,,,FEW,3900,SCT,5100,,,,,VFR,,,,,,,,,,,,METAR,72
ENOL 220420Z 19007KT 9999 VCSH FEW014CB BKN040 05/03 Q0991,ENOL,2024-03-22T04:20:00Z,63.703,9.609,5,3,190,7,,6+,29.26,,,,,,,,,,VCSH,FEW,1400,BKN,4000,,,,,VFR,,,,,,,,,,,,METAR,9
ENOA 220420Z 23028G40KT 9000 -SHRA BKN025 06/02 Q0995 W///S6,ENOA,2024-03-22T04:20:00Z,60.492,2.827,6,2,230,28,40,5.59,29.38,,,,,,,,,,-SHRA,BKN,2500,,,,,,,MVFR,,,,,,,,,,,,METAR,5
ENNM 220420Z AUTO 15009KT 110V210 9999 FEW016/// BKN053/// 05/01 Q0992,ENNM,2024-03-22T04:20:00Z,64.471,11.57,5,1,150,9,,6+,29.29,,,TRUE,,,,,,,,FEW,1600,BKN,5300,,,,,VFR,,,,,,,,,,,,METAR,2
ENNE 220420Z AUTO 17026KT 9999 SCT022/// BKN049/// BKN110/// 06/04 Q0982 W///S6,ENNE,2024-03-22T04:20:00Z,66.03,8.08,6,4,170,26,,6+,29.00,,,TRUE,,,,,,,,SCT,2200,BKN,4900,BKN,11000,,,VFR,,,,,,,,,,,,METAR,10
ENNA 220420Z AUTO 18012KT 9999 -SN OVC025/// M04/M08 Q1007 RMK WIND 1800FT 16028KT,ENNA,2024-03-22T04:20:00Z,70.059,24.971,-4,-8,180,12,,6+,29.73,,,TRUE,,,,,,,-SN,OVC,2500,,,,,,,MVFR,,,,,,,,,,,,METAR,12
ENMS 220420Z 18007KT 150V220 9999 -SHRA FEW012 BKN020 02/01 Q0991 RMK WIND 412FT VRB06KT,ENMS,2024-03-22T04:20:00Z,65.784,13.218,2,1,180,7,,6+,29.26,,,,,,,,,,-SHRA,FEW,1200,BKN,2000,,,,,MVFR,,,,,,,,,,,,METAR,44
ENML 220420Z AUTO 26008KT 9999NDV -SHRA FEW031/// OVC042/// 05/03 Q0992,ENML,2024-03-22T04:20:00Z,62.744,7.262,5,3,260,8,,,29.29,,,TRUE,,,,,,,-SHRA,FEW,3100,OVC,4200,,,,,VFR,,,,,,,,,,,,METAR,3
ENLK 220420Z 14012KT 7000 -SHRASN SCT010 BKN020 03/M01 Q0990,ENLK,2024-03-22T04:20:00Z,68.155,13.615,3,-1,140,12,,4.35,29.23,,,,,,,,,,-SHRA -SHSN,SCT,1000,BKN,2000,,,,,MVFR,,,,,,,,,,,,METAR,26
ENLE 220420Z 24029KT CAVOK 08/04 Q1007 W07/S4,ENLE,2024-03-22T04:20:00Z,56.535,3.205,8,4,240,29,,6+,29.73,,,,,,,,,,,CAVOK,,,,,,,,VFR,,,,,,,,,,,,METAR,10
ENLA 220420Z AUTO 25031KT 8000NDV BKN250/// 08/05 Q1005 W///S5,ENLA,2024-03-22T04:20:00Z,57.111,2.846,8,5,250,31,,,29.68,,,TRUE,,,,,,,,BKN,25000,,,,,,,VFR,,,,,,,,,,,,METAR,10
ENKR 220420Z 17003KT 9999 FEW017 BKN024 M05/M09 Q1008 RMK WIND 731FT 11004KT,ENKR,2024-03-22T04:20:00Z,69.725,29.898,-5,-9,170,3,,6+,29.76,,,,,,,,,,,FEW,1700,BKN,2400,,,,,MVFR,,-0.4,,,,,,,,,,METAR,86
ENKB 220420Z AUTO 21008KT 140V260 9999 -RA BKN032/// BKN100/// 06/01 Q0991 RMK WIND 745FT 21020KT,ENKB,2024-03-22T04:20:00Z,63.109,7.816,6,1,210,8,,6+,29.26,,,TRUE,,,,,,,-RA,BKN,3200,BKN,10000,,,,,VFR,,,-2,,,,,,,,,METAR,62
ENJS 220420Z 25031KT CAVOK 07/04 Q1001 W06/S5,ENJS,2024-03-22T04:20:00Z,58.835,2.545,7,4,250,31,,6+,29.56,,,,,,,,,,,CAVOK,,,,,,,,VFR,,,,,,,,,,,,METAR,
ENHV 220420Z AUTO 12016KT 9999 SCT022/// OVC032/// M03/M08 Q1008,ENHV,2024-03-22T04:20:00Z,71.009,25.982,-3,-8,120,16,,6+,29.76,,,TRUE,,,,,,,,SCT,2200,OVC,3200,,,,,VFR,,,,,,,,,,,,METAR,13
ENHK 220420Z AUTO 10018KT 9999 FEW076/// OVC092/// 00/M03 Q1003,ENHK,2024-03-22T04:20:00Z,70.487,22.14,0,-3,100,18,,6+,29.62,,,TRUE,,,,,,,,FEW,7600,OVC,9200,,,,,VFR,,,,,,,,,,,,METAR,6
ENHF 220420Z AUTO 13017KT 9999 FEW025/// OVC090/// M03/M06 Q1004 RESG REFZRA RMK WIND 1254FT 14022KT,ENHF,2024-03-22T04:20:00Z,70.681,23.677,-3,-6,130,17,,6+,29.65,,,TRUE,,,,,,,FZRA,FEW,2500,OVC,9000,,,,,VFR,,,,,,,,,,,,METAR,79
ENHE 220420Z 24020KT 9999 -RA BKN030 06/03 Q0984 W///S6,ENHE,2024-03-22T04:20:00Z,65.325,2.327,6,3,240,20,,6+,29.06,,,,,,,,,,-RA,BKN,3000,,,,,,,MVFR,,,,,,,,,,,,METAR,10
ENHD 220420Z AUTO 19010KT 9000 VV013 06/03 Q1001,ENHD,2024-03-22T04:20:00Z,59.341,5.22,6,3,190,10,,5.59,29.56,,,TRUE,,,,,,,,OVX,0,,,,,,,MVFR,,,,,,,,,,,1300,METAR,22
ENGM 220420Z 18005KT 9999 2000E BCFG BKN003 02/01 Q0999,ENGM,2024-03-22T04:20:00Z,60.201,11.08,2,1,180,5,,6+,29.50,,,,,,,,,,BCFG,BKN,300,,,,,,,LIFR,,,,,,,,,,,,METAR,204
ENGC 220420Z 26033KT 9999 VCSH SCT018CB SCT080 06/02 Q0994 W06/S7,ENGC,2024-03-22T04:20:00Z,61.033,2.033,6,2,260,33,,6+,29.35,,,,,,,,,,VCSH,SCT,1800,SCT,8000,,,,,VFR,,,,,,,,,,,,METAR,10
ENFL 220420Z AUTO 20021KT 9999NDV FEW018/// SCT042/// BKN070/// 07/04 Q0995,ENFL,2024-03-22T04:20:00Z,61.582,5.02,7,4,200,21,,,29.38,,,TRUE,,,,,,,,FEW,1800,SCT,4200,BKN,7000,,,VFR,,,,,,,,,,,,METAR,1
ENFB 220420Z AUTO 22034KT //// /// ///// //// W///S6,ENFB,2024-03-22T04:20:00Z,61.206,1.829,,,220,34,,,0.00,,,TRUE,,,,,,,,,,,,,,,,VFR,,,,,,,,,,,,METAR,10
ENEV 220420Z 13014KT 9999 BKN047 03/M05 Q0993 RMK WIND 1400FT 10024G34KT,ENEV,2024-03-22T04:20:00Z,68.491,16.683,3,-5,130,14,,6+,29.32,,,,,,,,,,,BKN,4700,,,,,,,VFR,,2.4,,,,,,,,,,METAR,26
ENDU 220420Z 11014KT 9999 FEW050 BKN080 03/M06 Q0996 RMK WIND 1100FT 12006KT WIND 2200FT 13019KT,ENDU,2024-03-22T04:20:00Z,69.058,18.544,3,-6,110,14,,6+,29.41,,,,,,,,,,,FEW,5000,BKN,8000,,,,,VFR,,,,,,,,,,,,METAR,65
ENDR 220420Z AUTO 21037KT 8000NDV -SHRA BKN020/// OVC100/// 07/05 Q0986 W///S6,ENDR,2024-03-22T04:20:00Z,64.349,7.78,7,5,210,37,,,29.11,,,TRUE,,,,,,,-SHRA,BKN,2000,OVC,10000,,,,,MVFR,,,,,,,,,,,,METAR,10
ENCN 220420Z AUTO 19008KT 4100 BR FEW002/// SCT003/// BKN006/// 06/05 Q1003,ENCN,2024-03-22T04:20:00Z,58.2,8.077,6,5,190,8,,2.55,29.62,,,TRUE,,,,,,,BR,FEW,200,SCT,300,BKN,600,,,IFR,,,,,,,,,,,,METAR,17
ENBV 220420Z AUTO 09012KT 9999 FEW018/// BKN031/// OVC041/// M04/M10 Q1009,ENBV,2024-03-22T04:20:00Z,70.871,29.032,-4,-10,90,12,,6+,29.79,,,TRUE,,,,,,,,FEW,1800,BKN,3100,OVC,4100,,,VFR,,,,,,,,,,,,METAR,13
ENBS 220420Z AUTO VRB02KT 9999 FEW021/// OVC088/// M07/M08 Q1008,ENBS,2024-03-22T04:20:00Z,70.601,29.698,-7,-8,VRB,2,,6+,29.76,,,TRUE,,,,,,,,FEW,2100,OVC,8800,,,,,VFR,,,,,,,,,,,,METAR,144
ENBR 220420Z 21011KT 9999 FEW017 BKN022 BKN031 06/06 Q0999 RMK WIND 1200FT 23017G28KT,ENBR,2024-03-22T04:20:00Z,60.29,5.222,6,6,210,11,,6+,29.50,,,,,,,,,,,FEW,1700,BKN,2200,BKN,3100,,,MVFR,,,,,,,,,,,,METAR,49
ENBO 220420Z 14013KT 100V160 9999 -RA VV014 04/M00 Q0991,ENBO,2024-03-22T04:20:00Z,67.267,14.359,4,0,140,13,,6+,29.26,,,,,,,,,,-RA,OVX,0,,,,,,,MVFR,,,,,,,,,,,1400,METAR,13
ENBN 220420Z AUTO 17013KT 9999NDV SHRA FEW020/// BKN025/// OVC036/// 05/02 Q0990,ENBN,2024-03-22T04:20:00Z,65.458,12.216,5,2,170,13,,,29.23,,,TRUE,,,,,,,SHRA,FEW,2000,BKN,2500,OVC,3600,,,MVFR,,,,,,,,,,,,METAR,3
ENBL 220420Z AUTO 21005KT 160V260 9999 -RA BKN015/// OVC021/// 04/02 Q0995,ENBL,2024-03-22T04:20:00Z,61.391,5.76,4,2,210,5,,6+,29.38,,,TRUE,,,,,,,-RA,BKN,1500,OVC,2100,,,,,MVFR,,,,,,,,,,,,METAR,313
ENAT 220420Z AUTO 18007KT 130V210 9999 BKN019/// OVC023/// M02/M06 Q1005 RMK WIND 700FT 14018KT,ENAT,2024-03-22T04:20:00Z,69.978,23.358,-2,-6,180,7,,6+,29.68,,,TRUE,,,,,,,,BKN,1900,OVC,2300,,,,,MVFR,,,,,,,,,,,,METAR,3
ENAN 220420Z 12020KT 9999 FEW025 BKN076 03/M04 Q0994,ENAN,2024-03-22T04:20:00Z,69.307,16.131,3,-4,120,20,,6+,29.35,,,,,,,,,,,FEW,2500,BKN,7600,,,,,VFR,,,,,,,,,,,,METAR,13
ENAL 220420Z AUTO 22024KT 9999 -DZ FEW031/// SCT041/// BKN049/// 07/03 Q0992,ENAL,2024-03-22T04:20:00Z,62.562,6.115,7,3,220,24,,6+,29.29,,,TRUE,,,,,,,-DZ,FEW,3100,SCT,4100,BKN,4900,,,VFR,,,,,,,,,,,,METAR,21
ELLX 220420Z 20005KT CAVOK 09/06 Q1021 NOSIG,ELLX,2024-03-22T04:20:00Z,49.626,6.204,9,6,200,5,,6+,30.15,,,,,,TRUE,,,,,CAVOK,,,,,,,,VFR,,,,,,,,,,,,METAR,374
EKYT 220420Z AUTO 24015KT 9999 OVC008/// 07/07 Q1006,EKYT,2024-03-22T04:20:00Z,57.093,9.879,7,7,240,15,,6+,29.70,,,TRUE,,,,,,,,OVC,800,,,,,,,IFR,,,,,,,,,,,,METAR,2
EKVJ 220420Z AUTO 22010KT 190V250 6000 -RA FEW046/// BKN053/// BKN067/// OVC078/// ///// Q1010,EKVJ,2024-03-22T04:20:00Z,55.991,8.354,,,220,10,,3.73,29.82,,,TRUE,,,,,,,-RA,FEW,4600,BKN,5300,BKN,6700,OVC,7800,MVFR,,,,,,,,,,,,METAR,5
EKVG 220420Z AUTO 27022G39KT 220V300 9999 BKN027/// 05/M01 Q0982 RMK BKN023/// WIND SKEID 28031G64KT 230V320,EKVG,2024-03-22T04:20:00Z,62.065,-7.282,5,-1,270,22,39,6+,29.00,,,TRUE,,,,,,,,BKN,2700,,,,,,,MVFR,,,,,,,,,,,,METAR,89
EKVD 220420Z AUTO 26012KT //// ///////// 08/07 Q1011,EKVD,2024-03-22T04:20:00Z,55.436,9.329,8,7,260,12,,,29.85,,,TRUE,,,,,,,,,,,,,,,,VFR,,,,,,,,,,,,METAR,41
EKSP 220420Z 25011KT 2000 -DZRA FEW003 BKN004 08/07 Q1011,EKSP,2024-03-22T04:20:00Z,55.225,9.263,8,7,250,11,,1.24,29.85,,,,,,,,,,-DZ -RA,FEW,300,BKN,400,,,,,LIFR,,,,,,,,,,,,METAR,40
EKSB 220420Z AUTO 24006KT 200V280 2100 -RA BR OVC005/// 09/08 Q1012,EKSB,2024-03-22T04:20:00Z,54.962,9.787,9,8,240,6,,1.3,29.88,,,TRUE,,,,,,,-RA BR,OVC,500,,,,,,,IFR,,,,,,,,,,,,METAR,23
EKRS 220420Z AUTO 23011KT 190V270 2500 DZ BR OVC005/// 06/06 Q1011,EKRS,2024-03-22T04:20:00Z,55.426,11.807,6,6,230,11,,1.55,29.85,,,TRUE,,,,,,,DZ BR,OVC,500,,,,,,,IFR,,,,,,,,,,,,METAR,34
EKRN 220420Z AUTO 21010KT 180V240 3100 BR BKN012/// OVC050/// 05/04 Q1013,EKRN,2024-03-22T04:20:00Z,55.068,14.749,5,4,210,10,,1.93,29.91,,,TRUE,,,,,,,BR,BKN,1200,OVC,5000,,,,,IFR,,,,,,,,,,,,METAR,14
EKRK 220420Z AUTO 23013KT 3000 BR OVC006/// 07/06 Q1011,EKRK,2024-03-22T04:20:00Z,55.587,12.136,7,6,230,13,,1.86,29.85,,,TRUE,,,,,,,BR,OVC,600,,,,,,,IFR,,,,,,,,,,,,METAR,40
EKKA 220420Z AUTO 23011KT 8000 RA BKN006/// BKN140/// 07/07 Q1009,EKKA,2024-03-22T04:20:00Z,56.293,9.114,7,7,230,11,,4.97,29.79,,,TRUE,,,,,,,RA,BKN,600,BKN,14000,,,,,IFR,,,,,,,,,,,,METAR,50
EKEB 220420Z AUTO 23013KT 5000 -RA BKN003/// BKN044/// 07/07 Q1011,EKEB,2024-03-22T04:20:00Z,55.528,8.563,7,7,230,13,,3.11,29.85,,,TRUE,,,,,,,-RA,BKN,300,BKN,4400,,,,,LIFR,,,,,,,,,,,,METAR,29
EKCH 220420Z 22014KT 5000 BR BKN008 06/06 Q1011 TEMPO 4000,EKCH,2024-03-22T04:20:00Z,55.618,12.656,6,6,220,14,,3.11,29.85,,,,,,,,,,BR,BKN,800,,,,,,,IFR,,,,,,,,,,,,METAR,4
EKBI 220420Z AUTO 24007KT 210V270 9999 -RA BKN004/// OVC036/// 07/07 Q1010,EKBI,2024-03-22T04:20:00Z,55.74,9.152,7,7,240,7,,6+,29.82,,,TRUE,,,,,,,-RA,BKN,400,OVC,3600,,,,,LIFR,,,,,,,,,,,,METAR,67
EKAH 220420Z AUTO 23007KT 180V270 9999 -RA OVC006/// 08/07 Q1009,EKAH,2024-03-22T04:20:00Z,56.3,10.619,8,7,230,7,,6+,29.79,,,TRUE,,,,,,,-RA,OVC,600,,,,,,,IFR,,,,,,,,,,,,METAR,25
EGXW 220420Z 27009KT 9999 FEW010 BKN056 09/07 Q1016 RMK BLU,EGXW,2024-03-22T04:20:00Z,53.175,-0.523,9,7,270,9,,6+,30.00,,,,,,,,,,,FEW,1000,BKN,5600,,,,,VFR,,,,,,,,,,,,METAR,70
EGVN 220420Z 24006KT 9999 OVC006 09/08 Q1018 TEMPO 4000 RADZ RMK YLO1 TEMPO YLO1,EGVN,2024-03-22T04:20:00Z,51.758,-1.578,9,8,240,6,,6+,30.06,,,,,,,,,,,OVC,600,,,,,,,IFR,,,,,,,,,,,,METAR,83
EGSY 220420Z AUTO 25017KT 2400 RA OVC002/// 10/10 Q1019,EGSY,2024-03-22T04:20:00Z,51.406,-3.434,10,10,250,17,,1.49,30.09,,,TRUE,,,,,,,RA,OVC,200,,,,,,,LIFR,,,,,,,,,,,,METAR,46
EGSS 220420Z AUTO 24011KT 9999 BKN016 10/07 Q1018,EGSS,2024-03-22T04:20:00Z,51.881,0.223,10,7,240,11,,6+,30.06,,,TRUE,,,,,,,,BKN,1600,,,,,,,MVFR,,,,,,,,,,,,METAR,101
EGSH 220420Z AUTO 24012KT 9999 OVC015/// 11/08 Q1017,EGSH,2024-03-22T04:20:00Z,52.676,1.283,11,8,240,12,,6+,30.03,,,TRUE,,,,,,,,OVC,1500,,,,,,,MVFR,,,,,,,,,,,,METAR,21
EGPU 220420Z AUTO 27019KT 9999 SCT032/// 06/02 Q1010,EGPU,2024-03-22T04:20:00Z,56.499,-6.872,6,2,270,19,,6+,29.82,,,TRUE,,,,,,,,SCT,3200,,,,,,,VFR,,,,,,,,,,,,METAR,12
EGPO 220420Z AUTO 26020KT 9999 BKN036/// BKN049/// 06/01 Q1003,EGPO,2024-03-22T04:20:00Z,58.215,-6.329,6,1,260,20,,6+,29.62,,,TRUE,,,,,,,,BKN,3600,BKN,4900,,,,,VFR,,,,,,,,,,,,METAR,10
EGPL 220420Z AUTO 27029KT 9999 FEW013/// 07/01 Q1006,EGPL,2024-03-22T04:20:00Z,57.475,-7.364,7,1,270,29,,6+,29.70,,,TRUE,,,,,,,,FEW,1300,,,,,,,VFR,,,,,,,,,,,,METAR,3
EGPK 220420Z 25015KT 6000 -RA SCT022 SCT028 BKN034 08/05 Q1013,EGPK,2024-03-22T04:20:00Z,55.509,-4.587,8,5,250,15,,3.73,29.91,,,,,,,,,,-RA,SCT,2200,SCT,2800,BKN,3400,,,MVFR,,,,,,,,,,,,METAR,14
EGPH 220420Z 25011KT CAVOK 06/03 Q1010,EGPH,2024-03-22T04:20:00Z,55.952,-3.36,6,3,250,11,,6+,29.82,,,,,,,,,,,CAVOK,,,,,,,,VFR,,,,,,,,,,,,METAR,29
EGPF 220420Z AUTO 24012KT 9999 SCT027/// BKN037/// BKN043/// //////CB 07/04 Q1012,EGPF,2024-03-22T04:20:00Z,55.867,-4.433,7,4,240,12,,6+,29.88,,,TRUE,,,,,,,,SCT,2700,BKN,3700,BKN,4300,,,VFR,,,,,,,,,,,,METAR,8
EGPD 220420Z AUTO 25012KT 230V290 9999 NCD 06/01 Q1006,EGPD,2024-03-22T04:20:00Z,57.205,-2.205,6,1,250,12,,6+,29.70,,,TRUE,,,,,,,,CLR,,,,,,,,VFR,,,,,,,,,,,,METAR,65
EGPC 220420Z AUTO 25011KT 9999 SCT024/// SCT033/// 04/02 Q1002 RERA,EGPC,2024-03-22T04:20:00Z,58.459,-3.093,4,2,250,11,,6+,29.59,,,TRUE,,,,,,,,SCT,2400,SCT,3300,,,,,VFR,,,,,,,,,,,,METAR,38
EGPB 220420Z AUTO 26022G33KT 4100 RA FEW013/// BKN021/// BKN032/// 07/03 Q0997,EGPB,2024-03-22T04:20:00Z,59.88,-1.296,7,3,260,22,33,2.55,29.44,,,TRUE,,,,,,,RA,FEW,1300,BKN,2100,BKN,3200,,,IFR,,,,,,,,,,,,METAR,2
EGPA 220420Z AUTO 26021G32KT 9999 -RA FEW006/// BKN026/// BKN037/// 05/02 Q1000 RERA,EGPA,2024-03-22T04:20:00Z,58.958,-2.905,5,2,260,21,32,6+,29.53,,,TRUE,,,,,,,-RA,FEW,600,BKN,2600,BKN,3700,,,MVFR,,,,,,,,,,,,METAR,15
EGNX 220420Z 26010KT 9999 -DZ SCT018 BKN038 09/08 Q1017,EGNX,2024-03-22T04:20:00Z,52.833,-1.333,9,8,260,10,,6+,30.03,,,,,,,,,,-DZ,SCT,1800,BKN,3800,,,,,VFR,,,,,,,,,,,,METAR,91
EGNT 220420Z 28014KT 9999 SCT028 07/04 Q1012,EGNT,2024-03-22T04:20:00Z,55.037,-1.702,7,4,280,14,,6+,29.88,,,,,,,,,,,SCT,2800,,,,,,,VFR,,,,,,,,,,,,METAR,77
EGNJ 220420Z AUTO 25015KT 9999 NCD 11/06 Q1015,EGNJ,2024-03-22T04:20:00Z,53.58,-0.341,11,6,250,15,,6+,29.97,,,TRUE,,,,,,,,CLR,,,,,,,,VFR,,,,,,,,,,,,METAR,23
EGMD 220420Z AUTO 24011KT 9999 FEW009/// 10/09 Q1020,EGMD,2024-03-22T04:20:00Z,50.956,0.939,10,9,240,11,,6+,30.12,,,TRUE,,,,,,,,FEW,900,,,,,,,VFR,,,,,,,,,,,,METAR,4
EGLL 220420Z AUTO 24009KT 9999 BKN017 10/07 Q1019 BECMG BKN010,EGLL,2024-03-22T04:20:00Z,51.477,-0.461,10,7,240,9,,6+,30.09,,,TRUE,,,,,,,,BKN,1700,,,,,,,MVFR,,,,,,,,,,,,METAR,26
EGLF 220420Z AUTO 24008KT 9999 FEW031/// 09/06 Q1019,EGLF,2024-03-22T04:20:00Z,51.28,-0.773,9,6,240,8,,6+,30.09,,,TRUE,,,,,,,,FEW,3100,,,,,,,VFR,,,,,,,,,,,,METAR,65
EGLC 220420Z AUTO 24009KT 9999 BKN018 11/06 Q1019,EGLC,2024-03-22T04:20:00Z,51.505,0.055,11,6,240,9,,6+,30.09,,,TRUE,,,,,,,,BKN,1800,,,,,,,MVFR,,,,,,,,,,,,METAR,10
EGJJ 220420Z AUTO 27012KT 9999 SCT007/// OVC008/// 09/08 Q1023,EGJJ,2024-03-22T04:20:00Z,49.21,-2.194,9,8,270,12,,6+,30.21,,,TRUE,,,,,,,,SCT,700,OVC,800,,,,,IFR,,,,,,,,,,,,METAR,84
EGJB 220420Z 26012KT 9999 FEW010 BKN012 09/07 Q1023,EGJB,2024-03-22T04:20:00Z,49.433,-2.598,9,7,260,12,,6+,30.21,,,,,,,,,,,FEW,1000,BKN,1200,,,,,MVFR,,,,,,,,,,,,METAR,102
EGHQ 220420Z AUTO 25013KT 0450 FG VV/// 10/10 Q1021,EGHQ,2024-03-22T04:20:00Z,50.438,-4.998,10,10,250,13,,0.28,30.15,,,TRUE,,,,,,,FG,OVX,0,,,,,,,LIFR,,,,,,,,,,,,METAR,101
EGGW 220420Z AUTO 25013KT 9999 OVC010 09/07 Q1018,EGGW,2024-03-22T04:20:00Z,51.875,-0.368,9,7,250,13,,6+,30.06,,,TRUE,,,,,,,,OVC,1000,,,,,,,MVFR,,,,,,,,,,,,METAR,159
EGGP 220420Z AUTO 28013KT 9999 FEW045/// 09/06 Q1017,EGGP,2024-03-22T04:20:00Z,53.334,-2.85,9,6,280,13,,6+,30.03,,,TRUE,,,,,,,,FEW,4500,,,,,,,VFR,,,,,,,,,,,,METAR,23
EGGD 220420Z AUTO 23010KT 0750 RA FG VV/// 09/08 Q1019 REDZ,EGGD,2024-03-22T04:20:00Z,51.383,-2.719,9,8,230,10,,0.47,30.09,,,TRUE,,,,,,,RA FG,OVX,0,,,,,,,LIFR,,,,,,,,,,,,METAR,182
EGFF 220420Z AUTO 26015KT 2500 DZ OVC001 10/10 Q1019 RERA,EGFF,2024-03-22T04:20:00Z,51.397,-3.343,10,10,260,15,,1.55,30.09,,,TRUE,,,,,,,DZ,OVC,100,,,,,,,LIFR,,,,,,,,,,,,METAR,65
EGCK 220420Z AUTO 28012KT 9999 NCD 10/06 Q1019,EGCK,2024-03-22T04:20:00Z,53.104,-4.34,10,6,280,12,,6+,30.09,,,TRUE,,,,,,,,CLR,,,,,,,,VFR,,,,,,,,,,,,METAR,6
EGCC 220420Z AUTO 26011KT 9999 SCT027 09/06 Q1016,EGCC,2024-03-22T04:20:00Z,53.354,-2.275,9,6,260,11,,6+,30.00,,,TRUE,,,,,,,,SCT,2700,,,,,,,VFR,,,,,,,,,,,,METAR,78
EGBB 220420Z 29005KT 8000 -RA SCT007 BKN029 OVC034 09/08 Q1018 RERA REDZ,EGBB,2024-03-22T04:20:00Z,52.46,-1.758,9,8,290,5,,4.97,30.06,,,,,,,,,,-RA,SCT,700,BKN,2900,OVC,3400,,,MVFR,,,,,,,,,,,,METAR,91
EGAC 220420Z AUTO 26009KT 230V290 9999 NCD 07/03 Q1016,EGAC,2024-03-22T04:20:00Z,54.614,-5.873,7,3,260,9,,6+,30.00,,,TRUE,,,,,,,,CLR,,,,,,,,VFR,,,,,,,,,,,,METAR,2
EGAA 220420Z AUTO 25009KT 9999 FEW024 05/03 Q1015,EGAA,2024-03-22T04:20:00Z,54.654,-6.225,5,3,250,9,,6+,29.97,,,TRUE,,,,,,,,FEW,2400,,,,,,,VFR,,,,,,,,,,,,METAR,65
EFVA 220420Z AUTO 16011KT 9999 OVC007 00/M01 Q1002,EFVA,2024-03-22T04:20:00Z,63.051,21.762,0,-1,160,11,,6+,29.59,,,TRUE,,,,,,,,OVC,700,,,,,,,IFR,,,,,,,,,,,,METAR,4
EFUT 220420Z 21005KT 0350 R25/0600N -DZ FG VV002 00/00 Q1007,EFUT,2024-03-22T04:20:00Z,60.896,26.938,0,0,210,5,,0.22,29.73,,,,,,,,,,-DZ FG,OVX,0,,,,,,,LIFR,,,,,,,,,,,200,METAR,104
EFTU 220420Z AUTO 19006KT 160V230 1900 BR OVC001 M00/M00 Q1006,EFTU,2024-03-22T04:20:00Z,60.514,22.263,0,0,190,6,,1.18,29.70,,,TRUE,,,,,,,BR,OVC,100,,,,,,,LIFR,,,,,,,,,,,,METAR,47
EFTP 220420Z AUTO 18006KT 150V210 9999 OVC002 M00/M01 Q1006,EFTP,2024-03-22T04:20:00Z,61.419,23.616,0,-1,180,6,,6+,29.70,,,TRUE,,,,,,,,OVC,200,,,,,,,LIFR,,,,,,,,,,,,METAR,111
EFSI 220420Z AUTO 16008KT 9999 OVC005 M00/M01 Q1003,EFSI,2024-03-22T04:20:00Z,62.693,22.83,0,-1,160,8,,6+,29.62,,,TRUE,,,,,,,,OVC,500,,,,,,,IFR,,,,,,,,,,,,METAR,90
EFSA 220420Z 23005KT 4300 BR VV003 00/00 Q1007,EFSA,2024-03-22T04:20:00Z,61.943,28.945,0,0,230,5,,2.67,29.73,,,,,,,,,,BR,OVX,0,,,,,,,LIFR,,,,,,,,,,,300,METAR,90
EFRO 220420Z AUTO 13006KT 0450 R21/0600D FZFG VV001 M02/M02 Q1003,EFRO,2024-03-22T04:20:00Z,66.562,25.829,-2,-2,130,6,,0.28,29.62,,,TRUE,,,,,,,FZFG,OVX,0,,,,,,,LIFR,,,,,,,,,,,100,METAR,201
EFPO 220420Z AUTO 16008KT 9999 OVC002 01/00 Q1005,EFPO,2024-03-22T04:20:00Z,61.462,21.8,1,0,160,8,,6+,29.68,,,TRUE,,,,,,,,OVC,200,,,,,,,LIFR,,,,,,,,,,,,METAR,10
EFOU 220420Z AUTO 14006KT 8000 OVC002 M01/M01 Q1004,EFOU,2024-03-22T04:20:00Z,64.93,25.355,-1,-1,140,6,,4.97,29.65,,,TRUE,,,,,,,,OVC,200,,,,,,,LIFR,,,,,,,,,,,,METAR,15
EFMI 220420Z AUTO VRB02KT 0700 R11/0900N FG VV002 00/00 Q1007,EFMI,2024-03-22T04:20:00Z,61.687,27.201,0,0,VRB,2,,0.43,29.73,,,TRUE,,,,,,,FG,OVX,0,,,,,,,LIFR,,,,,,,,,,,200,METAR,99
EFMA 220420Z AUTO 21010KT 9999 -SHRA OVC003 02/02 Q1006,EFMA,2024-03-22T04:20:00Z,60.125,19.903,2,2,210,10,,6+,29.70,,,TRUE,,,,,,,-SHRA,OVC,300,,,,,,,LIFR,,,,,,,,,,,,METAR,6
EFLP 220420Z AUTO 21004KT 170V230 1100 R24/1800D BCFG VV003 00/00 Q1007,EFLP,2024-03-22T04:20:00Z,61.044,28.151,0,0,210,4,,0.68,29.73,,,TRUE,,,,,,,BCFG,OVX,0,,,,,,,LIFR,,,,,,,,,,,300,METAR,102
EFKU 220420Z AUTO 17004KT 9999 -FZRA BKN002 OVC014 00/M00 Q1006,EFKU,2024-03-22T04:20:00Z,63.008,27.799,0,0,170,4,,6+,29.70,,,TRUE,,,,,,,-FZRA,BKN,200,OVC,1400,,,,,LIFR,,,,,,,,,,,,METAR,92
EFKT 220420Z AUTO VRB01KT 9999 3100 OVC001 M04/M04 Q1002,EFKT,2024-03-22T04:20:00Z,67.701,24.847,-4,-4,VRB,1,,6+,29.59,,,TRUE,,,,,,,,OVC,100,,,,,,,LIFR,,,,,,,,,,,,METAR,190
EFKS 220420Z AUTO 14004KT 5000 -SHSN OVC002 M02/M02 Q1004,EFKS,2024-03-22T04:20:00Z,65.992,29.236,-2,-2,140,4,,3.11,29.65,,,TRUE,,,,,,,-SHSN,OVC,200,,,,,,,LIFR,,,,,,,,,,,,METAR,270
EFKK 220420Z AUTO 15008KT 9999 OVC004 M02/M03 Q1003,EFKK,2024-03-22T04:20:00Z,63.721,23.143,-2,-3,150,8,,6+,29.62,,,TRUE,,,,,,,,OVC,400,,,,,,,LIFR,,,,,,,,,,,,METAR,25
EFKI 220420Z AUTO 12003KT 3400 1000 R25/1300D BR VV003 M00/M01 Q1004,EFKI,2024-03-22T04:20:00Z,64.283,27.673,0,-1,120,3,,2.11,29.65,,,TRUE,,,,,,,BR,OVX,0,,,,,,,LIFR,,,,,,,,,,,300,METAR,132
EFKE 220420Z 11007KT 1300 R18/1700D FZFG OVC002 M02/M02 Q1004,EFKE,2024-03-22T04:20:00Z,65.784,24.579,-2,-2,110,7,,0.81,29.65,,,,,,,,,,FZFG,OVC,200,,,,,,,LIFR,,,,,,,,,,,,METAR,15
EFJY 220420Z AUTO 18003KT 9999 FEW007 BKN015 M00/M01 Q1005,EFJY,2024-03-22T04:20:00Z,62.404,25.675,0,-1,180,3,,6+,29.68,,,TRUE,,,,,,,,FEW,700,BKN,1500,,,,,MVFR,,,,,,,,,,,,METAR,139
EFJO 220420Z AUTO 20003KT 0800 R28/1000U -RA OVC001 00/M00 Q1006,EFJO,2024-03-22T04:20:00Z,62.66,29.611,0,0,200,3,,0.5,29.70,,,TRUE,,,,,,,-RA,OVC,100,,,,,,,LIFR,,,,,,,,,,,,METAR,118
EFIV 220420Z AUTO 06006KT 9999 -SHSN OVC013 M05/M07 Q1006,EFIV,2024-03-22T04:20:00Z,68.607,27.405,-5,-7,60,6,,6+,29.70,,,TRUE,,,,,,,-SHSN,OVC,1300,,,,,,,MVFR,,,,,,,,,,,,METAR,145
EFHK 220420Z 23005KT 9999 FEW002 BKN004 00/M00 Q1008 TEMPO 5000 BR,EFHK,2024-03-22T04:20:00Z,60.327,24.957,0,0,230,5,,6+,29.76,,,,,,,,,,,FEW,200,BKN,400,,,,,LIFR,,,,,,,,,,,,METAR,56
EFHA 220420Z AUTO 16004KT 9999 OVC006 M00/M01 Q1005,EFHA,2024-03-22T04:20:00Z,61.855,24.805,0,-1,160,4,,6+,29.68,,,TRUE,,,,,,,,OVC,600,,,,,,,IFR,,,,,,,,,,,,METAR,144
EFET 220420Z AUTO 07003KT CAVOK M03/M04 Q1001,EFET,2024-03-22T04:20:00Z,68.363,23.424,-3,-4,70,3,,6+,29.56,,,TRUE,,,,,,,,CAVOK,,,,,,,,VFR,,,,,,,,,,,,METAR,300
EETU 220420Z AUTO 22007KT 5000 BR OVC006/// 04/03 Q1010 REUP,EETU,2024-03-22T04:20:00Z,58.307,26.691,4,3,220,7,,3.11,29.82,,,TRUE,,,,,,,BR,OVC,600,,,,,,,IFR,,,,,,,,,,,,METAR,67
EETN 220420Z 22006KT 3300 BR OVC002 01/01 Q1009 TEMPO 1000,EETN,2024-03-22T04:20:00Z,59.413,24.801,1,1,220,6,,2.05,29.79,,,,,,,,,,BR,OVC,200,,,,,,,LIFR,,,,,,,,,,,,METAR,41
EEPU 220420Z AUTO 22006KT 1000 R21/1300U BR VV002 01/01 Q1011,EEPU,2024-03-22T04:20:00Z,58.419,24.473,1,1,220,6,,0.62,29.85,,,TRUE,,,,,,,BR,OVX,0,,,,,,,LIFR,,,,,,,,,,,200,METAR,13
EEKE 220420Z AUTO 20005KT 0450NDV R17/0700U R35/0600N SN FG VV002 02/02 Q1011,EEKE,2024-03-22T04:20:00Z,58.23,22.509,2,2,200,5,,0.37,29.85,,,TRUE,,,,,,,SN FG,OVX,0,,,,,,,LIFR,,,,,,,,,,,200,METAR,4
EEKA 220420Z 20006KT 160V230 9999 OVC004 01/01 Q1009,EEKA,2024-03-22T04:20:00Z,58.991,22.831,1,1,200,6,,6+,29.79,,,,,,,,,,,OVC,400,,,,,,,LIFR,,,,,,,,,,,,METAR,6
EDWE 220420Z AUTO 22007KT 6000 // SCT014/// BKN044/// 10/09 Q1015,EDWE,2024-03-22T04:20:00Z,53.388,7.229,10,9,220,7,,3.73,29.97,,,TRUE,,,,,,,,SCT,1400,BKN,4400,,,,,MVFR,,,,,,,,,,,,METAR,
EDVK 220420Z AUTO 20006KT 170V230 9999 // FEW078/// SCT100/// 07/05 Q1019,EDVK,2024-03-22T04:20:00Z,51.421,9.388,7,5,200,6,,6+,30.09,,,TRUE,,,,,,,,FEW,7800,SCT,10000,,,,,VFR,,,,,,,,,,,,METAR,262
EDVE 220420Z AUTO 23008KT 9999 FEW065/// SCT100/// 09/05 Q1018,EDVE,2024-03-22T04:20:00Z,52.319,10.558,9,5,230,8,,6+,30.06,,,TRUE,,,,,,,,FEW,6500,SCT,10000,,,,,VFR,,,,,,,,,,,,METAR,83
EDTY 220420Z AUTO VRB01KT 9999 // FEW110/// 02/02 Q1022,EDTY,2024-03-22T04:20:00Z,49.118,9.784,2,2,VRB,1,,6+,30.18,,,TRUE,,,,,,,,FEW,11000,,,,,,,VFR,,,,,,,,,,,,METAR,398
EDTL 220420Z AUTO 00000KT 9999 // OVC120/// 11/07 Q1023,EDTL,2024-03-22T04:20:00Z,48.369,7.828,11,7,0,0,,6+,30.21,,,TRUE,,,,,,,,OVC,12000,,,,,,,VFR,,,,,,,,,,,,METAR,152
EDSB 220420Z 19002KT CAVOK 10/08 Q1023,EDSB,2024-03-22T04:20:00Z,48.779,8.081,10,8,190,2,,6+,30.21,,,,,,,,,,,CAVOK,,,,,,,,VFR,,,,,,,,,,,,METAR,122
EDQM 220420Z AUTO 22009KT 9999 // SCT120/// BKN140/// 04/03 Q1020,EDQM,2024-03-22T04:20:00Z,50.289,11.86,4,3,220,9,,6+,30.12,,,TRUE,,,,,,,,SCT,12000,BKN,14000,,,,,VFR,,,,,,,,,,,,METAR,578
EDNY 220420Z AUTO 00000KT 9999 // SCT120/// 03/03 Q1023,EDNY,2024-03-22T04:20:00Z,47.671,9.511,3,3,0,0,,6+,30.21,,,TRUE,,,,,,,,SCT,12000,,,,,,,VFR,,,,,,,,,,,,METAR,411
EDMO 220420Z AUTO 17004KT 9999 // NCD 01/00 Q1023,EDMO,2024-03-22T04:20:00Z,48.081,11.283,1,0,170,4,,6+,30.21,,,TRUE,,,,,,,,CLR,,,,,,,,VFR,,,,,,,,,,,,METAR,587
EDMA 220420Z AUTO 15003KT 3200 // NCD 02/01 Q1022,EDMA,2024-03-22T04:20:00Z,48.425,10.932,2,1,150,3,,1.99,30.18,,,TRUE,,,,,,,,CLR,,,,,,,,IFR,,,,,,,,,,,,METAR,462
EDLW 220420Z 20011KT CAVOK 11/08 Q1018,EDLW,2024-03-22T04:20:00Z,51.518,7.612,11,8,200,11,,6+,30.06,,,,,,,,,,,CAVOK,,,,,,,,VFR,,,,,,,,,,,,METAR,122
EDLV 220420Z 22007KT 8000 NSC 11/09 Q1018,EDLV,2024-03-22T04:20:00Z,51.602,6.142,11,9,220,7,,4.97,30.06,,,,,,,,,,,CLR,,,,,,,,MVFR,,,,,,,,,,,,METAR,27
EDLP 220420Z 22008KT CAVOK 10/07 Q1019,EDLP,2024-03-22T04:20:00Z,51.614,8.616,10,7,220,8,,6+,30.09,,,,,,,,,,,CAVOK,,,,,,,,VFR,,,,,,,,,,,,METAR,211
EDLN 220420Z AUTO 20006KT 170V260 9999 // SCT160/// OVC200/// 12/09 Q1019,EDLN,2024-03-22T04:20:00Z,51.23,6.504,12,9,200,6,,6+,30.09,,,TRUE,,,,,,,,SCT,16000,OVC,20000,,,,,VFR,,,,,,,,,,,,METAR,38
EDJA 220420Z AUTO 18004KT 9999 // SCT120/// BKN160/// BKN220/// 01/00 Q1023,EDJA,2024-03-22T04:20:00Z,47.989,10.239,1,0,180,4,,6+,30.21,,,TRUE,,,,,,,,SCT,12000,BKN,16000,BKN,22000,,,VFR,,,,,,,,,,,,METAR,625
EDHL 220420Z AUTO VRB04KT 9999 // BKN040/// OVC048/// 09/06 Q1015,EDHL,2024-03-22T04:20:00Z,53.805,10.719,9,6,VRB,4,,6+,29.97,,,TRUE,,,,,,,,BKN,4000,OVC,4800,,,,,VFR,,,,,,,,,,,,METAR,13
EDHK 220420Z AUTO 24011KT 9000 // OVC013/// 09/06 Q1013,EDHK,2024-03-22T04:20:00Z,54.376,10.143,9,6,240,11,,5.59,29.91,,,TRUE,,,,,,,,OVC,1300,,,,,,,MVFR,,,,,,,,,,,,METAR,24
EDHI 220420Z AUTO 22009KT 7000 // OVC046/// 09/07 Q1015,EDHI,2024-03-22T04:20:00Z,53.536,9.837,9,7,220,9,,4.35,29.97,,,TRUE,,,,,,,,OVC,4600,,,,,,,MVFR,,,,,,,,,,,,METAR,5
EDGS 220420Z AUTO 23006KT 200V260 9999 // FEW085/// OVC120/// 07/05 Q1020,EDGS,2024-03-22T04:20:00Z,50.708,8.083,7,5,230,6,,6+,30.12,,,TRUE,,,,,,,,FEW,8500,OVC,12000,,,,,VFR,,,,,,,,,,,,METAR,595
EDFM 220420Z AUTO 16004KT 9999 // NCD 08/05 Q1022,EDFM,2024-03-22T04:20:00Z,49.474,8.515,8,5,160,4,,6+,30.18,,,TRUE,,,,,,,,CLR,,,,,,,,VFR,,,,,,,,,,,,METAR,94
EDFH 220420Z 21006KT CAVOK 08/06 Q1021,EDFH,2024-03-22T04:20:00Z,49.946,7.265,8,6,210,6,,6+,30.15,,,,,,,,,,,CAVOK,,,,,,,,VFR,,,,,,,,,,,,METAR,494
EDDW 220420Z AUTO 23009KT 8000 OVC048 10/08 Q1016 NOSIG,EDDW,2024-03-22T04:20:00Z,53.047,8.787,10,8,230,9,,4.97,30.00,,,TRUE,,,TRUE,,,,,OVC,4800,,,,,,,MVFR,,,,,,,,,,,,METAR,5
EDDV 220420Z AUTO 23008KT 9000 NSC 10/07 Q1017 NOSIG,EDDV,2024-03-22T04:20:00Z,52.466,9.68,10,7,230,8,,5.59,30.03,,,TRUE,,,TRUE,,,,,CLR,,,,,,,,VFR,,,,,,,,,,,,METAR,53
EDDS 220420Z AUTO VRB02KT CAVOK 06/04 Q1022,EDDS,2024-03-22T04:20:00Z,48.69,9.222,6,4,VRB,2,,6+,30.18,,,TRUE,,,,,,,,CAVOK,,,,,,,,VFR,,,,,,,,,,,,METAR,374
EDDR 220420Z AUTO 16002KT CAVOK 08/06 Q1022,EDDR,2024-03-22T04:20:00Z,49.213,7.108,8,6,160,2,,6+,30.18,,,TRUE,,,,,,,,CAVOK,,,,,,,,VFR,,,,,,,,,,,,METAR,317
EDDP 220420Z AUTO 20008KT CAVOK 07/04 Q1019 NOSIG,EDDP,2024-03-22T04:20:00Z,51.435,12.24,7,4,200,8,,6+,30.09,,,TRUE,,,TRUE,,,,,CAVOK,,,,,,,,VFR,,,,,,,,,,,,METAR,129
EDDN 220420Z AUTO 10006KT 3900 BR NSC 02/02 Q1022,EDDN,2024-03-22T04:20:00Z,49.503,11.055,2,2,100,6,,2.42,30.18,,,TRUE,,,,,,,BR,CLR,,,,,,,,IFR,,,,,,,,,,,,METAR,312
EDDM 220420Z AUTO VRB02KT 0800 0450 R26R/0550D R26L/1100U FG NCD 03/03 Q1022 TEMPO 1500 BCFG,EDDM,2024-03-22T04:20:00Z,48.348,11.813,3,3,VRB,2,,0.5,30.18,,,TRUE,,,,,,,FG,CLR,,,,,,,,LIFR,,,,,,,,,,,,METAR,445
EDDL 220420Z AUTO 16010KT CAVOK 10/08 Q1019 NOSIG,EDDL,2024-03-22T04:20:00Z,51.296,6.769,10,8,160,10,,6+,30.09,,,TRUE,,,TRUE,,,,,CAVOK,,,,,,,,VFR,,,,,,,,,,,,METAR,37
EDDK 220420Z AUTO 14005KT 9999 BKN026 BKN033 10/07 Q1020 RESHRA NOSIG,EDDK,2024-03-22T04:20:00Z,50.865,7.157,10,7,140,5,,6+,30.12,,,TRUE,,,TRUE,,,,,BKN,2600,BKN,3300,,,,,MVFR,,,,,,,,,,,,METAR,92
EDDH 220420Z AUTO 22010KT 9999 OVC042 09/07 Q1015 NOSIG,EDDH,2024-03-22T04:20:00Z,53.633,9.988,9,7,220,10,,6+,29.97,,,TRUE,,,TRUE,,,,,OVC,4200,,,,,,,VFR,,,,,,,,,,,,METAR,8
EDDG 220420Z AUTO 18004KT 160V220 8000 NSC 10/08 Q1017 TEMPO BKN012,EDDG,2024-03-22T04:20:00Z,52.135,7.697,10,8,180,4,,4.97,30.03,,,TRUE,,,,,,,,CLR,,,,,,,,MVFR,,,,,,,,,,,,METAR,46
EDDF 220420Z AUTO 21002KT CAVOK 04/03 Q1021 NOSIG,EDDF,2024-03-22T04:20:00Z,50.045,8.598,4,3,210,2,,6+,30.15,,,TRUE,,,TRUE,,,,,CAVOK,,,,,,,,VFR,,,,,,,,,,,,METAR,113
EDDE 220420Z AUTO 21010KT CAVOK 04/02 Q1020,EDDE,2024-03-22T04:20:00Z,50.983,10.961,4,2,210,10,,6+,30.12,,,TRUE,,,,,,,,CAVOK,,,,,,,,VFR,,,,,,,,,,,,METAR,314
EDDC 220420Z AUTO 23004KT 200V260 CAVOK 07/04 Q1020,EDDC,2024-03-22T04:20:00Z,51.128,13.7543,7,4,230,4,,6+,30.12,,,TRUE,,,,,,,,CAVOK,,,,,,,,VFR,,,,,,,,,,,,METAR,227
EDDB 220420Z AUTO 19006KT CAVOK 07/05 Q1018 NOSIG,EDDB,2024-03-22T04:20:00Z,52.3807,13.5306,7,5,190,6,,6+,30.06,,,TRUE,,,TRUE,,,,,CAVOK,,,,,,,,VFR,,,,,,,,,,,,METAR,48
EDBC 220420Z AUTO 22010KT 9999 // BKN075/// BKN090/// OVC140/// 07/05 Q1019,EDBC,2024-03-22T04:20:00Z,51.856,11.42,7,5,220,10,,6+,30.09,,,TRUE,,,,,,,,BKN,7500,BKN,9000,OVC,14000,,,VFR,,,,,,,,,,,,METAR,178
EDAH 220420Z AUTO 21009KT 9000 // SCT021/// OVC063/// 07/06 Q1016,EDAH,2024-03-22T04:20:00Z,53.879,14.152,7,6,210,9,,5.59,30.00,,,TRUE,,,,,,,,SCT,2100,OVC,6300,,,,,VFR,,,,,,,,,,,,METAR,22
EDAC 220420Z AUTO 20007KT 9999 // FEW083/// OVC130/// 06/04 Q1020,EDAC,2024-03-22T04:20:00Z,50.982,12.506,6,4,200,7,,6+,30.12,,,TRUE,,,,,,,,FEW,8300,OVC,13000,,,,,VFR,,,,,,,,,,,,METAR,193
EBOS 220420Z AUTO 23011KT 9999 R26///// // OVC008/// 10/08 Q1020,EBOS,2024-03-22T04:20:00Z,51.199,2.862,10,8,230,11,,6+,30.12,,,TRUE,,,,,,,,OVC,800,,,,,,,IFR,,,,,,,,,,,,METAR,5
EBLG 220420Z 21010KT 9999 FEW024 11/08 Q1020 NOSIG,EBLG,2024-03-22T04:20:00Z,50.637,5.443,11,8,210,10,,6+,30.12,,,,,,TRUE,,,,,FEW,2400,,,,,,,VFR,,,,,,,,,,,,METAR,187
EBCI 220420Z 22008KT 8000 FEW020 10/08 Q1021 NOSIG,EBCI,2024-03-22T04:20:00Z,50.459,4.454,10,8,220,8,,4.97,30.15,,,,,,TRUE,,,,,FEW,2000,,,,,,,MVFR,,,,,,,,,,,,METAR,176
EBBR 220420Z 23010KT CAVOK 11/08 Q1020 NOSIG,EBBR,2024-03-22T04:20:00Z,50.896,4.526,11,8,230,10,,6+,30.12,,,,,,TRUE,,,,,CAVOK,,,,,,,,VFR,,,,,,,,,,,,METAR,49
EBAW 220420Z AUTO 24010KT 200V270 CAVOK 10/08 Q1020,EBAW,2024-03-22T04:20:00Z,51.189,4.46,10,8,240,10,,6+,30.12,,,TRUE,,,,,,,,CAVOK,,,,,,,,VFR,,,,,,,,,,,,METAR,7
KMYP 220419Z AUTO 31025G31KT 10SM CLR M03/M12 A3029 RMK AO2,KMYP,2024-03-22T04:19:00Z,38.4972,-106.32,-3,-12,310,25,31,10+,30.29,,,TRUE,TRUE,,,,,,,CLR,,,,,,,,VFR,,,,,,,,,,,,METAR,3629
KI35 220419Z AUTO 00000KT 10SM CLR 08/M03 A3016 RMK AO2,KI35,2024-03-22T04:19:00Z,36.8577,-83.3586,8,-3,0,0,,10+,30.16,,,TRUE,TRUE,,,,,,,CLR,,,,,,,,VFR,,,,,,,,,,,,METAR,467
KCKN 220419Z AUTO 00000KT 10SM OVC070 M03/M14 A3025 RMK AO2,KCKN,2024-03-22T04:19:00Z,47.8404,-96.6201,-3,-14,0,0,,10+,30.25,,,TRUE,TRUE,,,,,,,OVC,7000,,,,,,,VFR,,,,,,,,,,,,METAR,272
K2V6 220419Z AUTO 29007KT 10SM CLR 06/M05 A2987 RMK AO2,K2V6,2024-03-22T04:19:00Z,40.1047,-102.713,6,-5,290,7,,10+,29.87,,,TRUE,TRUE,,,,,,,CLR,,,,,,,,VFR,,,,,,,,,,,,METAR,1257
YBSU 220418Z AUTO 17018KT 6000 RA SCT015 BKN026 BKN034 23/20 Q1019,YBSU,2024-03-22T04:18:00Z,-26.603,153.091,23,20,170,18,,3.73,30.09,,,TRUE,,,,,,,RA,SCT,1500,BKN,2600,BKN,3400,,,MVFR,,,,,,,,,,,,SPECI,4
SBSP 220418Z AUTO 14007KT 9999 -RA SCT006 BKN009 OVC017 22/21 Q1016,SBSP,2024-03-22T04:18:00Z,-23.627,-46.655,22,21,140,7,,6+,30.00,,,TRUE,,,,,,,-RA,SCT,600,BKN,900,OVC,1700,,,IFR,,,,,,,,,,,,SPECI,802
PAWM 220418Z AUTO 14018G24KT 1/2SM -SN FG OVC004 00/00 A2961 RMK AO2 P0000 FZRANO,PAWM,2024-03-22T04:18:00Z,64.688,-163.41,0,0,140,18,24,0.5,29.61,,,TRUE,TRUE,,,,TRUE,,-SN FG,OVC,400,,,,,,,LIFR,,,,,,0.005,,,,,,SPECI,80
PALU 220418Z AUTO 20016G26KT 130V230 1 1/4SM -SHSN BR OVC013 02/00 A2955 RMK AO2 SLP007,PALU,2024-03-22T04:18:00Z,68.873,-166.101,2,0,200,16,26,1.25,29.55,1000.7,,TRUE,TRUE,,,,,,-SHSN BR,OVC,1300,,,,,,,IFR,,,,,,,,,,,,SPECI,8
KSAW 220418Z AUTO 08005KT 10SM CLR M07/M13 A3023 RMK AO2,KSAW,2024-03-22T04:18:00Z,46.341,-87.395,-7,-13,80,5,,10+,30.23,,,TRUE,TRUE,,,,,,,CLR,,,,,,,,VFR,,,,,,,,,,,,METAR,359
KPRX 220418Z AUTO 13006KT 5SM RA BR SCT009 BKN035 OVC045 13/13 A2994 RMK AO2 P0016,KPRX,2024-03-22T04:18:00Z,33.6359,-95.4514,13,13,130,6,,5,29.94,,,TRUE,TRUE,,,,,,RA BR,SCT,900,BKN,3500,OVC,4500,,,MVFR,,,,,,0.16,,,,,,SPECI,165
KBIL 220418Z 05009KT 10SM -SN FEW006 BKN012 OVC018 M01/M03 A3009 RMK AO2 SNB13 P0000 T10111028,KBIL,2024-03-22T04:18:00Z,45.8072,-108.546,-1.1,-2.8,50,9,,10+,30.09,,,,TRUE,,,,,,-SN,FEW,600,BKN,1200,OVC,1800,,,MVFR,,,,,,0.005,,,,,,SPECI,1089
PACD 220417Z AUTO 26021G26KT 2SM -RA BR SCT006 OVC015 03/01 A2951 RMK AO2 PK WND 26026/0412 RAE0359B07 P0000 T00280011 TSNO,PACD,2024-03-22T04:17:00Z,55.2207,-162.732,2.8,1.1,260,21,26,2,29.51,,,TRUE,TRUE,,,TRUE,,,-RA BR,SCT,600,OVC,1500,,,,,IFR,,,,,,0.005,,,,,,SPECI,23
KTAZ 220417Z AUTO 10SM CLR 04/M05 A3011 RMK AO2,KTAZ,2024-03-22T04:17:00Z,39.535,-89.3294,4,-5,,,,10+,30.11,,,TRUE,TRUE,,,,,,,CLR,,,,,,,,VFR,,,,,,,,,,,,METAR,188
KRDR 220417Z 25003KT 10SM -SN BKN036 OVC048 M04/M12 A3024 RMK AO2A UPB17 SLPNO VISNO RWY18 $,KRDR,2024-03-22T04:17:00Z,47.9477,-97.4029,-4,-12,250,3,,10+,30.24,,,,TRUE,TRUE,,,,,-SN,BKN,3600,OVC,4800,,,,,VFR,,,,,,,,,,,,SPECI,276
KPNM 220417Z AUTO 09003KT 3/4SM SN OVC002 M04/M05 A3022 RMK AO2,KPNM,2024-03-22T04:17:00Z,45.556,-93.608,-4,-5,90,3,,0.75,30.22,,,TRUE,TRUE,,,,,,SN,OVC,200,,,,,,,LIFR,,,,,,,,,,,,METAR,298
KELZ 220417Z AUTO 29006KT 10SM BKN029 M08/M12 A3026 RMK AO2 T10781122 $,KELZ,2024-03-22T04:17:00Z,42.1077,-77.9842,-7.8,-12.2,290,6,,10+,30.26,,,TRUE,TRUE,TRUE,,,,,,BKN,2900,,,,,,,MVFR,,,,,,,,,,,,SPECI,639
CZUM 220417Z AUTO 06013G21KT 9SM -SN OVC023 M03/M06 A2962 RMK SLP057,CZUM,2024-03-22T04:17:00Z,53.562,-64.107,-3,-6,60,13,21,9,29.62,1005.7,,TRUE,,,,,,,-SN,OVC,2300,,,,,,,MVFR,,,,,,,,,,,,SPECI,431
CYBX 220417Z 08036G48KT 3SM -SN DRSN SCT011 OVC029 M01/M02 A2948 RMK ST4SC4 SLP988,CYBX,2024-03-22T04:17:00Z,51.442,-57.188,-1,-2,80,36,48,3,29.48,998.8,,,,,,,,,-SN DRSN,SCT,1100,OVC,2900,,,,,MVFR,,,,,,,,,,,,SPECI,32
UMMS 220416Z 21003MPS 0200 0150E R13L/0250N R13R/0250N FZFG VV001 M02/M02 Q1016 NOSIG RMK QBB050,UMMS,2024-03-22T04:16:00Z,53.883,28.031,-2,-2,210,6,,0.12,30.00,,,,,,TRUE,,,,FZFG,OVX,0,,,,,,,LIFR,,,,,,,,,,,100,SPECI,196
KPEX 220416Z AUTO 07005KT 1 1/2SM -SN VV007 M05/M06 A3019 RMK AO2,KPEX,2024-03-22T04:16:00Z,45.3725,-94.7388,-5,-6,70,5,,1.5,30.19,,,TRUE,TRUE,,,,,,-SN,OVX,0,,,,,,,IFR,,,,,,,,,,,700,METAR,359
KNBC 220416Z 10007KT 10SM BKN007 BKN014 17/ A3014 RMK AO2 T0167 $,KNBC,2024-03-22T04:16:00Z,32.477,-80.722,16.7,,100,7,,10+,30.14,,,,TRUE,TRUE,,,,,,BKN,700,BKN,1400,,,,,IFR,,,,,,,,,,,,SPECI,9
KI69 220416Z AUTO 09004KT 10SM CLR 02/M11 A3022 RMK AO1 T00161115,KI69,2024-03-22T04:16:00Z,39.078,-84.21,1.6,-11.5,90,4,,10+,30.22,,,TRUE,TRUE,,,,,,,CLR,,,,,,,,VFR,,,,,,,,,,,,METAR,238
KBRD 220416Z AUTO 05004KT 1SM -SN BR VV018 M05/M07 A3021 RMK AO2 P0000 T10501072,KBRD,2024-03-22T04:16:00Z,46.4021,-94.1273,-5,-7.2,50,4,,1,30.21,,,TRUE,TRUE,,,,,,-SN BR,OVX,0,,,,,,,IFR,,,,,,0.005,,,,,1800,SPECI,372
KBPT 220416Z AUTO 08011KT 10SM VCTS -RA OVC015 16/15 A2983 RMK AO2 LTG DSNT S-NW RAB06 P0000 T01610150 $,KBPT,2024-03-22T04:16:00Z,29.9521,-94.0262,16.1,15,80,11,,10+,29.83,,,TRUE,TRUE,TRUE,,,,,VCTS -RA,OVC,1500,,,,,,,MVFR,,,,,,0.005,,,,,,SPECI,6
KBHK 220416Z AUTO 08007KT 10SM BKN012 OVC029 M05/M07 A3009 RMK AO2 T10501067,KBHK,2024-03-22T04:16:00Z,46.3521,-104.261,-5,-6.7,80,7,,10+,30.09,,,TRUE,TRUE,,,,,,,BKN,1200,OVC,2900,,,,,MVFR,,,,,,,,,,,,SPECI,904
K40B 220416Z AUTO 24007G20KT 170V060 M12/M15 A2976 RMK AO1 SLP109 T11171151 52026,K40B,2024-03-22T04:16:00Z,46.616,-69.533,-11.7,-15.1,240,7,20,,29.76,1010.9,,TRUE,TRUE,,,,,,,,,,,,,,,VFR,0.26,,,,,,,,,,,METAR,344
CYYQ 220416Z 33019G25KT 2SM -SN DRSN OVC150 M21/M24 A3021 RMK AC8 VIS VRB 1-3 SLP238,CYYQ,2024-03-22T04:16:00Z,58.745,-94.074,-21,-24,330,19,25,2,30.21,1023.8,,,,,,,,,-SN DRSN,OVC,15000,,,,,,,IFR,,,,,,,,,,,,SPECI,20
UASK 220415Z VRB01MPS 3000 BR BCFG BKN007 M04/M06 Q1019 NOSIG RMK QFE739/0985,UASK,2024-03-22T04:15:00Z,50.027,82.5,-4,-6,VRB,2,,1.86,30.09,,,,,,TRUE,,,,BR BCFG,BKN,700,,,,,,,IFR,,,,,,,,,,,,SPECI,285
TJPS 220415Z AUTO 00000KT 10SM CLR 22/21 A2999 RMK AO2 PWINO,TJPS,2024-03-22T04:15:00Z,18.011,-66.567,22,21,0,0,,10+,29.99,,,TRUE,TRUE,,,,,TRUE,,CLR,,,,,,,,VFR,,,,,,,,,,,,METAR,12
RJFK 220415Z 21010KT 9999 FEW030 SCT140 BKN/// 17/04 Q1019 RMK 1CU030 3AC140 A3011,RJFK,2024-03-22T04:15:00Z,31.803,130.719,17,4,210,10,,6+,30.09,,,,,,,,,,,FEW,3000,SCT,14000,,,,,VFR,,,,,,,,,,,,SPECI,271
PMDY 220415Z AUTO 20010KT 10SM SCT010 24/22 A3006 RMK AO2,PMDY,2024-03-22T04:15:00Z,28.206,-177.382,24,22,200,10,,10+,30.06,,,TRUE,TRUE,,,,,,,SCT,1000,,,,,,,VFR,,,,,,,,,,,,METAR,6
PANU 220415Z AUTO 00000KT 10SM BKN110 04/M02 A2975 RMK AO2,PANU,2024-03-22T04:15:00Z,64.7304,-158.075,4,-2,0,0,,10+,29.75,,,TRUE,TRUE,,,,,,,BKN,11000,,,,,,,VFR,,,,,,,,,,,,METAR,117
PAKX 220415Z AUTO 07004KT 10SM CLR 03/M05 A2986 RMK AO2,PAKX,2024-03-22T04:15:00Z,60.198,-154.323,3,-5,70,4,,10+,29.86,,,TRUE,TRUE,,,,,,,CLR,,,,,,,,VFR,,,,,,,,,,,,METAR,88
PAIK 220415Z AUTO 10008KT 9SM -SN OVC013 01/00 A2975 RMK AO2 P0001 FZRANO,PAIK,2024-03-22T04:15:00Z,66.975,-160.439,1,0,100,8,,9,29.75,,,TRUE,TRUE,,,,TRUE,,-SN,OVC,1300,,,,,,,MVFR,,,,,,0.01,,,,,,SPECI,49
PAAD 220415Z AUTO 11011KT 10SM CLR M12/M14 A2988 RMK AO2 T11201145,PAAD,2024-03-22T04:15:00Z,70.136,-146.29,-12,-14.5,110,11,,10+,29.88,,,TRUE,TRUE,,,,,,,CLR,,,,,,,,VFR,,,,,,,,,,,,METAR,8
LMML 220415Z 21004KT 9999 FEW015 11/11 Q1018 NOSIG,LMML,2024-03-22T04:15:00Z,35.858,14.477,11,11,210,4,,6+,30.06,,,,,,TRUE,,,,,FEW,1500,,,,,,,VFR,,,,,,,,,,,,METAR,78
LIRP 220415Z 08002KT 0300 R04R/0550 FG SCT001 10/10 Q1020 NOSIG,LIRP,2024-03-22T04:15:00Z,43.684,10.393,10,10,80,2,,0.19,30.12,,,,,,TRUE,,,,FG,SCT,100,,,,,,,LIFR,,,,,,,,,,,,METAR,1
LHSN 220415Z 15002KT CAVOK 05/02 Q1019 NOSIG RMK BLU,LHSN,2024-03-22T04:15:00Z,47.123,20.235,5,2,150,2,,6+,30.09,,,,,,TRUE,,,,,CAVOK,,,,,,,,VFR,,,,,,,,,,,,METAR,89
LHKE 220415Z 20002KT CAVOK 06/01 Q1019 NOSIG RMK BLU,LHKE,2024-03-22T04:15:00Z,46.917,19.749,6,1,200,2,,6+,30.09,,,,,,TRUE,,,,,CAVOK,,,,,,,,VFR,,,,,,,,,,,,METAR,113
KZPH 220415Z AUTO 13008KT 10SM CLR 21/17 A3006 RMK A02 T02090166,KZPH,2024-03-22T04:15:00Z,28.2268,-82.1564,20.9,16.6,130,8,,10+,30.06,,,TRUE,TRUE,,,,,,,CLR,,,,,,,,VFR,,,,,,,,,,,,METAR,26
KZER 220415Z AUTO 30003KT 10SM CLR M03/M12 A3026 RMK AO2,KZER,2024-03-22T04:15:00Z,40.7072,-76.371,-3,-12,300,3,,10+,30.26,,,TRUE,TRUE,,,,,,,CLR,,,,,,,,VFR,,,,,,,,,,,,METAR,518
KY70 220415Z AUTO 00000KT 10SM CLR M03/M09 A3026 RMK AO2 T10341089,KY70,2024-03-22T04:15:00Z,42.9398,-85.0653,-3.4,-8.9,0,0,,10+,30.26,,,TRUE,TRUE,,,,,,,CLR,,,,,,,,VFR,,,,,,,,,,,,METAR,247
KY63 220415Z AUTO 09004KT 2SM -SN OVC018 M04/M05 A3019 RMK AO2 T10421051,KY63,2024-03-22T04:15:00Z,45.9891,-95.9946,-4.2,-5.1,90,4,,2,30.19,,,TRUE,TRUE,,,,,,-SN,OVC,1800,,,,,,,IFR,,,,,,,,,,,,METAR,367
KY51 220415Z AUTO 00000KT 1 1/4SM BKN010 OVC015 M03/M03 A3015 RMK AO2,KY51,2024-03-22T04:15:00Z,43.5814,-90.8997,-3,-3,0,0,,1.25,30.15,,,TRUE,TRUE,,,,,,,BKN,1000,OVC,1500,,,,,IFR,,,,,,,,,,,,METAR,390
KY50 220415Z AUTO VRB06KT 2SM -SN BKN015 BKN032 OVC043 M02/M06 A3022 RMK AO2 VIS 1 1/4V5 UPE01SNB01 P0000 FZRANO $,KY50,2024-03-22T04:15:00Z,44.0435,-89.304,-2,-6,VRB,6,,2,30.22,,,TRUE,TRUE,TRUE,,,TRUE,,-SN,BKN,1500,BKN,3200,OVC,4300,,,IFR,,,,,,0.005,,,,,,SPECI,261
KY49 220415Z AUTO 24003KT 10SM OVC055 M06/M10 A3020 RMK AO2 T10571096,KY49,2024-03-22T04:15:00Z,47.1599,-94.6433,-5.7,-9.6,240,3,,10+,30.20,,,TRUE,TRUE,,,,,,,OVC,5500,,,,,,,VFR,,,,,,,,,,,,METAR,413
KY31 220415Z AUTO 35004KT 10SM CLR M04/M09 A3027 RMK AO2 T10401089,KY31,2024-03-22T04:15:00Z,44.2434,-84.18,-4,-8.9,350,4,,10+,30.27,,,TRUE,TRUE,,,,,,,CLR,,,,,,,,VFR,,,,,,,,,,,,METAR,264
KY23 220415Z AUTO 15003KT 1/4SM +SN OVC003 M03/M04 A3021 RMK AO2 P0002 T10351042,KY23,2024-03-22T04:15:00Z,45.311,-91.638,-3.5,-4.2,150,3,,0.25,30.21,,,TRUE,TRUE,,,,,,+SN,OVC,300,,,,,,,LIFR,,,,,,0.02,,,,,,METAR,322
KY19 220415Z AUTO 04005KT 10SM BKN045 OVC060 M09/M09 A3018 RMK AO2,KY19,2024-03-22T04:15:00Z,46.7648,-100.894,-9,-9,40,5,,10+,30.18,,,TRUE,TRUE,,,,,,,BKN,4500,OVC,6000,,,,,VFR,,,,,,,,,,,,METAR,591
KXSA 220415Z AUTO 00000KT 10SM CLR 01/M02 A3031 RMK AO2 T00101025,KXSA,2024-03-22T04:15:00Z,37.8606,-76.9016,1,-2.5,0,0,,10+,30.31,,,TRUE,TRUE,,,,,,,CLR,,,,,,,,VFR,,,,,,,,,,,,METAR,41
KXLL 220415Z AUTO 36006KT 10SM CLR 00/M11 A3033 RMK AO2,KXLL,2024-03-22T04:15:00Z,40.5704,-75.4894,0,-11,360,6,,10+,30.33,,,TRUE,TRUE,,,,,,,CLR,,,,,,,,VFR,,,,,,,,,,,,METAR,118
KXBP 220415Z AUTO 00000KT 10SM CLR 12/12 A2987 RMK AO2 LTG DSNT E T01200120,KXBP,2024-03-22T04:15:00Z,33.1729,-97.8268,12,12,0,0,,10+,29.87,,,TRUE,TRUE,,,,,,,CLR,,,,,,,,VFR,,,,,,,,,,,,METAR,256
KX60 220415Z AUTO 10004KT 10SM CLR 20/15 A3006 RMK AO2 T01960151,KX60,2024-03-22T04:15:00Z,29.3524,-82.4743,19.6,15.1,100,4,,10+,30.06,,,TRUE,TRUE,,,,,,,CLR,,,,,,,,VFR,,,,,,,,,,,,METAR,21
KX26 220415Z AUTO 13010KT 10SM CLR 22/16 A3008 RMK AO2 T02180157,KX26,2024-03-22T04:15:00Z,27.813,-80.497,21.8,15.7,130,10,,10+,30.08,,,TRUE,TRUE,,,,,,,CLR,,,,,,,,VFR,,,,,,,,,,,,METAR,5
KX07 220415Z AUTO 14010KT 10SM OVC050 21/17 A3005 RMK A01,KX07,2024-03-22T04:15:00Z,27.8934,-81.6167,21,17,140,10,,10+,30.05,,,TRUE,TRUE,,,,,,,OVC,5000,,,,,,,VFR,,,,,,,,,,,,METAR,36
KWWR 220415Z AUTO 18003KT 10SM CLR 08/07 A2995 RMK AO2,KWWR,2024-03-22T04:15:00Z,36.4374,-99.5234,8,7,180,3,,10+,29.95,,,TRUE,TRUE,,,,,,,CLR,,,,,,,,VFR,,,,,,,,,,,,METAR,664
KWVI 220415Z AUTO 00000KT 10SM FEW008 12/11 A3012 RMK AO2 T01220111,KWVI,2024-03-22T04:15:00Z,36.9394,-121.79,12.2,11.1,0,0,,10+,30.12,,,TRUE,TRUE,,,,,,,FEW,800,,,,,,,VFR,,,,,,,,,,,,SPECI,47
KWDR 220415Z AUTO 00000KT 10SM CLR 17/03 A3009 RMK AO2,KWDR,2024-03-22T04:15:00Z,33.981,-83.667,17,3,0,0,,10+,30.09,,,TRUE,TRUE,,,,,,,CLR,,,,,,,,VFR,,,,,,,,,,,,METAR,280
KWDG 220415Z AUTO 14003KT 10SM OVC060 12/12 A2991 RMK AO2,KWDG,2024-03-22T04:15:00Z,36.3781,-97.7888,12,12,140,3,,10+,29.91,,,TRUE,TRUE,,,,,,,OVC,6000,,,,,,,VFR,,,,,,,,,,,,METAR,352
KWBF 220415Z AUTO 13016G31KT 4SM BR BKN015 BKN022 OVC045 21/21 A2989 RMK A01,KWBF,2024-03-22T04:15:00Z,26.9305,-90.5069,21,21,130,16,31,4,29.89,,,TRUE,TRUE,,,,,,BR,BKN,1500,BKN,2200,OVC,4500,,,MVFR,,,,,,,,,,,,METAR,40
KW99 220415Z AUTO 14003KT 10SM CLR M00/M08 A3028 RMK AO2 T10041079,KW99,2024-03-22T04:15:00Z,38.9947,-79.1421,-0.4,-7.9,140,3,,10+,30.28,,,TRUE,TRUE,,,,,,,CLR,,,,,,,,VFR,,,,,,,,,,,,METAR,288
KW81 220415Z AUTO 00000KT 10SM CLR 05/M03 A3025 RMK AO1 T00451034,KW81,2024-03-22T04:15:00Z,37.1813,-78.0977,4.5,-3.4,0,0,,10+,30.25,,,TRUE,TRUE,,,,,,,CLR,,,,,,,,VFR,,,,,,,,,,,,METAR,121
KW78 220415Z AUTO 00000KT 10SM CLR 04/M01 A3022 RMK AO1 T00431006,KW78,2024-03-22T04:15:00Z,36.7087,-78.846,4.3,-0.6,0,0,,10+,30.22,,,TRUE,TRUE,,,,,,,CLR,,,,,,,,VFR,,,,,,,,,,,,METAR,120
KW63 220415Z AUTO 00000KT 10SM CLR 08/01 A3022 RMK AO1,KW63,2024-03-22T04:15:00Z,36.6008,-78.5559,8,1,0,0,,10+,30.22,,,TRUE,TRUE,,,,,,,CLR,,,,,,,,VFR,,,,,,,,,,,,METAR,126
KW43 220415Z AUTO 00000KT 10SM CLR M02/M03 A3000 RMK AO2,KW43,2024-03-22T04:15:00Z,44.6607,-104.568,-2,-3,0,0,,10+,30.00,,,TRUE,TRUE,,,,,,,CLR,,,,,,,,VFR,,,,,,,,,,,,METAR,1292
KW22 220415Z AUTO 00000KT 10SM CLR M00/M12 A3024 RMK AO2,KW22,2024-03-22T04:15:00Z,39.001,-80.2712,0,-12,0,0,,10+,30.24,,,TRUE,TRUE,,,,,,,CLR,,,,,,,,VFR,,,,,,,,,,,,METAR,497
KW13 220415Z AUTO 00000KT 7SM BKN120 04/M09 A3025 RMK AO1 T00421086,KW13,2024-03-22T04:15:00Z,38.077,-78.944,4.2,-8.6,0,0,,7,30.25,,,TRUE,TRUE,,,,,,,BKN,12000,,,,,,,VFR,,,,,,,,,,,,METAR,440
KVYS 220415Z AUTO 12007KT 10SM BKN095 OVC120 04/M08 A3015 RMK AO2 T00351081 TSNO,KVYS,2024-03-22T04:15:00Z,41.3517,-89.1496,3.5,-8.1,120,7,,10+,30.15,,,TRUE,TRUE,,,TRUE,,,,BKN,9500,OVC,12000,,,,,VFR,,,,,,,,,,,,METAR,198
KVWU 220415Z AUTO 08003KT 10SM BKN090 M06/M16 A3022 RMK AO2,KVWU,2024-03-22T04:15:00Z,48.1502,-94.512,-6,-16,80,3,,10+,30.22,,,TRUE,TRUE,,,,,,,BKN,9000,,,,,,,VFR,,,,,,,,,,,,METAR,359
KVVV 220415Z AUTO 07006KT 4SM -SN SCT023 BKN033 OVC050 M04/M05 A3016 RMK AO2,KVVV,2024-03-22T04:15:00Z,45.2994,-96.4256,-4,-5,70,6,,4,30.16,,,TRUE,TRUE,,,,,,-SN,SCT,2300,BKN,3300,OVC,5000,,,MVFR,,,,,,,,,,,,METAR,334
KVVS 220415Z AUTO 06004KT 10SM CLR M01/M10 A3029 RMK AO2 T10141102,KVVS,2024-03-22T04:15:00Z,39.9581,-79.6575,-1.4,-10.2,60,4,,10+,30.29,,,TRUE,TRUE,,,,,,,CLR,,,,,,,,VFR,,,,,,,,,,,,METAR,386
KVTP 220415Z AUTO 32007G15KT 10SM CLR 00/M11 A3023 RMK AO2,KVTP,2024-03-22T04:15:00Z,37.512,-105.171,0,-11,320,7,15,10+,30.23,,,TRUE,TRUE,,,,,,,CLR,,,,,,,,VFR,,,,,,,,,,,,METAR,3086
KVTI 220415Z AUTO 09009KT 10SM BKN060 BKN080 OVC100 02/M08 A3006 RMK AO2 T00231085,KVTI,2024-03-22T04:15:00Z,42.2176,-92.0248,2.3,-8.5,90,9,,10+,30.06,,,TRUE,TRUE,,,,,,,BKN,6000,BKN,8000,OVC,10000,,,VFR,,,,,,,,,,,,METAR,256
KVQQ 220415Z AUTO 00000KT 10SM BKN095 17/13 A3007 RMK AO2,KVQQ,2024-03-22T04:15:00Z,30.2035,-81.8725,17,13,0,0,,10+,30.07,,,TRUE,TRUE,,,,,,,BKN,9500,,,,,,,VFR,,,,,,,,,,,,METAR,21
KVPC 220415Z AUTO 00000KT 10SM FEW048 BKN065 BKN095 16/06 A3006 RMK AO2,KVPC,2024-03-22T04:15:00Z,34.1158,-84.8507,16,6,0,0,,10+,30.06,,,TRUE,TRUE,,,,,,,FEW,4800,BKN,6500,BKN,9500,,,VFR,,,,,,,,,,,,METAR,234
KVNC 220415Z AUTO 13009G16KT 100V180 8SM OVC038 23/23 A3004 RMK AO2,KVNC,2024-03-22T04:15:00Z,27.0728,-82.44,23,23,130,9,16,8,30.04,,,TRUE,TRUE,,,,,,,OVC,3800,,,,,,,VFR,,,,,,,,,,,,METAR,4
KVLL 220415Z AUTO 00000KT 10SM CLR M02/M09 A3032 RMK AO2 T10161095,KVLL,2024-03-22T04:15:00Z,42.543,-83.178,-1.6,-9.5,0,0,,10+,30.32,,,TRUE,TRUE,,,,,,,CLR,,,,,,,,VFR,,,,,,,,,,,,METAR,214
KVKS 220415Z AUTO 00000KT 10SM 14/11 A2995 RMK A01,KVKS,2024-03-22T04:15:00Z,32.2359,-90.9269,14,11,0,0,,10+,29.95,,,TRUE,TRUE,,,,,,,,,,,,,,,VFR,,,,,,,,,,,,METAR,31
KVJI 220415Z AUTO 00000KT 10SM CLR 07/M06 A3017 RMK AO2 T00711059,KVJI,2024-03-22T04:15:00Z,36.6871,-82.037,7.1,-5.9,0,0,,10+,30.17,,,TRUE,TRUE,,,,,,,CLR,,,,,,,,VFR,,,,,,,,,,,,METAR,636
KVHN 220415Z AUTO 27009KT 10SM CLR 16/M05 A3006 RMK AO2 T01581051,KVHN,2024-03-22T04:15:00Z,31.0602,-104.783,15.8,-5.1,270,9,,10+,30.06,,,TRUE,TRUE,,,,,,,CLR,,,,,,,,VFR,,,,,,,,,,,,METAR,1200
KVGC 220415Z AUTO 31007KT 10SM -SN SCT021 BKN029 OVC036 M05/M10 A3027 RMK AO2,KVGC,2024-03-22T04:15:00Z,42.8444,-75.5637,-5,-10,310,7,,10+,30.27,,,TRUE,TRUE,,,,,,-SN,SCT,2100,BKN,2900,OVC,3600,,,MVFR,,,,,,,,,,,,METAR,346
KVER 220415Z AUTO 11006KT 10SM CLR 09/M02 A3000 RMK AO2 T00911023,KVER,2024-03-22T04:15:00Z,38.9496,-92.6842,9.1,-2.3,110,6,,10+,30.00,,,TRUE,TRUE,,,,,,,CLR,,,,,,,,VFR,,,,,,,,,,,,METAR,209
KVDI 220415Z AUTO 11004KT 10SM CLR 16/11 A3011 RMK AO2,KVDI,2024-03-22T04:15:00Z,32.1933,-82.3642,16,11,110,4,,10+,30.11,,,TRUE,TRUE,,,,,,,CLR,,,,,,,,VFR,,,,,,,,,,,,METAR,81
KVDF 220415Z AUTO 12003KT 10SM BKN044 22/18 A3006 RMK AO2,KVDF,2024-03-22T04:15:00Z,28.0198,-82.3415,22,18,120,3,,10+,30.06,,,TRUE,TRUE,,,,,,,BKN,4400,,,,,,,VFR,,,,,,,,,,,,METAR,5
KVCV 220415Z AUTO 15009KT 10SM CLR 14/04 A3012 RMK AO2,KVCV,2024-03-22T04:15:00Z,34.5933,-117.389,14,4,150,9,,10+,30.12,,,TRUE,TRUE,,,,,,,CLR,,,,,,,,VFR,,,,,,,,,,,,METAR,871
KVBW 220415Z AUTO 00000KT 10SM SCT120 02/M05 A3025 RMK AO1 T00171049,KVBW,2024-03-22T04:15:00Z,38.366,-78.968,1.7,-4.9,0,0,,10+,30.25,,,TRUE,TRUE,,,,,,,SCT,12000,,,,,,,VFR,,,,,,,,,,,,METAR,362
KUXL 220415Z AUTO 08009KT 10SM OVC019 15/14 A2989 RMK AO2 T01530143,KUXL,2024-03-22T04:15:00Z,30.135,-93.3767,15.3,14.3,80,9,,10+,29.89,,,TRUE,TRUE,,,,,,,OVC,1900,,,,,,,MVFR,,,,,,,,,,,,METAR,2
KUVA 220415Z AUTO 10005KT 10SM CLR 18/18 A2990 RMK AO2 T01750175,KUVA,2024-03-22T04:15:00Z,29.2135,-99.743,17.5,17.5,100,5,,10+,29.90,,,TRUE,TRUE,,,,,,,CLR,,,,,,,,VFR,,,,,,,,,,,,METAR,285
KUUV 220415Z AUTO 11006KT 10SM CLR 08/M05 A3006 RMK AO2,KUUV,2024-03-22T04:15:00Z,38.2335,-91.1609,8,-5,110,6,,10+,30.06,,,TRUE,TRUE,,,,,,,CLR,,,,,,,,VFR,,,,,,,,,,,,METAR,284
KUTA 220415Z AUTO 00000KT 10SM OVC090 14/11 A2997 RMK AO2 T01360106 $,KUTA,2024-03-22T04:15:00Z,34.6766,-90.344,13.6,10.6,0,0,,10+,29.97,,,TRUE,TRUE,TRUE,,,,,,OVC,9000,,,,,,,VFR,,,,,,,,,,,,METAR,58
KUSE 220415Z AUTO 14006KT 10SM SCT100 M03/M09 A3027 RMK AO2,KUSE,2024-03-22T04:15:00Z,41.6118,-84.1275,-3,-9,140,6,,10+,30.27,,,TRUE,TRUE,,,,,,,SCT,10000,,,,,,,VFR,,,,,,,,,,,,METAR,237
KUOX 220415Z AUTO 00000KT 10SM BKN095 12/07 A3000 RMK AO2 PWINO TSNO,KUOX,2024-03-22T04:15:00Z,34.3851,-89.5435,12,7,0,0,,10+,30.00,,,TRUE,TRUE,,,TRUE,,TRUE,,BKN,9500,,,,,,,VFR,,,,,,,,,,,,METAR,123
KUNV 220415Z AUTO 01006KT 10SM CLR M03/M12 A3030 RMK AO2 T10271125,KUNV,2024-03-22T04:15:00Z,40.8534,-77.8401,-2.7,-12.5,10,6,,10+,30.30,,,TRUE,TRUE,,,,,,,CLR,,,,,,,,VFR,,,,,,,,,,,,METAR,365
KUNU 220415Z AUTO 12008KT 10SM SCT043 BKN050 OVC070 M01/M06 A3022 RMK AO2 T10151065,KUNU,2024-03-22T04:15:00Z,43.4285,-88.7017,-1.5,-6.5,120,8,,10+,30.22,,,TRUE,TRUE,,,,,,,SCT,4300,BKN,5000,OVC,7000,,,VFR,,,,,,,,,,,,METAR,281
KUMP 220415Z AUTO 07005KT 10SM CLR 01/M10 A3020 RMK AO2 T00061101,KUMP,2024-03-22T04:15:00Z,39.936,-86.0478,0.6,-10.1,70,5,,10+,30.20,,,TRUE,TRUE,,,,,,,CLR,,,,,,,,VFR,,,,,,,,,,,,METAR,247
KULS 220415Z AUTO 16011KT 10SM CLR 11/07 A2987 RMK AO2,KULS,2024-03-22T04:15:00Z,37.6037,-101.377,11,7,160,11,,10+,29.87,,,TRUE,TRUE,,,,,,,CLR,,,,,,,,VFR,,,,,,,,,,,,METAR,934
KULM 220415Z AUTO 06008KT 10SM OVC070 M03/M06 A3017 RMK AO2,KULM,2024-03-22T04:15:00Z,44.3228,-94.5024,-3,-6,60,8,,10+,30.17,,,TRUE,TRUE,,,,,,,OVC,7000,,,,,,,VFR,,,,,,,,,,,,METAR,305
KUKT 220415Z AUTO 02006KT 10SM CLR M01/M12 A3031 RMK AO2,KUKT,2024-03-22T04:15:00Z,40.4368,-75.3802,-1,-12,20,6,,10+,30.31,,,TRUE,TRUE,,,,,,,CLR,,,,,,,,VFR,,,,,,,,,,,,METAR,156
KUKL 220415Z AUTO 13007KT 10SM CLR 11/04 A2993 RMK AO2 T01090040,KUKL,2024-03-22T04:15:00Z,38.3041,-95.7217,10.9,4,130,7,,10+,29.93,,,TRUE,TRUE,,,,,,,CLR,,,,,,,,VFR,,,,,,,,,,,,METAR,357
KUES 220415Z AUTO 11006KT 10SM BKN034 BKN042 BKN049 M01/M06 A3022 RMK AO2,KUES,2024-03-22T04:15:00Z,43.0425,-88.2465,-1,-6,110,6,,10+,30.22,,,TRUE,TRUE,,,,,,,BKN,3400,BKN,4200,BKN,4900,,,VFR,,,,,,,,,,,,METAR,273
KUCY 220415Z AUTO 07004KT 10SM FEW047 FEW065 OVC080 13/M01 A3002 RMK A01,KUCY,2024-03-22T04:15:00Z,36.3778,-88.9878,13,-1,70,4,,10+,30.02,,,TRUE,TRUE,,,,,,,FEW,4700,FEW,6500,OVC,8000,,,VFR,,,,,,,,,,,,METAR,97
KUBE 220415Z AUTO 00000KT 3/4SM SN OVC009 M03/M05 A3020 RMK AO2 P0001,KUBE,2024-03-22T04:15:00Z,45.5046,-91.978,-3,-5,0,0,,0.75,30.20,,,TRUE,TRUE,,,,,,SN,OVC,900,,,,,,,LIFR,,,,,,0.01,,,,,,METAR,376
KU69 220415Z AUTO 27014KT 10SM CLR 09/M08 A3008 RMK A01,KU69,2024-03-22T04:15:00Z,40.198,-110.387,9,-8,270,14,,10+,30.08,,,TRUE,TRUE,,,,,,,CLR,,,,,,,,VFR,,,,,,,,,,,,METAR,1776
KU68 220415Z AUTO 00000KT 10SM SCT050 OVC110 05/00 A2999 RMK AO2,KU68,2024-03-22T04:15:00Z,44.9113,-108.447,5,0,0,0,,10+,29.99,,,TRUE,TRUE,,,,,,,SCT,5000,OVC,11000,,,,,VFR,,,,,,,,,,,,METAR,1244
KU64 220415Z AUTO 01004KT 10SM FEW170 05/M02 A3018 RMK AO2 T00451018 $,KU64,2024-03-22T04:15:00Z,37.9333,-109.34,4.5,-1.8,10,4,,10+,30.18,,,TRUE,TRUE,TRUE,,,,,,FEW,17000,,,,,,,VFR,,,,,,,,,,,,METAR,2123
KU52 220415Z AUTO 15006KT 10SM FEW049 06/01 A3015 RMK AO2,KU52,2024-03-22T04:15:00Z,38.232,-112.672,6,1,150,6,,10+,30.15,,,TRUE,TRUE,,,,,,,FEW,4900,,,,,,,VFR,,,,,,,,,,,,METAR,1787
KU42 220415Z AUTO 24007KT 10SM CLR 09/M05 A3008 RMK AO1 T00871049,KU42,2024-03-22T04:15:00Z,40.6196,-111.99,8.7,-4.9,240,7,,10+,30.08,,,TRUE,TRUE,,,,,,,CLR,,,,,,,,VFR,,,,,,,,,,,,METAR,1399
KTZR 220415Z AUTO 04007KT 10SM CLR 00/M09 A3025 RMK AO2 T10041092,KTZR,2024-03-22T04:15:00Z,39.8988,-83.1357,-0.4,-9.2,40,7,,10+,30.25,,,TRUE,TRUE,,,,,,,CLR,,,,,,,,VFR,,,,,,,,,,,,METAR,275
KTYQ 220415Z AUTO 09006KT 10SM CLR 00/M09 A3019 RMK AO2 T10011090,KTYQ,2024-03-22T04:15:00Z,40.0345,-86.2488,-0.1,-9,90,6,,10+,30.19,,,TRUE,TRUE,,,,,,,CLR,,,,,,,,VFR,,,,,,,,,,,,METAR,279
KTYL 220415Z AUTO 25007KT 10SM BKN080 09/01 A3017 RMK AO2,KTYL,2024-03-22T04:15:00Z,34.4577,-110.112,9,1,250,7,,10+,30.17,,,TRUE,TRUE,,,,,,,BKN,8000,,,,,,,VFR,,,,,,,,,,,,METAR,1748
KTXW 220415Z AUTO 27003KT 10SM CLR 20/19 A2987 RMK AO2 T01990185,KTXW,2024-03-22T04:15:00Z,26.1824,-97.9742,19.9,18.5,270,3,,10+,29.87,,,TRUE,TRUE,,,,,,,CLR,,,,,,,,VFR,,,,,,,,,,,,METAR,21
KTWT 220415Z AUTO 10005KT 10SM CLR 07/M03 A3010 RMK AO2,KTWT,2024-03-22T04:15:00Z,37.5432,-87.9568,7,-3,100,5,,10+,30.10,,,TRUE,TRUE,,,,,,,CLR,,,,,,,,VFR,,,,,,,,,,,,METAR,113
KTWM 220415Z AUTO 02004KT 10SM CLR M04/M12 A3019 RMK AO2,KTWM,2024-03-22T04:15:00Z,47.0192,-91.7447,-4,-12,20,4,,10+,30.19,,,TRUE,TRUE,,,,,,,CLR,,,,,,,,VFR,,,,,,,,,,,,METAR,331
KTVY 220415Z AUTO 17006KT 10SM CLR 03/M01 A3008 RMK AO2,KTVY,2024-03-22T04:15:00Z,40.6127,-112.354,3,-1,170,6,,10+,30.08,,,TRUE,TRUE,,,,,,,CLR,,,,,,,,VFR,,,,,,,,,,,,METAR,1310
KTVK 220415Z AUTO 11010KT 10SM CLR 05/M09 A3001 RMK AO2,KTVK,2024-03-22T04:15:00Z,40.6832,-92.8984,5,-9,110,10,,10+,30.01,,,TRUE,TRUE,,,,,,,CLR,,,,,,,,VFR,,,,,,,,,,,,METAR,311
KTVI 220415Z AUTO 18003KT 10SM OVC095 17/07 A3009 RMK AO2,KTVI,2024-03-22T04:15:00Z,30.9026,-83.8826,17,7,180,3,,10+,30.09,,,TRUE,TRUE,,,,,,,OVC,9500,,,,,,,VFR,,,,,,,,,,,,METAR,74
KTTF 220415Z AUTO 00000KT 10SM CLR M02/M08 A3030 RMK AO2 T10251085,KTTF,2024-03-22T04:15:00Z,41.9371,-83.4332,-2.5,-8.5,0,0,,10+,30.30,,,TRUE,TRUE,,,,,,,CLR,,,,,,,,VFR,,,,,,,,,,,,METAR,186
KTSP 220415Z AUTO 27005KT CLR 07/02 A3016 RMK AO2,KTSP,2024-03-22T04:15:00Z,35.1387,-118.442,7,2,270,5,,,30.16,,,TRUE,TRUE,,,,,,,CLR,,,,,,,,VFR,,,,,,,,,,,,METAR,1209
KTRK 220415Z AUTO 00000KT 10SM CLR 03/00 A3017 RMK AO2,KTRK,2024-03-22T04:15:00Z,39.3154,-120.137,3,0,0,0,,10+,30.17,,,TRUE,TRUE,,,,,,,CLR,,,,,,,,VFR,,,,,,,,,,,,METAR,1800
KTQV 220415Z AUTO 13008KT 10SM CLR 12/M00 A3020 RMK A01,KTQV,2024-03-22T04:15:00Z,36.007,-78.937,12,0,130,8,,10+,30.20,,,TRUE,TRUE,,,,,,,CLR,,,,,,,,VFR,,,,,,,,,,,,METAR,230
KTQK 220415Z AUTO 19011KT 10SM CLR 09/05 A2987 RMK AO2 T00890045,KTQK,2024-03-22T04:15:00Z,38.4782,-100.882,8.9,4.5,190,11,,10+,29.87,,,TRUE,TRUE,,,,,,,CLR,,,,,,,,VFR,,,,,,,,,,,,METAR,906
KTQH 220415Z AUTO 12005KT 10SM OVC090 13/10 A2995 RMK AO2,KTQH,2024-03-22T04:15:00Z,35.9304,-95.0025,13,10,120,5,,10+,29.95,,,TRUE,TRUE,,,,,,,OVC,9000,,,,,,,VFR,,,,,,,,,,,,METAR,265
KTPF 220415Z AUTO 14009KT 10SM OVC034 23/20 A3005 RMK AO2,KTPF,2024-03-22T04:15:00Z,27.9153,-82.4518,23,20,140,9,,10+,30.05,,,TRUE,TRUE,,,,,,,OVC,3400,,,,,,,VFR,,,,,,,,,,,,METAR,1
KTOC 220415Z AUTO 36005KT 10SM CLR 14/05 A3011 RMK AO2 T01370049,KTOC,2024-03-22T04:15:00Z,34.588,-83.2974,13.7,4.9,360,5,,10+,30.11,,,TRUE,TRUE,,,,,,,CLR,,,,,,,,VFR,,,,,,,,,,,,METAR,292
KTOB 220415Z AUTO 00000KT 2SM -SN OVC011 M03/M04 A3016 RMK AO2,KTOB,2024-03-22T04:15:00Z,44.0202,-92.8295,-3,-4,0,0,,2,30.16,,,TRUE,TRUE,,,,,,-SN,OVC,1100,,,,,,,IFR,,,,,,,,,,,,METAR,394
KTNU 220415Z AUTO 11010KT 10SM BKN060 OVC065 06/M06 A3001 RMK A01,KTNU,2024-03-22T04:15:00Z,41.6701,-93.019,6,-6,110,10,,10+,30.01,,,TRUE,TRUE,,,,,,,BKN,6000,OVC,6500,,,,,VFR,,,,,,,,,,,,METAR,287
KTNB 220415Z AUTO 00000KT 10SM CLR 02/M02 A3004 RMK AO2 T00221020,KTNB,2024-03-22T04:15:00Z,36.1988,-81.6515,2.2,-2,0,0,,10+,30.04,,,TRUE,TRUE,,,,,,,CLR,,,,,,,,VFR,,,,,,,,,,,,METAR,958
KTMT 220415Z AUTO 00000KT 10SM CLR 03/M07 A3014 RMK AO2 T00331072,KTMT,2024-03-22T04:15:00Z,39.4643,-117.197,3.3,-7.2,0,0,,10+,30.14,,,TRUE,TRUE,,,,,,,CLR,,,,,,,,VFR,,,,,,,,,,,,METAR,1748
KTMK 220415Z AUTO 00000KT 10SM FEW003 SCT043 BKN070 11/11 A3005 RMK AO2,KTMK,2024-03-22T04:15:00Z,45.421,-123.814,11,11,0,0,,10+,30.05,,,TRUE,TRUE,,,,,,,FEW,300,SCT,4300,BKN,7000,,,VFR,,,,,,,,,,,,METAR,8
KTME 220415Z AUTO 13005KT 8SM 18/18 A2986 RMK AO2,KTME,2024-03-22T04:15:00Z,29.806,-95.903,18,18,130,5,,8,29.86,,,TRUE,TRUE,,,,,,,,,,,,,,,VFR,,,,,,,,,,,,METAR,49
KTMA 220415Z AUTO 12003KT 8SM -RA OVC100 18/05 A3008 RMK AO2 P0000 T01800046,KTMA,2024-03-22T04:15:00Z,31.4229,-83.4859,18,4.6,120,3,,8,30.08,,,TRUE,TRUE,,,,,,-RA,OVC,10000,,,,,,,VFR,,,,,,0.005,,,,,,METAR,105
KTKX 220415Z AUTO 04006KT 4SM HZ SCT090 BKN110 14/02 A3001 RMK AO2,KTKX,2024-03-22T04:15:00Z,36.2226,-90.0367,14,2,40,6,,4,30.01,,,TRUE,TRUE,,,,,,HZ,SCT,9000,BKN,11000,,,,,MVFR,,,,,,,,,,,,METAR,73
KTKV 220415Z AUTO 13003KT 10SM SCT044 OVC050 M02/M14 A3017 RMK AO2 T10211138 PWINO,KTKV,2024-03-22T04:15:00Z,45.469,-89.805,-2.1,-13.8,130,3,,10+,30.17,,,TRUE,TRUE,,,,,TRUE,,SCT,4400,OVC,5000,,,,,VFR,,,,,,,,,,,,METAR,449
KTKC 220415Z AUTO 07012G17KT 10SM UP OVC060 M03/M07 A3011 RMK AO2,KTKC,2024-03-22T04:15:00Z,44.25,-95.612,-3,-7,70,12,17,10+,30.11,,,TRUE,TRUE,,,,,,UP,OVC,6000,,,,,,,VFR,,,,,,,,,,,,METAR,408
KTIP 220415Z AUTO 10008KT 10SM CLR 01/M09 A3014 RMK AO2 T00121090,KTIP,2024-03-22T04:15:00Z,40.291,-88.146,1.2,-9,100,8,,10+,30.14,,,TRUE,TRUE,,,,,,,CLR,,,,,,,,VFR,,,,,,,,,,,,METAR,224
KTIF 220415Z AUTO 35023G29KT 10SM SCT110 05/M05 A2985 RMK AO2 T00521050,KTIF,2024-03-22T04:15:00Z,41.9646,-100.569,5.2,-5,350,23,29,10+,29.85,,,TRUE,TRUE,,,,,,,SCT,11000,,,,,,,VFR,,,,,,,,,,,,METAR,888
KTHA 220415Z AUTO 07004KT 10SM FEW049 FEW070 BKN110 15/M01 A3004 RMK A01,KTHA,2024-03-22T04:15:00Z,35.3804,-86.2419,15,-1,70,4,,10+,30.04,,,TRUE,TRUE,,,,,,,FEW,4900,FEW,7000,BKN,11000,,,VFR,,,,,,,,,,,,METAR,333
KTGI 220415Z AUTO 15004KT 10SM CLR 06/M01 A3031 RMK AO1 T00601009,KTGI,2024-03-22T04:15:00Z,37.8279,-75.9964,6,-0.9,150,4,,10+,30.31,,,TRUE,TRUE,,,,,,,CLR,,,,,,,,VFR,,,,,,,,,,,,METAR,1
KTEX 220415Z AUTO 27006KT 10SM SCT048 BKN060 OVC110 03/M05 A3020 RMK AO2,KTEX,2024-03-22T04:15:00Z,37.954,-107.909,3,-5,270,6,,10+,30.20,,,TRUE,TRUE,,,,,,,SCT,4800,BKN,6000,OVC,11000,,,VFR,,,,,,,,,,,,METAR,2760
KTEW 220415Z AUTO 10003KT 10SM CLR M02/M10 A3026 RMK AO2 T10211105,KTEW,2024-03-22T04:15:00Z,42.5636,-84.4222,-2.1,-10.5,100,3,,10+,30.26,,,TRUE,TRUE,,,,,,,CLR,,,,,,,,VFR,,,,,,,,,,,,METAR,281
KTCY 220415Z AUTO 00000KT 10SM CLR 14/09 A3008 RMK A01,KTCY,2024-03-22T04:15:00Z,37.6919,-121.444,14,9,0,0,,10+,30.08,,,TRUE,TRUE,,,,,,,CLR,,,,,,,,VFR,,,,,,,,,,,,METAR,51
KTBX 220415Z AUTO 35004KT 10SM SCT050 01/M02 A3010 RMK AO2,KTBX,2024-03-22T04:15:00Z,43.4644,-108.238,1,-2,350,4,,10+,30.10,,,TRUE,TRUE,,,,,,,SCT,5000,,,,,,,VFR,,,,,,,,,,,,METAR,2230
KTBR 220415Z AUTO 00000KT 10SM CLR 14/12 A3012 RMK AO2 T01420120,KTBR,2024-03-22T04:15:00Z,32.48,-81.738,14.2,12,0,0,,10+,30.12,,,TRUE,TRUE,,,,,,,CLR,,,,,,,,VFR,,,,,,,,,,,,METAR,54
KT89 220415Z AUTO 30004KT 10SM 18/M03 A2999 RMK A01,KT89,2024-03-22T04:15:00Z,29.2774,-103.691,18,-3,300,4,,10+,29.99,,,TRUE,TRUE,,,,,,,,,,,,,,,VFR,,,,,,,,,,,,METAR,801
KT82 220415Z AUTO 00000KT 10SM CLR 11/10 A2990 RMK AO2 T01070103,KT82,2024-03-22T04:15:00Z,30.239,-98.904,10.7,10.3,0,0,,10+,29.90,,,TRUE,TRUE,,,,,,,CLR,,,,,,,,VFR,,,,,,,,,,,,METAR,509
KT78 220415Z AUTO 07004KT 10SM VCTS FEW003 BKN046 OVC070 16/16 A2988 RMK AO2 LTG DSNT NE AND E,KT78,2024-03-22T04:15:00Z,30.0754,-94.6996,16,16,70,4,,10+,29.88,,,TRUE,TRUE,,,,,,VCTS,FEW,300,BKN,4600,OVC,7000,,,VFR,,,,,,,,,,,,METAR,21
KT74 220415Z AUTO 00000KT 10SM SCT014 14/13 A2985 RMK AO2 LTG DSNT NE THRU S T01430129,KT74,2024-03-22T04:15:00Z,30.5704,-97.4447,14.3,12.9,0,0,,10+,29.85,,,TRUE,TRUE,,,,,,,SCT,1400,,,,,,,VFR,,,,,,,,,,,,METAR,169
KT69 220415Z AUTO 00000KT 10SM BKN009 BKN025 20/19 A2987 RMK A01,KT69,2024-03-22T04:15:00Z,28.0418,-97.541,20,19,0,0,,10+,29.87,,,TRUE,TRUE,,,,,,,BKN,900,BKN,2500,,,,,IFR,,,,,,,,,,,,METAR,15
KT41 220415Z AUTO 07006KT 10SM OVC014 19/17 A2986 RMK AO2 LTG DSNT NE AND NW T01930174,KT41,2024-03-22T04:15:00Z,29.6709,-95.0644,19.3,17.4,70,6,,10+,29.86,,,TRUE,TRUE,,,,,,,OVC,1400,,,,,,,MVFR,,,,,,,,,,,,METAR,8
KT35 220415Z AUTO 15006KT 10SM VCTS SCT120 14/13 A2987 RMK AO2 LTG DSNT E THRU SW T01350130,KT35,2024-03-22T04:15:00Z,30.8789,-96.9704,13.5,13,150,6,,10+,29.87,,,TRUE,TRUE,,,,,,VCTS,SCT,12000,,,,,,,VFR,,,,,,,,,,,,METAR,122
KT20 220415Z AUTO 00000KT 10SM CLR 16/16 A2984 RMK AO2 LTG DSNT NE AND E T01590157,KT20,2024-03-22T04:15:00Z,29.5301,-97.463,15.9,15.7,0,0,,10+,29.84,,,TRUE,TRUE,,,,,,,CLR,,,,,,,,VFR,,,,,,,,,,,,METAR,107
KSZY 220415Z AUTO 09004KT 10SM FEW120 17/05 A3000 RMK A01,KSZY,2024-03-22T04:15:00Z,35.2064,-88.5012,17,5,90,4,,10+,30.00,,,TRUE,TRUE,,,,,,,FEW,12000,,,,,,,VFR,,,,,,,,,,,,METAR,184
KSZT 220415Z AUTO 01003KT 10SM OVC095 06/02 A3002 RMK AO2,KSZT,2024-03-22T04:15:00Z,48.2945,-116.567,6,2,10,3,,10+,30.02,,,TRUE,TRUE,,,,,,,OVC,9500,,,,,,,VFR,,,,,,,,,,,,METAR,649
KSYN 220415Z AUTO 06005KT 1SM SN OVC006 M03/M04 A3020 RMK AO2 T10281040,KSYN,2024-03-22T04:15:00Z,44.474,-93.014,-2.8,-4,60,5,,1,30.20,,,TRUE,TRUE,,,,,,SN,OVC,600,,,,,,,IFR,,,,,,,,,,,,METAR,280
KSYM 220415Z AUTO 08003KT 10SM BKN050 BKN060 OVC120 05/M15 A3020 RMK AO2,KSYM,2024-03-22T04:15:00Z,38.2199,-83.5835,5,-15,80,3,,10+,30.20,,,TRUE,TRUE,,,,,,,BKN,5000,BKN,6000,OVC,12000,,,VFR,,,,,,,,,,,,METAR,307
KSYI 220415Z AUTO 00000KT 10SM CLR 14/00 A3004 RMK A01,KSYI,2024-03-22T04:15:00Z,35.5594,-86.4406,14,0,0,0,,10+,30.04,,,TRUE,TRUE,,,,,,,CLR,,,,,,,,VFR,,,,,,,,,,,,METAR,244
KSYF 220415Z AUTO 20013KT 10SM SCT120 10/01 A2983 RMK AO2 T01020005 PWINO,KSYF,2024-03-22T04:15:00Z,39.7583,-101.793,10.2,0.5,200,13,,10+,29.83,,,TRUE,TRUE,,,,,TRUE,,SCT,12000,,,,,,,VFR,,,,,,,,,,,,METAR,1041
KSXU 220415Z AUTO 23006KT 10SM CLR 09/M04 A2994 RMK AO2 T00941045,KSXU,2024-03-22T04:15:00Z,34.9355,-104.637,9.4,-4.5,230,6,,10+,29.94,,,TRUE,TRUE,,,,,,,CLR,,,,,,,,VFR,,,,,,,,,,,,METAR,1465
KSXK 220415Z AUTO 06016KT 10SM OVC060 00/M07 A2999 RMK AO2,KSXK,2024-03-22T04:15:00Z,42.9895,-96.1645,0,-7,60,16,,10+,29.99,,,TRUE,TRUE,,,,,,,OVC,6000,,,,,,,VFR,,,,,,,,,,,,METAR,430
KSWW 220415Z AUTO 00000KT 10SM 13/08 A2995 RMK AO2 T01290081,KSWW,2024-03-22T04:15:00Z,32.4688,-100.467,12.9,8.1,0,0,,10+,29.95,,,TRUE,TRUE,,,,,,,,,,,,,,,VFR,,,,,,,,,,,,METAR,718
KSVE 220415Z AUTO 34003KT 10SM CLR 11/01 A3011 RMK AO2,KSVE,2024-03-22T04:15:00Z,40.376,-120.574,11,1,340,3,,10+,30.11,,,TRUE,TRUE,,,,,,,CLR,,,,,,,,VFR,,,,,,,,,,,,METAR,1263
KSVC 220415Z AUTO 34006KT 10SM CLR 08/00 A3013 RMK AO2 T00761005,KSVC,2024-03-22T04:15:00Z,32.631,-108.147,7.6,-0.5,340,6,,10+,30.13,,,TRUE,TRUE,,,,,,,CLR,,,,,,,,VFR,,,,,,,,,,,,METAR,1638
KSUW 220415Z AUTO 00000KT 10SM BKN090 M02/M18 A3022 RMK AO2 T10201184,KSUW,2024-03-22T04:15:00Z,46.6833,-92.0926,-2,-18.4,0,0,,10+,30.22,,,TRUE,TRUE,,,,,,,BKN,9000,,,,,,,VFR,,,,,,,,,,,,METAR,205
KSUA 220415Z AUTO 10SM CLR 22/14 A3009 RMK AO2 T02230141 TSNO,KSUA,2024-03-22T04:15:00Z,27.1815,-80.2252,22.3,14.1,,,,10+,30.09,,,TRUE,TRUE,,,TRUE,,,,CLR,,,,,,,,VFR,,,,,,,,,,,,METAR,4
KSTK 220415Z AUTO 31023G33KT 10SM SCT090 SCT110 08/M03 A2994 RMK AO2,KSTK,2024-03-22T04:15:00Z,40.6133,-103.261,8,-3,310,23,33,10+,29.94,,,TRUE,TRUE,,,,,,,SCT,9000,SCT,11000,,,,,VFR,,,,,,,,,,,,METAR,1228
KSTF 220415Z AUTO 00000KT 10SM OVC085 14/10 A2997 RMK AO2,KSTF,2024-03-22T04:15:00Z,33.4326,-88.8506,14,10,0,0,,10+,29.97,,,TRUE,TRUE,,,,,,,OVC,8500,,,,,,,VFR,,,,,,,,,,,,METAR,99
KSTE 220415Z AUTO 18004KT 3SM UP BKN016 OVC022 M02/M04 A3020 RMK AO2 T10231044,KSTE,2024-03-22T04:15:00Z,44.5437,-89.5347,-2.3,-4.4,180,4,,3,30.20,,,TRUE,TRUE,,,,,,UP,BKN,1600,OVC,2200,,,,,MVFR,,,,,,,,,,,,METAR,335
KSSI 220415Z AUTO 07006KT 10SM FEW055 17/15 A3010 RMK AO2,KSSI,2024-03-22T04:15:00Z,31.1527,-81.3905,17,15,70,6,,10+,30.10,,,TRUE,TRUE,,,,,,,FEW,5500,,,,,,,VFR,,,,,,,,,,,,METAR,6
KSRR 220415Z AUTO 29006KT 10SM FEW075 08/M07 A3010 RMK AO2,KSRR,2024-03-22T04:15:00Z,33.4667,-105.528,8,-7,290,6,,10+,30.10,,,TRUE,TRUE,,,,,,,FEW,7500,,,,,,,VFR,,,,,,,,,,,,METAR,2063
KSRB 220415Z AUTO 00000KT 10SM CLR 07/01 A3008 RMK AO2,KSRB,2024-03-22T04:15:00Z,36.0529,-85.536,7,1,0,0,,10+,30.08,,,TRUE,TRUE,,,,,,,CLR,,,,,,,,VFR,,,,,,,,,,,,METAR,303
KSQL 220415Z AUTO 33003KT 10SM CLR 14/11 A3010 RMK AO2,KSQL,2024-03-22T04:15:00Z,37.5119,-122.248,14,11,330,3,,10+,30.10,,,TRUE,TRUE,,,,,,,CLR,,,,,,,,VFR,,,,,,,,,,,,METAR,1
KSPK 220415Z AUTO 21004KT 10SM CLR 06/01 A3008 RMK AO2,KSPK,2024-03-22T04:15:00Z,40.1497,-111.677,6,1,210,4,,10+,30.08,,,TRUE,TRUE,,,,,,,CLR,,,,,,,,VFR,,,,,,,,,,,,METAR,1381
KSPF 220415Z AUTO 04005KT 1/2SM FZFG OVC002 M04/M04 A3001 RMK AO2,KSPF,2024-03-22T04:15:00Z,44.4811,-103.788,-4,-4,40,5,,0.5,30.01,,,TRUE,TRUE,,,,,,FZFG,OVC,200,,,,,,,LIFR,,,,,,,,,,,,METAR,1191
KSOW 220415Z AUTO 19008KT 10SM CLR 07/01 A3020 RMK AO2,KSOW,2024-03-22T04:15:00Z,34.2686,-110.002,7,1,190,8,,10+,30.20,,,TRUE,TRUE,,,,,,,CLR,,,,,,,,VFR,,,,,,,,,,,,METAR,1954
KSOA 220415Z AUTO 00000KT 10SM 11/09 A2995 RMK AO2,KSOA,2024-03-22T04:15:00Z,30.5853,-100.651,11,9,0,0,,10+,29.95,,,TRUE,TRUE,,,,,,,,,,,,,,,VFR,,,,,,,,,,,,METAR,654
KSNL 220415Z AUTO 09009KT 10SM -RA OVC090 14/13 A2990 RMK AO2 T01370126,KSNL,2024-03-22T04:15:00Z,35.3611,-96.9445,13.7,12.6,90,9,,10+,29.90,,,TRUE,TRUE,,,,,,-RA,OVC,9000,,,,,,,VFR,,,,,,,,,,,,METAR,327
KSNK 220415Z AUTO 11006KT 10SM CLR 13/09 A2991 RMK AO2 T01270093,KSNK,2024-03-22T04:15:00Z,32.6917,-100.951,12.7,9.3,110,6,,10+,29.91,,,TRUE,TRUE,,,,,,,CLR,,,,,,,,VFR,,,,,,,,,,,,METAR,738
KSNC 220415Z AUTO 28009G16KT 260V320 10SM CLR M02/M14 A3025 RMK AO2,KSNC,2024-03-22T04:15:00Z,41.383,-72.506,-2,-14,280,9,16,10+,30.25,,,TRUE,TRUE,,,,,,,CLR,,,,,,,,VFR,,,,,,,,,,,,METAR,114
KSMS 220415Z AUTO 00000KT 10SM CLR 12/10 A3018 RMK AO2,KSMS,2024-03-22T04:15:00Z,34.0003,-80.3582,12,10,0,0,,10+,30.18,,,TRUE,TRUE,,,,,,,CLR,,,,,,,,VFR,,,,,,,,,,,,METAR,53
KSME 220415Z AUTO 00000KT 10SM FEW003 06/M05 A3012 RMK AO2,KSME,2024-03-22T04:15:00Z,37.0529,-84.6141,6,-5,0,0,,10+,30.12,,,TRUE,TRUE,,,,,,,FEW,300,,,,,,,VFR,,,,,,,,,,,,METAR,279
KSMD 220415Z AUTO 11004KT 10SM SCT110 M00/M11 A3026 RMK A01,KSMD,2024-03-22T04:15:00Z,41.144,-85.1492,0,-11,110,4,,10+,30.26,,,TRUE,TRUE,,,,,,,SCT,11000,,,,,,,VFR,,,,,,,,,,,,METAR,252
KSLR 220415Z AUTO 07006KT 3SM +RA SCT035 BKN044 OVC060 14/14 A2994 RMK AO2 LTG DSNT SW P0009 T01370137,KSLR,2024-03-22T04:15:00Z,33.1615,-95.6189,13.7,13.7,70,6,,3,29.94,,,TRUE,TRUE,,,,,,+RA,SCT,3500,BKN,4400,OVC,6000,,,MVFR,,,,,,0.09,,,,,,METAR,144
KSLO 220415Z AUTO 08005KT 10SM CLR 06/M04 A3010 RMK AO2 T00641045,KSLO,2024-03-22T04:15:00Z,38.6446,-88.9612,6.4,-4.5,80,5,,10+,30.10,,,TRUE,TRUE,,,,,,,CLR,,,,,,,,VFR,,,,,,,,,,,,METAR,173
KSLH 220415Z AUTO 00000KT 10SM CLR M10/M12 A3030 RMK AO2,KSLH,2024-03-22T04:15:00Z,45.6523,-84.5202,-10,-12,0,0,,10+,30.30,,,TRUE,TRUE,,,,,,,CLR,,,,,,,,VFR,,,,,,,,,,,,METAR,193
KSLB 220415Z AUTO 09013KT 10SM OVC050 02/M10 A2998 RMK AO2,KSLB,2024-03-22T04:15:00Z,42.5972,-95.2399,2,-10,90,13,,10+,29.98,,,TRUE,TRUE,,,,,,,OVC,5000,,,,,,,VFR,,,,,,,,,,,,METAR,450
KSJX 220415Z AUTO 00000KT 10SM CLR M08/M11 A3029 RMK AO2 T10761107,KSJX,2024-03-22T04:15:00Z,45.6928,-85.5662,-7.6,-10.7,0,0,,10+,30.29,,,TRUE,TRUE,,,,,,,CLR,,,,,,,,VFR,,,,,,,,,,,,METAR,202
KSJS 220415Z AUTO 08005KT 10SM CLR 05/M09 A3020 RMK AO2 T00461093,KSJS,2024-03-22T04:15:00Z,37.7489,-82.6413,4.6,-9.3,80,5,,10+,30.20,,,TRUE,TRUE,,,,,,,CLR,,,,,,,,VFR,,,,,,,,,,,,METAR,359
KSHL 220415Z AUTO 07017G22KT 10SM OVC060 M01/M07 A3001 RMK AO2,KSHL,2024-03-22T04:15:00Z,43.2082,-95.8354,-1,-7,70,17,22,10+,30.01,,,TRUE,TRUE,,,,,,,OVC,6000,,,,,,,VFR,,,,,,,,,,,,METAR,430
KSHD 220415Z AUTO 36003KT 7SM SCT110 04/M09 A3027 RMK AO2 T00381090,KSHD,2024-03-22T04:15:00Z,38.2601,-78.9013,3.8,-9,360,3,,7,30.27,,,TRUE,TRUE,,,,,,,SCT,11000,,,,,,,VFR,,,,,,,,,,,,METAR,360
KSGS 220415Z AUTO 06003KT 1 3/4SM UP SCT007 OVC018 M03/M04 A3021 RMK AO2 P0001 T10271040,KSGS,2024-03-22T04:15:00Z,44.8601,-93.0321,-2.7,-4,60,3,,1.75,30.21,,,TRUE,TRUE,,,,,,UP,SCT,700,OVC,1800,,,,,IFR,,,,,,0.01,,,,,,METAR,250
KSFQ 220415Z AUTO 00000KT 10SM CLR 04/01 A3030 RMK AO2 T00410008,KSFQ,2024-03-22T04:15:00Z,36.6825,-76.6013,4.1,0.8,0,0,,10+,30.30,,,TRUE,TRUE,,,,,,,CLR,,,,,,,,VFR,,,,,,,,,,,,METAR,19
KSEZ 220415Z AUTO 31006KT 10SM CLR 13/M01 A3015 RMK AO2,KSEZ,2024-03-22T04:15:00Z,34.8467,-111.788,13,-1,310,6,,10+,30.15,,,TRUE,TRUE,,,,,,,CLR,,,,,,,,VFR,,,,,,,,,,,,METAR,1455
KSEP 220415Z AUTO 26005KT 10SM SCT110 13/11 A2988 RMK AO2 T01270112,KSEP,2024-03-22T04:15:00Z,32.215,-98.1793,12.7,11.2,260,5,,10+,29.88,,,TRUE,TRUE,,,,,,,SCT,11000,,,,,,,VFR,,,,,,,,,,,,METAR,399
KSEF 220415Z AUTO 13010KT 10SM CLR 22/17 A3006 RMK AO2 T02160172,KSEF,2024-03-22T04:15:00Z,27.4553,-81.3415,21.6,17.2,130,10,,10+,30.06,,,TRUE,TRUE,,,,,,,CLR,,,,,,,,VFR,,,,,,,,,,,,METAR,17
KSEE 220415Z AUTO 29005KT 10SM CLR 14/11 A3008 RMK AO2,KSEE,2024-03-22T04:15:00Z,32.8273,-116.974,14,11,290,5,,10+,30.08,,,TRUE,TRUE,,,,,,,CLR,,,,,,,,VFR,,,,,,,,,,,,METAR,113
KSDC 220415Z AUTO 31005KT 10SM BKN041 OVC047 M02/M11 A3037 RMK AO2,KSDC,2024-03-22T04:15:00Z,43.2355,-77.1201,-2,-11,310,5,,10+,30.37,,,TRUE,TRUE,,,,,,,BKN,4100,OVC,4700,,,,,VFR,,,,,,,,,,,,METAR,127
KSDA 220415Z AUTO 11005KT 10SM FEW041 04/M05 A2992 RMK AO2,KSDA,2024-03-22T04:15:00Z,40.7533,-95.4112,4,-5,110,5,,10+,29.92,,,TRUE,TRUE,,,,,,,FEW,4100,,,,,,,VFR,,,,,,,,,,,,METAR,293
KSCX 220415Z AUTO 03003KT 10SM SCT025 BKN036 OVC047 07/M06 A3011 RMK A01,KSCX,2024-03-22T04:15:00Z,36.4553,-84.584,7,-6,30,3,,10+,30.11,,,TRUE,TRUE,,,,,,,SCT,2500,BKN,3600,OVC,4700,,,VFR,,,,,,,,,,,,METAR,462
KSCD 220415Z AUTO 00000KT 10SM SCT075 OVC100 14/11 A3005 RMK AO2 T01410109,KSCD,2024-03-22T04:15:00Z,33.1732,-86.2933,14.1,10.9,0,0,,10+,30.05,,,TRUE,TRUE,,,,,,,SCT,7500,OVC,10000,,,,,VFR,,,,,,,,,,,,METAR,164
KSBX 220415Z AUTO 35009KT 10SM UP FEW034 FEW041 OVC075 M07/M07 A3024 RMK AO2,KSBX,2024-03-22T04:15:00Z,48.541,-111.871,-7,-7,350,9,,10+,30.24,,,TRUE,TRUE,,,,,,UP,FEW,3400,FEW,4100,OVC,7500,,,VFR,,,,,,,,,,,,METAR,1049
KSBO 220415Z AUTO 12007KT 10SM CLR 15/11 A3012 RMK AO2,KSBO,2024-03-22T04:15:00Z,32.6111,-82.3702,15,11,120,7,,10+,30.12,,,TRUE,TRUE,,,,,,,CLR,,,,,,,,VFR,,,,,,,,,,,,METAR,98
KSAZ 220415Z AUTO 08003KT 1 1/2SM -SN BKN007 OVC014 M04/M06 A3019 RMK AO2,KSAZ,2024-03-22T04:15:00Z,46.3785,-94.8017,-4,-6,80,3,,1.5,30.19,,,TRUE,TRUE,,,,,,-SN,BKN,700,OVC,1400,,,,,IFR,,,,,,,,,,,,METAR,391
KSAR 220415Z AUTO 08005KT 10SM CLR 04/M04 A3009 RMK AO2 T00411036,KSAR,2024-03-22T04:15:00Z,38.1463,-89.7025,4.1,-3.6,80,5,,10+,30.09,,,TRUE,TRUE,,,,,,,CLR,,,,,,,,VFR,,,,,,,,,,,,METAR,162
KSAA 220415Z AUTO 24012KT 10SM CLR 02/M03 A3006 RMK AO2,KSAA,2024-03-22T04:15:00Z,41.447,-106.815,2,-3,240,12,,10+,30.06,,,TRUE,TRUE,,,,,,,CLR,,,,,,,,VFR,,,,,,,,,,,,METAR,2093
KS52 220415Z AUTO 31004KT 10SM CLR 05/M01 A3002 RMK AO2 T00501009,KS52,2024-03-22T04:15:00Z,48.4282,-120.15,5,-0.9,310,4,,10+,30.02,,,TRUE,TRUE,,,,,,,CLR,,,,,,,,VFR,,,,,,,,,,,,METAR,517
KS39 220415Z AUTO 00000KT 10SM SCT043 SCT050 BKN065 05/M00 A3004 RMK AO2,KS39,2024-03-22T04:15:00Z,44.2858,-120.901,5,0,0,0,,10+,30.04,,,TRUE,TRUE,,,,,,,SCT,4300,SCT,5000,BKN,6500,,,VFR,,,,,,,,,,,,METAR,987
KS34 220415Z AUTO 14006KT 10SM SCT055 OVC080 09/02 A3004 RMK AO2,KS34,2024-03-22T04:15:00Z,47.4718,-114.901,9,2,140,6,,10+,30.04,,,TRUE,TRUE,,,,,,,SCT,5500,OVC,8000,,,,,VFR,,,,,,,,,,,,METAR,750
KS33 220415Z AUTO 02007KT 10SM SCT095 08/03 A3006 RMK AO2,KS33,2024-03-22T04:15:00Z,44.6653,-121.157,8,3,20,7,,10+,30.06,,,TRUE,TRUE,,,,,,,SCT,9500,,,,,,,VFR,,,,,,,,,,,,METAR,739
KS32 220415Z AUTO 08005KT 4SM BR M06/M06 A3022 RMK AO2 TSNO,KS32,2024-03-22T04:15:00Z,47.424,-98.11,-6,-6,80,5,,4,30.22,,,TRUE,TRUE,,,TRUE,,,BR,,,,,,,,,MVFR,,,,,,,,,,,,METAR,435
KS25 220415Z AUTO 07003KT 7SM -SN FEW006 BKN049 OVC060 M07/M07 A3020 RMK AO2,KS25,2024-03-22T04:15:00Z,47.7954,-103.257,-7,-7,70,3,,7,30.20,,,TRUE,TRUE,,,,,,-SN,FEW,600,BKN,4900,OVC,6000,,,VFR,,,,,,,,,,,,METAR,632
KS24 220415Z AUTO 12006KT 10SM SCT032 SCT110 M03/M10 A3029 RMK AO2,KS24,2024-03-22T04:15:00Z,41.296,-83.037,-3,-10,120,6,,10+,30.29,,,TRUE,TRUE,,,,,,,SCT,3200,SCT,11000,,,,,VFR,,,,,,,,,,,,METAR,203
KS21 220415Z AUTO 00000KT 10SM CLR 03/00 A3009 RMK AO2,KS21,2024-03-22T04:15:00Z,43.8801,-121.454,3,0,0,0,,10+,30.09,,,TRUE,TRUE,,,,,,,CLR,,,,,,,,VFR,,,,,,,,,,,,METAR,1269
KS12 220415Z 34004KT 10SM SCT110 13/09 A3002 RMK AO2 CAUTION: LARGE BIRDS IN VICINITY OF AIRPORT,KS12,2024-03-22T04:15:00Z,44.6394,-123.058,13,9,340,4,,10+,30.02,,,,TRUE,,,,,,,SCT,11000,,,,,,,VFR,,,,,,,,,,,,METAR,69
KRZT 220415Z AUTO 00000KT 10SM CLR M03/M05 A3025 RMK AO2 PWINO,KRZT,2024-03-22T04:15:00Z,39.4402,-83.0209,-3,-5,0,0,,10+,30.25,,,TRUE,TRUE,,,,,TRUE,,CLR,,,,,,,,VFR,,,,,,,,,,,,METAR,217
KRZR 220415Z AUTO 00000KT 10SM CLR 09/07 A3006 RMK A01,KRZR,2024-03-22T04:15:00Z,35.207,-84.8005,9,7,0,0,,10+,30.06,,,TRUE,TRUE,,,,,,,CLR,,,,,,,,VFR,,,,,,,,,,,,METAR,259
KRZN 220415Z AUTO 00000KT 1 1/4SM SN OVC006 M04/M06 A3022 RMK AO2 T10401058,KRZN,2024-03-22T04:15:00Z,45.8229,-92.3706,-4,-5.8,0,0,,1.25,30.22,,,TRUE,TRUE,,,,,,SN,OVC,600,,,,,,,IFR,,,,,,,,,,,,METAR,301
KRZL 220415Z AUTO 09008KT 10SM SCT110 00/M08 A3020 RMK AO2,KRZL,2024-03-22T04:15:00Z,40.9488,-87.1851,0,-8,90,8,,10+,30.20,,,TRUE,TRUE,,,,,,,SCT,11000,,,,,,,VFR,,,,,,,,,,,,METAR,210
KRYW 220415Z AUTO 00000KT 10SM CLR 14/13 A2989 RMK AO2 LTG DSNT NE AND E T01350132,KRYW,2024-03-22T04:15:00Z,30.498,-97.969,13.5,13.2,0,0,,10+,29.89,,,TRUE,TRUE,,,,,,,CLR,,,,,,,,VFR,,,,,,,,,,,,METAR,370
KRYV 220415Z AUTO 11007KT 10SM OVC065 M01/M04 A3019 RMK AO2 T10101036,KRYV,2024-03-22T04:15:00Z,43.1702,-88.7251,-1,-3.6,110,7,,10+,30.19,,,TRUE,TRUE,,,,,,,OVC,6500,,,,,,,VFR,,,,,,,,,,,,METAR,249
KRVL 220415Z AUTO 34005KT 10SM CLR M02/M11 A3031 RMK AO2,KRVL,2024-03-22T04:15:00Z,40.6768,-77.6251,-2,-11,340,5,,10+,30.31,,,TRUE,TRUE,,,,,,,CLR,,,,,,,,VFR,,,,,,,,,,,,METAR,250
KRVJ 220415Z AUTO 00000KT 10SM CLR 15/12 A3011 RMK AO2 T01470117,KRVJ,2024-03-22T04:15:00Z,32.059,-82.153,14.7,11.7,0,0,,10+,30.11,,,TRUE,TRUE,,,,,,,CLR,,,,,,,,VFR,,,,,,,,,,,,METAR,60
KRVF 220415Z AUTO 31010KT 10SM OVC075 07/M05 A3005 RMK AO2,KRVF,2024-03-22T04:15:00Z,45.534,-112.303,7,-5,310,10,,10+,30.05,,,TRUE,TRUE,,,,,,,OVC,7500,,,,,,,VFR,,,,,,,,,,,,METAR,1445
KRUG 220415Z AUTO 00000KT 4SM -SN FEW003 OVC026 M06/M06 A3022 RMK AO2,KRUG,2024-03-22T04:15:00Z,48.389,-100.025,-6,-6,0,0,,4,30.22,,,TRUE,TRUE,,,,,,-SN,FEW,300,OVC,2600,,,,,MVFR,,,,,,,,,,,,METAR,469
KRTS 220415Z AUTO 30009G14KT 10SM CLR 10/M02 A3013 RMK AO2,KRTS,2024-03-22T04:15:00Z,39.6658,-119.873,10,-2,300,9,14,10+,30.13,,,TRUE,TRUE,,,,,,,CLR,,,,,,,,VFR,,,,,,,,,,,,METAR,1537
KRRT 220415Z AUTO 36005KT 10SM CLR M07/M11 A3024 RMK AO2,KRRT,2024-03-22T04:15:00Z,48.9318,-95.3405,-7,-11,360,5,,10+,30.24,,,TRUE,TRUE,,,,,,,CLR,,,,,,,,VFR,,,,,,,,,,,,METAR,327
KRRL 220415Z AUTO 21005KT 10SM SCT037 BKN044 OVC060 M02/M12 A3017 RMK AO2 T10221121 TSNO,KRRL,2024-03-22T04:15:00Z,45.1985,-89.71,-2.2,-12.1,210,5,,10+,30.17,,,TRUE,TRUE,,,TRUE,,,,SCT,3700,BKN,4400,OVC,6000,,,VFR,,,,,,,,,,,,METAR,397
KRQB 220415Z AUTO 00000KT 10SM SCT110 M05/M13 A3025 RMK AO2 T10541128,KRQB,2024-03-22T04:15:00Z,43.722,-85.498,-5.4,-12.8,0,0,,10+,30.25,,,TRUE,TRUE,,,,,,,SCT,11000,,,,,,,VFR,,,,,,,,,,,,METAR,282
KRPJ 220415Z AUTO 10009KT 10SM BKN090 OVC110 01/M07 A3017 RMK AO2 T00141067 TSNO,KRPJ,2024-03-22T04:15:00Z,41.8906,-89.0817,1.4,-6.7,100,9,,10+,30.17,,,TRUE,TRUE,,,TRUE,,,,BKN,9000,OVC,11000,,,,,VFR,,,,,,,,,,,,METAR,234
KRPH 220415Z AUTO 21005KT 10SM SCT014 12/12 A2983 RMK AO2 T01220121,KRPH,2024-03-22T04:15:00Z,33.1096,-98.5537,12.2,12.1,210,5,,10+,29.83,,,TRUE,TRUE,,,,,,,SCT,1400,,,,,,,VFR,,,,,,,,,,,,METAR,341
KRPD 220415Z AUTO 00000KT 3/4SM SN OVC006 M04/M06 A3022 RMK AO2 P0001 T10431060,KRPD,2024-03-22T04:15:00Z,45.4186,-91.7764,-4.3,-6,0,0,,0.75,30.22,,,TRUE,TRUE,,,,,,SN,OVC,600,,,,,,,LIFR,,,,,,0.01,,,,,,METAR,334
KROX 220415Z AUTO 02008KT 10SM CLR M05/M14 A3024 RMK AO2,KROX,2024-03-22T04:15:00Z,48.856,-95.6949,-5,-14,20,8,,10+,30.24,,,TRUE,TRUE,,,,,,,CLR,,,,,,,,VFR,,,,,,,,,,,,METAR,320
KROS 220415Z AUTO 00000KT 1 1/4SM -SN SCT090 M04/M06 A3023 RMK AO2 T10401056,KROS,2024-03-22T04:15:00Z,45.6962,-92.9543,-4,-5.6,0,0,,1.25,30.23,,,TRUE,TRUE,,,,,,-SN,SCT,9000,,,,,,,IFR,,,,,,,,,,,,METAR,282
KRNP 220415Z AUTO 12004KT 10SM CLR M03/M11 A3028 RMK AO2 T10271106,KRNP,2024-03-22T04:15:00Z,42.9937,-84.1347,-2.7,-10.6,120,4,,10+,30.28,,,TRUE,TRUE,,,,,,,CLR,,,,,,,,VFR,,,,,,,,,,,,METAR,224
KRNH 220415Z AUTO 00000KT 1SM SN VV007 M04/M05 A3020 RMK AO2 T10401055,KRNH,2024-03-22T04:15:00Z,45.1476,-92.5335,-4,-5.5,0,0,,1,30.20,,,TRUE,TRUE,,,,,,SN,OVX,0,,,,,,,IFR,,,,,,,,,,,700,METAR,302
KRNC 220415Z AUTO 05006KT 10SM FEW055 11/00 A3006 RMK A01,KRNC,2024-03-22T04:15:00Z,35.6991,-85.8402,11,0,50,6,,10+,30.06,,,TRUE,TRUE,,,,,,,FEW,5500,,,,,,,VFR,,,,,,,,,,,,METAR,310
KRMY 220415Z AUTO 09003KT 10SM CLR M03/M09 A3025 RMK AO2 T10311090,KRMY,2024-03-22T04:15:00Z,42.2524,-84.9526,-3.1,-9,90,3,,10+,30.25,,,TRUE,TRUE,,,,,,,CLR,,,,,,,,VFR,,,,,,,,,,,,METAR,285
KRMN 220415Z AUTO 00000KT 10SM CLR 01/M07 A3032 RMK AO2 T00051075,KRMN,2024-03-22T04:15:00Z,38.3941,-77.4523,0.5,-7.5,0,0,,10+,30.32,,,TRUE,TRUE,,,,,,,CLR,,,,,,,,VFR,,,,,,,,,,,,METAR,50
KRLD 220415Z AUTO 00000KT 10SM CLR 12/04 A3003 RMK AO2 T01190040,KRLD,2024-03-22T04:15:00Z,46.3086,-119.306,11.9,4,0,0,,10+,30.03,,,TRUE,TRUE,,,,,,,CLR,,,,,,,,VFR,,,,,,,,,,,,METAR,118
KRKW 220415Z AUTO 07006KT 10SM CLR 10/M04 A3011 RMK A01,KRKW,2024-03-22T04:15:00Z,35.922,-84.689,10,-4,70,6,,10+,30.11,,,TRUE,TRUE,,,,,,,CLR,,,,,,,,VFR,,,,,,,,,,,,METAR,505
KRKR 220415Z AUTO 00000KT 10SM DZ OVC042 15/11 A2994 RMK AO2 P0001,KRKR,2024-03-22T04:15:00Z,35.0187,-94.6202,15,11,0,0,,10+,29.94,,,TRUE,TRUE,,,,,,DZ,OVC,4200,,,,,,,VFR,,,,,,0.01,,,,,,METAR,136
KRGK 220415Z AUTO 08003KT 1 1/2SM -SN OVC013 M02/M04 A3020 RMK AO2,KRGK,2024-03-22T04:15:00Z,44.5927,-92.4844,-2,-4,80,3,,1.5,30.20,,,TRUE,TRUE,,,,,,-SN,OVC,1300,,,,,,,IFR,,,,,,,,,,,,METAR,238
KRGA 220415Z AUTO 04003KT 10SM CLR 03/M06 A3018 RMK AO2,KRGA,2024-03-22T04:15:00Z,37.6305,-84.329,3,-6,40,3,,10+,30.18,,,TRUE,TRUE,,,,,,,CLR,,,,,,,,VFR,,,,,,,,,,,,METAR,301
KRFI 220415Z AUTO 14006KT 10SM RA OVC006 15/14 A2992 RMK AO2 P0001 T01490137,KRFI,2024-03-22T04:15:00Z,32.1441,-94.8539,14.9,13.7,140,6,,10+,29.92,,,TRUE,TRUE,,,,,,RA,OVC,600,,,,,,,IFR,,,,,,0.01,,,,,,METAR,133
KREG 220415Z AUTO 00000KT 7SM OVC011 14/14 A2994 RMK AO2 T01420136,KREG,2024-03-22T04:15:00Z,30.1756,-90.9397,14.2,13.6,0,0,,7,29.94,,,TRUE,TRUE,,,,,,,OVC,1100,,,,,,,MVFR,,,,,,,,,,,,METAR,3
KRDK 220415Z AUTO 13008KT 10SM BKN038 BKN045 06/M06 A2994 RMK AO2,KRDK,2024-03-22T04:15:00Z,41.0107,-95.2622,6,-6,130,8,,10+,29.94,,,TRUE,TRUE,,,,,,,BKN,3800,BKN,4500,,,,,VFR,,,,,,,,,,,,METAR,317
KRCX 220415Z AUTO 21006KT 1 3/4SM -SN BKN019 OVC038 M04/M07 A3022 RMK AO2 T10411068,KRCX,2024-03-22T04:15:00Z,45.4935,-90.9985,-4.1,-6.8,210,6,,1.75,30.22,,,TRUE,TRUE,,,,,,-SN,BKN,1900,OVC,3800,,,,,IFR,,,,,,,,,,,,METAR,373
KRCV 220415Z AUTO 24007KT 10SM CLR 03/M08 A3010 RMK AO2 T00271080,KRCV,2024-03-22T04:15:00Z,37.7092,-106.355,2.7,-8,240,7,,10+,30.10,,,TRUE,TRUE,,,,,,,CLR,,,,,,,,VFR,,,,,,,,,,,,METAR,2418
KRCR 220415Z AUTO 11007KT 10SM BKN065 BKN075 OVC110 M01/M09 A3022 RMK AO2,KRCR,2024-03-22T04:15:00Z,41.0651,-86.1864,-1,-9,110,7,,10+,30.22,,,TRUE,TRUE,,,,,,,BKN,6500,BKN,7500,OVC,11000,,,VFR,,,,,,,,,,,,METAR,240
KRCM 220415Z AUTO 11007KT 10SM CLR 09/M03 A2996 RMK AO2,KRCM,2024-03-22T04:15:00Z,38.7855,-93.8058,9,-3,110,7,,10+,29.96,,,TRUE,TRUE,,,,,,,CLR,,,,,,,,VFR,,,,,,,,,,,,METAR,242
KRCE 220415Z AUTO 06009KT 10SM BKN008 OVC013 13/13 A2989 RMK AO2 TSNO,KRCE,2024-03-22T04:15:00Z,35.4971,-97.8255,13,13,60,9,,10+,29.89,,,TRUE,TRUE,,,TRUE,,,,BKN,800,OVC,1300,,,,,IFR,,,,,,,,,,,,METAR,412
KRBW 220415Z AUTO 09006KT 10SM CLR 13/12 A3016 RMK AO2,KRBW,2024-03-22T04:15:00Z,32.921,-80.64,13,12,90,6,,10+,30.16,,,TRUE,TRUE,,,,,,,CLR,,,,,,,,VFR,,,,,,,,,,,,METAR,30
KRBO 220415Z AUTO 32007KT 10SM CLR 19/18 A2988 RMK AO2 T01860177,KRBO,2024-03-22T04:15:00Z,27.7781,-97.6878,18.6,17.7,320,7,,10+,29.88,,,TRUE,TRUE,,,,,,,CLR,,,,,,,,VFR,,,,,,,,,,,,METAR,24
KRAW 220415Z AUTO 13006KT 10SM CLR 10/M03 A2998 RMK AO2,KRAW,2024-03-22T04:15:00Z,38.3484,-93.3436,10,-3,130,6,,10+,29.98,,,TRUE,TRUE,,,,,,,CLR,,,,,,,,VFR,,,,,,,,,,,,METAR,285
KRAS 220415Z AUTO 00000KT 1/4SM FG OVC002 19/19 A2988 RMK AO2 T01910189,KRAS,2024-03-22T04:15:00Z,27.8083,-97.0853,19.1,18.9,0,0,,0.25,29.88,,,TRUE,TRUE,,,,,,FG,OVC,200,,,,,,,LIFR,,,,,,,,,,,,METAR,3
KPZZ 220415Z AUTO 14023KT 10SM SCT017 BKN046 OVC110 20/17 A2989 RMK A01,KPZZ,2024-03-22T04:15:00Z,28.4344,-91.0344,20,17,140,23,,10+,29.89,,,TRUE,TRUE,,,,,,,SCT,1700,BKN,4600,OVC,11000,,,VFR,,,,,,,,,,,,METAR,25
KPZQ 220415Z AUTO 20003KT 10SM CLR M07/M10 A3033 RMK AO2 T10701097,KPZQ,2024-03-22T04:15:00Z,45.4085,-83.812,-7,-9.7,200,3,,10+,30.33,,,TRUE,TRUE,,,,,,,CLR,,,,,,,,VFR,,,,,,,,,,,,METAR,199
KPYX 220415Z AUTO 00000KT 10SM CLR 05/02 A2989 RMK AO2 T00470016,KPYX,2024-03-22T04:15:00Z,36.4103,-100.751,4.7,1.6,0,0,,10+,29.89,,,TRUE,TRUE,,,,,,,CLR,,,,,,,,VFR,,,,,,,,,,,,METAR,890
KPXE 220415Z AUTO 13005KT 10SM CLR 17/08 A3008 RMK AO2 T01710079,KPXE,2024-03-22T04:15:00Z,32.5072,-83.7656,17.1,7.9,130,5,,10+,30.08,,,TRUE,TRUE,,,,,,,CLR,,,,,,,,VFR,,,,,,,,,,,,METAR,126
KPWD 220415Z AUTO 04009KT 9SM UP FEW020 OVC028 M08/M09 A3021 RMK AO2,KPWD,2024-03-22T04:15:00Z,48.7912,-104.525,-8,-9,40,9,,9,30.21,,,TRUE,TRUE,,,,,,UP,FEW,2000,OVC,2800,,,,,MVFR,,,,,,,,,,,,METAR,690
KPWC 220415Z AUTO 00000KT 3SM -SN BKN023 BKN031 OVC039 M04/M07 A3023 RMK AO2,KPWC,2024-03-22T04:15:00Z,46.7266,-94.3849,-4,-7,0,0,,3,30.23,,,TRUE,TRUE,,,,,,-SN,BKN,2300,BKN,3100,OVC,3900,,,MVFR,,,,,,,,,,,,METAR,394
KPVW 220415Z AUTO 23004KT 10SM CLR 06/04 A2992 RMK AO2 T00640038,KPVW,2024-03-22T04:15:00Z,34.169,-101.723,6.4,3.8,230,4,,10+,29.92,,,TRUE,TRUE,,,,,,,CLR,,,,,,,,VFR,,,,,,,,,,,,METAR,1029
KPVJ 220415Z AUTO 11005KT 10SM BKN007 OVC013 14/14 A2986 RMK AO2 T01400140,KPVJ,2024-03-22T04:15:00Z,34.7041,-97.2211,14,14,110,5,,10+,29.86,,,TRUE,TRUE,,,,,,,BKN,700,OVC,1300,,,,,IFR,,,,,,,,,,,,METAR,287
KPVF 220415Z AUTO 00000KT 10SM CLR 12/07 A3013 RMK AO1,KPVF,2024-03-22T04:15:00Z,38.7222,-120.757,12,7,0,0,,10+,30.13,,,TRUE,TRUE,,,,,,,CLR,,,,,,,,VFR,,,,,,,,,,,,METAR,788
KPVE 220415Z AUTO 05004KT 10SM FEW070 BKN075 OVC100 16/01 A3002 RMK A01,KPVE,2024-03-22T04:15:00Z,35.6592,-88.1929,16,1,50,4,,10+,30.02,,,TRUE,TRUE,,,,,,,FEW,7000,BKN,7500,OVC,10000,,,VFR,,,,,,,,,,,,METAR,146
KPVB 220415Z AUTO 09009KT 10SM BKN060 OVC080 02/M10 A3012 RMK AO1 T00201096,KPVB,2024-03-22T04:15:00Z,42.6909,-90.4413,2,-9.6,90,9,,10+,30.12,,,TRUE,TRUE,,,,,,,BKN,6000,OVC,8000,,,,,VFR,,,,,,,,,,,,METAR,311
KPUJ 220415Z AUTO 00000KT 10SM SCT120 17/02 A3006 RMK AO2,KPUJ,2024-03-22T04:15:00Z,33.9085,-84.9369,17,2,0,0,,10+,30.06,,,TRUE,TRUE,,,,,,,SCT,12000,,,,,,,VFR,,,,,,,,,,,,METAR,385
KPTS 220415Z AUTO 00000KT 10SM CLR 13/04 A2994 RMK AO2 T01280039 PWINO,KPTS,2024-03-22T04:15:00Z,37.4512,-94.7322,12.8,3.9,0,0,,10+,29.94,,,TRUE,TRUE,,,,,TRUE,,CLR,,,,,,,,VFR,,,,,,,,,,,,METAR,286
KPTD 220415Z AUTO 29005G10KT 10SM FEW031 BKN037 OVC095 M08/M17 A3030 RMK AO2,KPTD,2024-03-22T04:15:00Z,44.6757,-74.9469,-8,-17,290,5,10,10+,30.30,,,TRUE,TRUE,,,,,,,FEW,3100,BKN,3700,OVC,9500,,,VFR,,,,,,,,,,,,METAR,144
KPTB 220415Z AUTO 07004KT 10SM CLR 05/00 A3028 RMK AO2 T00451003,KPTB,2024-03-22T04:15:00Z,37.1803,-77.5081,4.5,-0.3,70,4,,10+,30.28,,,TRUE,TRUE,,,,,,,CLR,,,,,,,,VFR,,,,,,,,,,,,METAR,56
KPSX 220415Z AUTO 00000KT 8SM FEW010 SCT025 OVC032 19/19 A2984 RMK AO2 T01940189,KPSX,2024-03-22T04:15:00Z,28.7248,-96.2535,19.4,18.9,0,0,,8,29.84,,,TRUE,TRUE,,,,,,,FEW,1000,SCT,2500,OVC,3200,,,VFR,,,,,,,,,,,,SPECI,4
KPSO 220415Z AUTO 00000KT 10SM CLR 06/M09 A3010 RMK AO2 T00631087,KPSO,2024-03-22T04:15:00Z,37.291,-107.056,6.3,-8.7,0,0,,10+,30.10,,,TRUE,TRUE,,,,,,,CLR,,,,,,,,VFR,,,,,,,,,,,,METAR,2332
KPSN 220415Z AUTO 10SM TS FEW005 SCT050 BKN065 14/14 A2982 RMK AO2 LTG DSNT S-W,KPSN,2024-03-22T04:15:00Z,31.7784,-95.7048,14,14,,,,10+,29.82,,,TRUE,TRUE,,,,,,TS,FEW,500,SCT,5000,BKN,6500,,,VFR,,,,,,,,,,,,METAR,124
KPSK 220415Z AUTO 00000KT 10SM BKN110 06/M06 A3019 RMK AO2 T00601059,KPSK,2024-03-22T04:15:00Z,37.1337,-80.6789,6,-5.9,0,0,,10+,30.19,,,TRUE,TRUE,,,,,,,BKN,11000,,,,,,,VFR,,,,,,,,,,,,METAR,629
KPRS 220415Z AUTO 33004KT 10SM CLR 14/00 A3004 RMK AO2 T01411005,KPRS,2024-03-22T04:15:00Z,29.6346,-104.358,14.1,-0.5,330,4,,10+,30.04,,,TRUE,TRUE,,,,,,,CLR,,,,,,,,VFR,,,,,,,,,,,,METAR,890
KPRO 220415Z AUTO 13013KT 10SM OVC075 07/M08 A2997 RMK AO2 T00721085,KPRO,2024-03-22T04:15:00Z,41.8278,-94.1637,7.2,-8.5,130,13,,10+,29.97,,,TRUE,TRUE,,,,,,,OVC,7500,,,,,,,VFR,,,,,,,,,,,,METAR,308
KPRG 220415Z AUTO 08007KT 10SM CLR 02/M07 A3015 RMK AO2 T00191071,KPRG,2024-03-22T04:15:00Z,39.6982,-87.6669,1.9,-7.1,80,7,,10+,30.15,,,TRUE,TRUE,,,,,,,CLR,,,,,,,,VFR,,,,,,,,,,,,METAR,197
KPPQ 220415Z AUTO 11007KT 10SM CLR 05/M04 A3008 RMK AO2 T00531040,KPPQ,2024-03-22T04:15:00Z,39.6391,-90.7818,5.3,-4,110,7,,10+,30.08,,,TRUE,TRUE,,,,,,,CLR,,,,,,,,VFR,,,,,,,,,,,,METAR,215
KPPO 220415Z AUTO 12005KT 10SM SCT110 M01/M09 A3021 RMK AO2 T10121089,KPPO,2024-03-22T04:15:00Z,41.5705,-86.7333,-1.2,-8.9,120,5,,10+,30.21,,,TRUE,TRUE,,,,,,,SCT,11000,,,,,,,VFR,,,,,,,,,,,,METAR,242
KPPA 220415Z AUTO 14008KT 10SM CLR 10/08 A2992 RMK AO2 T00990078,KPPA,2024-03-22T04:15:00Z,35.6139,-100.997,9.9,7.8,140,8,,10+,29.92,,,TRUE,TRUE,,,,,,,CLR,,,,,,,,VFR,,,,,,,,,,,,METAR,989
KPOY 220415Z AUTO 33009KT 10SM SCT090 02/M02 A2998 RMK AO2,KPOY,2024-03-22T04:15:00Z,44.8641,-108.79,2,-2,330,9,,10+,29.98,,,TRUE,TRUE,,,,,,,SCT,9000,,,,,,,VFR,,,,,,,,,,,,METAR,1547
KPOV 220415Z AUTO 08005KT 10SM CLR M05/M11 A3031 RMK AO2 T10531107 PWINO,KPOV,2024-03-22T04:15:00Z,41.209,-81.2479,-5.3,-10.7,80,5,,10+,30.31,,,TRUE,TRUE,,,,,TRUE,,CLR,,,,,,,,VFR,,,,,,,,,,,,METAR,363
KPO1 220415Z AUTO 03007KT 5SM UP BR FEW039 OVC060 M08/M08 A3021 RMK AO2,KPO1,2024-03-22T04:15:00Z,48.134,-105.162,-8,-8,30,7,,5,30.21,,,TRUE,TRUE,,,,,,BR UP,FEW,3900,OVC,6000,,,,,MVFR,,,,,,,,,,,,METAR,621
KPNT 220415Z AUTO 11009KT 10SM SCT120 02/M09 A3016 RMK AO2 T00201094,KPNT,2024-03-22T04:15:00Z,40.9233,-88.6213,2,-9.4,110,9,,10+,30.16,,,TRUE,TRUE,,,,,,,SCT,12000,,,,,,,VFR,,,,,,,,,,,,METAR,199
KPNA 220415Z AUTO 00000KT 10SM SCT055 M01/M04 A3009 RMK AO2,KPNA,2024-03-22T04:15:00Z,42.7929,-109.805,-1,-4,0,0,,10+,30.09,,,TRUE,TRUE,,,,,,,SCT,5500,,,,,,,VFR,,,,,,,,,,,,METAR,2158
KPMV 220415Z AUTO 13011KT 10SM CLR 08/M04 A2991 RMK AO2 T00751040,KPMV,2024-03-22T04:15:00Z,40.9446,-95.9124,7.5,-4,130,11,,10+,29.91,,,TRUE,TRUE,,,,,,,CLR,,,,,,,,VFR,,,,,,,,,,,,METAR,365
KPMU 220415Z AUTO 00000KT 10SM -DZ FEW050 SCT090 12/10 A2997 RMK AO2,KPMU,2024-03-22T04:15:00Z,34.3656,-89.8904,12,10,0,0,,10+,29.97,,,TRUE,TRUE,,,,,,-DZ,FEW,5000,SCT,9000,,,,,VFR,,,,,,,,,,,,METAR,67
KPLU 220415Z AUTO 00000KT 9SM -DZ FEW034 SCT040 OVC050 10/10 A3007 RMK AO2,KPLU,2024-03-22T04:15:00Z,47.1005,-122.285,10,10,0,0,,9,30.07,,,TRUE,TRUE,,,,,,-DZ,FEW,3400,SCT,4000,OVC,5000,,,VFR,,,,,,,,,,,,METAR,164
KPLR 220415Z AUTO 00000KT 10SM SCT030 BKN060 OVC110 14/11 A3004 RMK A01,KPLR,2024-03-22T04:15:00Z,33.5608,-86.2463,14,11,0,0,,10+,30.04,,,TRUE,TRUE,,,,,,,SCT,3000,BKN,6000,OVC,11000,,,VFR,,,,,,,,,,,,METAR,145
KPKV 220415Z AUTO 02003KT 5SM BR OVC006 21/20 A2986 RMK AO2 T02060196,KPKV,2024-03-22T04:15:00Z,28.6499,-96.6799,20.6,19.6,20,3,,5,29.86,,,TRUE,TRUE,,,,,,BR,OVC,600,,,,,,,IFR,,,,,,,,,,,,METAR,8
KPJC 220415Z AUTO 00000KT 10SM CLR M04/M09 A3032 RMK AO2,KPJC,2024-03-22T04:15:00Z,40.8009,-80.1624,-4,-9,0,0,,10+,30.32,,,TRUE,TRUE,,,,,,,CLR,,,,,,,,VFR,,,,,,,,,,,,METAR,273
KPIM 220415Z AUTO 19002KT 10SM BKN100 15/08 A3006 RMK AO2,KPIM,2024-03-22T04:15:00Z,32.8421,-84.8766,15,8,190,2,,10+,30.06,,,TRUE,TRUE,,,,,,,BKN,10000,,,,,,,VFR,,,,,,,,,,,,METAR,274
KPHT 220415Z AUTO 08006KT 10SM OVC075 12/M01 A3004 RMK A01,KPHT,2024-03-22T04:15:00Z,36.3322,-88.3871,12,-1,80,6,,10+,30.04,,,TRUE,TRUE,,,,,,,OVC,7500,,,,,,,VFR,,,,,,,,,,,,METAR,172
KPHN 220415Z AUTO 10003KT 10SM CLR M05/M10 A3033 RMK AO2,KPHN,2024-03-22T04:15:00Z,42.9103,-82.5332,-5,-10,100,3,,10+,30.33,,,TRUE,TRUE,,,,,,,CLR,,,,,,,,VFR,,,,,,,,,,,,METAR,195
KPEZ 220415Z AUTO 00000KT 10SM CLR 18/17 A2990 RMK AO2 T01790167,KPEZ,2024-03-22T04:15:00Z,28.9561,-98.5184,17.9,16.7,0,0,,10+,29.90,,,TRUE,TRUE,,,,,,,CLR,,,,,,,,VFR,,,,,,,,,,,,METAR,126
KPEQ 220415Z AUTO 24007KT 10SM CLR 16/M02 A2993 RMK AO2 T01581025,KPEQ,2024-03-22T04:15:00Z,31.382,-103.512,15.8,-2.5,240,7,,10+,29.93,,,TRUE,TRUE,,,,,,,CLR,,,,,,,,VFR,,,,,,,,,,,,METAR,794
KPEA 220415Z AUTO 12008KT 10SM OVC070 07/M06 A3002 RMK AO2 T00651064,KPEA,2024-03-22T04:15:00Z,41.3989,-92.9431,6.5,-6.4,120,8,,10+,30.02,,,TRUE,TRUE,,,,,,,OVC,7000,,,,,,,VFR,,,,,,,,,,,,METAR,264
KPDC 220415Z AUTO 05006KT 10SM UP SCT028 SCT034 OVC070 00/M04 A3014 RMK AO2 T10051041,KPDC,2024-03-22T04:15:00Z,43.0194,-91.1212,-0.5,-4.1,50,6,,10+,30.14,,,TRUE,TRUE,,,,,,UP,SCT,2800,SCT,3400,OVC,7000,,,VFR,,,,,,,,,,,,METAR,201
KPCZ 220415Z AUTO 10004KT 5SM -SN SCT008 BKN015 OVC023 M01/M05 A3022 RMK AO2 T10151052,KPCZ,2024-03-22T04:15:00Z,44.3342,-89.0203,-1.5,-5.2,100,4,,5,30.22,,,TRUE,TRUE,,,,,,-SN,SCT,800,BKN,1500,OVC,2300,,,MVFR,,,,,,,,,,,,METAR,248
KPCW 220415Z AUTO 13007KT 10SM CLR M02/M10 A3030 RMK AO2,KPCW,2024-03-22T04:15:00Z,41.5188,-82.8692,-2,-10,130,7,,10+,30.30,,,TRUE,TRUE,,,,,,,CLR,,,,,,,,VFR,,,,,,,,,,,,METAR,179
KPCM 220415Z AUTO 13008KT 10SM CLR 22/19 A3007 RMK AO2,KPCM,2024-03-22T04:15:00Z,28.0013,-82.1593,22,19,130,8,,10+,30.07,,,TRUE,TRUE,,,,,,,CLR,,,,,,,,VFR,,,,,,,,,,,,METAR,43
KPCD 220415Z AUTO 00000KT 10SM CLR 05/M05 A3007 RMK AO2 T00511049,KPCD,2024-03-22T04:15:00Z,37.8749,-89.8582,5.1,-4.9,0,0,,10+,30.07,,,TRUE,TRUE,,,,,,,CLR,,,,,,,,VFR,,,,,,,,,,,,METAR,112
KPBX 220415Z AUTO 03005KT 10SM CLR 06/M10 A3018 RMK AO2 T00571098,KPBX,2024-03-22T04:15:00Z,37.5587,-82.5674,5.7,-9.8,30,5,,10+,30.18,,,TRUE,TRUE,,,,,,,CLR,,,,,,,,VFR,,,,,,,,,,,,METAR,447
KPBH 220415Z AUTO 18003KT 10SM BKN041 OVC060 M04/M11 A3016 RMK AO2 T10371111,KPBH,2024-03-22T04:15:00Z,45.7064,-90.4052,-3.7,-11.1,180,3,,10+,30.16,,,TRUE,TRUE,,,,,,,BKN,4100,OVC,6000,,,,,VFR,,,,,,,,,,,,METAR,445
KPAN 220415Z AUTO 00000KT 10SM CLR 12/03 A3019 RMK AO2 PWINO TSNO,KPAN,2024-03-22T04:15:00Z,34.2551,-111.338,12,3,0,0,,10+,30.19,,,TRUE,TRUE,,,TRUE,,TRUE,,CLR,,,,,,,,VFR,,,,,,,,,,,,METAR,1575
KOZW 220415Z AUTO 00000KT 10SM CLR M04/M10 A3028 RMK AO2 T10451099,KOZW,2024-03-22T04:15:00Z,42.6327,-83.9854,-4.5,-9.9,0,0,,10+,30.28,,,TRUE,TRUE,,,,,,,CLR,,,,,,,,VFR,,,,,,,,,,,,METAR,288
KOZS 220415Z AUTO 14006KT 10SM CLR 11/M02 A3000 RMK AO2,KOZS,2024-03-22T04:15:00Z,37.9745,-92.6897,11,-2,140,6,,10+,30.00,,,TRUE,TRUE,,,,,,,CLR,,,,,,,,VFR,,,,,,,,,,,,METAR,321
KOZA 220415Z AUTO 02003KT 10SM CLR 10/04 A2994 RMK AO2,KOZA,2024-03-22T04:15:00Z,30.7312,-101.203,10,4,20,3,,10+,29.94,,,TRUE,TRUE,,,,,,,CLR,,,,,,,,VFR,,,,,,,,,,,,METAR,721
KOYM 220415Z AUTO 00000KT 10SM BKN110 M06/M11 A3031 RMK AO2 PWINO,KOYM,2024-03-22T04:15:00Z,41.4118,-78.5131,-6,-11,0,0,,10+,30.31,,,TRUE,TRUE,,,,,TRUE,,BKN,11000,,,,,,,VFR,,,,,,,,,,,,METAR,582
KOYE 220415Z AUTO 06020G29KT 5SM BR SCT013 BKN018 BKN026 19/17 A2986 RMK A01,KOYE,2024-03-22T04:15:00Z,28.8669,-90.4911,19,17,60,20,29,5,29.86,,,TRUE,TRUE,,,,,,BR,SCT,1300,BKN,1800,BKN,2600,,,MVFR,,,,,,,,,,,,METAR,30
KOXV 220415Z AUTO 12006KT 10SM SCT070 BKN120 OVC140 06/M07 A3000 RMK AO2,KOXV,2024-03-22T04:15:00Z,41.2984,-93.1114,6,-7,120,6,,10+,30.00,,,TRUE,TRUE,,,,,,,SCT,7000,BKN,12000,OVC,14000,,,VFR,,,,,,,,,,,,METAR,280
KOXI 220415Z AUTO 12007KT 10SM BKN110 00/M12 A3021 RMK AO1,KOXI,2024-03-22T04:15:00Z,41.3275,-86.665,0,-12,120,7,,10+,30.21,,,TRUE,TRUE,,,,,,,BKN,11000,,,,,,,VFR,,,,,,,,,,,,METAR,208
KOWX 220415Z AUTO 12008KT 10SM CLR M01/M10 A3107 RMK AO1,KOWX,2024-03-22T04:15:00Z,41.0341,-83.9862,-1,-10,120,8,,10+,31.07,,,TRUE,TRUE,,,,,,,CLR,,,,,,,,VFR,,,,,,,,,,,,METAR,232
KOWP 220415Z AUTO 14004KT 10SM SCT065 OVC080 15/13 A2996 RMK AO2 T01490131,KOWP,2024-03-22T04:15:00Z,36.1721,-96.1536,14.9,13.1,140,4,,10+,29.96,,,TRUE,TRUE,,,,,,,SCT,6500,OVC,8000,,,,,VFR,,,,,,,,,,,,METAR,267
KOWI 220415Z AUTO 12008KT CLR 09/02 A2991 RMK AO2,KOWI,2024-03-22T04:15:00Z,38.5409,-95.2542,9,2,120,8,,,29.91,,,TRUE,TRUE,,,,,,,CLR,,,,,,,,VFR,,,,,,,,,,,,METAR,292
KOVL 220415Z AUTO 09006KT 1SM SN BKN004 M04/M05 A3016 RMK AO2,KOVL,2024-03-22T04:15:00Z,44.7792,-95.0304,-4,-5,90,6,,1,30.16,,,TRUE,TRUE,,,,,,SN,BKN,400,,,,,,,LIFR,,,,,,,,,,,,METAR,329
KOUN 220415Z AUTO 11012KT 5SM -RA BR BKN005 BKN014 OVC080 13/12 A2986 RMK AO2 P0003 T01330125,KOUN,2024-03-22T04:15:00Z,35.2436,-97.4713,13.3,12.5,110,12,,5,29.86,,,TRUE,TRUE,,,,,,-RA BR,BKN,500,BKN,1400,OVC,8000,,,IFR,,,,,,0.03,,,,,,METAR,359
KOSC 220415Z AUTO 11005KT 10SM CLR M02/M08 A3031 RMK AO2 T10251084,KOSC,2024-03-22T04:15:00Z,44.453,-83.396,-2.5,-8.4,110,5,,10+,30.31,,,TRUE,TRUE,,,,,,,CLR,,,,,,,,VFR,,,,,,,,,,,,METAR,191
KOSA 220415Z AUTO 13006KT 10SM OVC020 13/ A2992 RMK AO2 T0131////,KOSA,2024-03-22T04:15:00Z,33.0936,-94.9601,13.1,,130,6,,10+,29.92,,,TRUE,TRUE,,,,,,,OVC,2000,,,,,,,MVFR,,,,,,,,,,,,METAR,108
KORS 220415Z AUTO 00000KT 10SM BKN075 OVC085 09/08 A3006 RMK AO2,KORS,2024-03-22T04:15:00Z,48.7081,-122.909,9,8,0,0,,10+,30.06,,,TRUE,TRUE,,,,,,,BKN,7500,OVC,8500,,,,,VFR,,,,,,,,,,,,METAR,7
KORK 220415Z AUTO 07006KT 10SM OVC055 14/09 A2996 RMK AO2,KORK,2024-03-22T04:15:00Z,34.833,-92.2557,14,9,70,6,,10+,29.96,,,TRUE,TRUE,,,,,,,OVC,5500,,,,,,,VFR,,,,,,,,,,,,METAR,166
KORG 220415Z AUTO 09010KT 10SM OVC009 16/14 A2987 RMK AO2 LTG DSNT W P0001 T01550139,KORG,2024-03-22T04:15:00Z,30.068,-93.8043,15.5,13.9,90,10,,10+,29.87,,,TRUE,TRUE,,,,,,,OVC,900,,,,,,,IFR,,,,,,0.01,,,,,,METAR,2
KOQN 220415Z AUTO 00000KT 10SM CLR 01/M12 A3030 RMK AO2,KOQN,2024-03-22T04:15:00Z,39.9889,-75.5803,1,-12,0,0,,10+,30.30,,,TRUE,TRUE,,,,,,,CLR,,,,,,,,VFR,,,,,,,,,,,,METAR,141
KOPN 220415Z AUTO 00000KT 10SM CLR 14/05 A3008 RMK AO2 PNO,KOPN,2024-03-22T04:15:00Z,32.954,-84.2595,14,5,0,0,,10+,30.08,,,TRUE,TRUE,,,,,,,CLR,,,,,,,,VFR,,,,,,,,,,,,METAR,241
KOOA 220415Z AUTO 12008KT 10SM SCT060 OVC070 08/M05 A3003 RMK AO2 T00751049,KOOA,2024-03-22T04:15:00Z,41.2273,-92.4919,7.5,-4.9,120,8,,10+,30.03,,,TRUE,TRUE,,,,,,,SCT,6000,OVC,7000,,,,,VFR,,,,,,,,,,,,METAR,256
KONZ 220415Z AUTO 09004KT 10SM CLR M01/M09 A3030 RMK AO2 T10081093,KONZ,2024-03-22T04:15:00Z,42.0991,-83.161,-0.8,-9.3,90,4,,10+,30.30,,,TRUE,TRUE,,,,,,,CLR,,,,,,,,VFR,,,,,,,,,,,,METAR,179
KONP 220415Z AUTO 00000KT 10/08 A3005 RMK AO2 PWINO,KONP,2024-03-22T04:15:00Z,44.5825,-124.057,10,8,0,0,,,30.05,,,TRUE,TRUE,,,,,TRUE,,,,,,,,,,VFR,,,,,,,,,,,,METAR,43
KONM 220415Z AUTO 29015G22KT 10SM CLR 16/M03 A3003 RMK AO2 T01601030,KONM,2024-03-22T04:15:00Z,34.0263,-106.904,16,-3,290,15,22,10+,30.03,,,TRUE,TRUE,,,,,,,CLR,,,,,,,,VFR,,,,,,,,,,,,METAR,1467
KONL 220415Z AUTO 06008KT 10SM VCTSRA OVC060 05/M03 A2991 RMK AO2 LTG DSNT SW T00461035,KONL,2024-03-22T04:15:00Z,42.4691,-98.6903,4.6,-3.5,60,8,,10+,29.91,,,TRUE,TRUE,,,,,,VCTSRA,OVC,6000,,,,,,,VFR,,,,,,,,,,,,METAR,619
KONA 220415Z AUTO 07003KT 1 1/4SM -SN BKN007 OVC013 M02/M04 A3021 RMK AO2,KONA,2024-03-22T04:15:00Z,44.076,-91.707,-2,-4,70,3,,1.25,30.21,,,TRUE,TRUE,,,,,,-SN,BKN,700,OVC,1300,,,,,IFR,,,,,,,,,,,,METAR,200
KOMH 220415Z AUTO 00000KT 10SM CLR 00/M05 A3031 RMK AO2,KOMH,2024-03-22T04:15:00Z,38.2487,-78.0454,0,-5,0,0,,10+,30.31,,,TRUE,TRUE,,,,,,,CLR,,,,,,,,VFR,,,,,,,,,,,,METAR,136
KOLZ 220415Z AUTO 09012KT 10SM OVC060 01/M13 A3008 RMK A01,KOLZ,2024-03-22T04:15:00Z,42.6831,-91.976,1,-13,90,12,,10+,30.08,,,TRUE,TRUE,,,,,,,OVC,6000,,,,,,,VFR,,,,,,,,,,,,METAR,328
KOLY 220415Z AUTO 08007KT 10SM CLR 05/M06 A3013 RMK AO2 T00501061,KOLY,2024-03-22T04:15:00Z,38.7213,-88.1799,5,-6.1,80,7,,10+,30.13,,,TRUE,TRUE,,,,,,,CLR,,,,,,,,VFR,,,,,,,,,,,,METAR,144
KOLV 220415Z AUTO 00000KT 10SM BKN095 16/04 A2998 RMK A01,KOLV,2024-03-22T04:15:00Z,34.9808,-89.7851,16,4,0,0,,10+,29.98,,,TRUE,TRUE,,,,,,,BKN,9500,,,,,,,VFR,,,,,,,,,,,,METAR,124
KOLG 220415Z AUTO 16003KT 10SM SCT049 OVC055 M03/M16 A3020 RMK AO1,KOLG,2024-03-22T04:15:00Z,46.3153,-91.8183,-3,-16,160,3,,10+,30.20,,,TRUE,TRUE,,,,,,,SCT,4900,OVC,5500,,,,,VFR,,,,,,,,,,,,METAR,334
KOLE 220415Z AUTO 00000KT 10SM -SN SCT010 SCT017 OVC030 M07/M11 A3025 RMK AO2,KOLE,2024-03-22T04:15:00Z,42.2429,-78.3721,-7,-11,0,0,,10+,30.25,,,TRUE,TRUE,,,,,,-SN,SCT,1000,SCT,1700,OVC,3000,,,MVFR,,,,,,,,,,,,METAR,651
KOKZ 220415Z AUTO 12008KT 10SM CLR 17/06 A3010 RMK AO2 T01670062,KOKZ,2024-03-22T04:15:00Z,32.9651,-82.8387,16.7,6.2,120,8,,10+,30.10,,,TRUE,TRUE,,,,,,,CLR,,,,,,,,VFR,,,,,,,,,,,,METAR,128
KOKV 220415Z AUTO 00000KT 10SM CLR 00/M10 A3028 RMK AO2,KOKV,2024-03-22T04:15:00Z,39.1406,-78.1391,0,-10,0,0,,10+,30.28,,,TRUE,TRUE,,,,,,,CLR,,,,,,,,VFR,,,,,,,,,,,,METAR,213
KOKM 220415Z AUTO 07005KT 10SM -RA SCT060 BKN075 OVC090 13/13 A2992 RMK AO2 P0001 T01320132,KOKM,2024-03-22T04:15:00Z,35.6713,-95.9514,13.2,13.2,70,5,,10+,29.92,,,TRUE,TRUE,,,,,,-RA,SCT,6000,BKN,7500,OVC,9000,,,VFR,,,,,,0.01,,,,,,METAR,215
KOJA 220415Z AUTO 07004KT 10SM BKN032 OVC080 13/11 A2991 RMK AO2 T01250111,KOJA,2024-03-22T04:15:00Z,35.5484,-98.6702,12.5,11.1,70,4,,10+,29.91,,,TRUE,TRUE,,,,,,,BKN,3200,OVC,8000,,,,,VFR,,,,,,,,,,,,METAR,490
KOIN 220415Z AUTO 24007KT 10SM CLR 10/04 A2986 RMK AO1 T00980043,KOIN,2024-03-22T04:15:00Z,39.8298,-100.538,9.8,4.3,240,7,,10+,29.86,,,TRUE,TRUE,,,,,,,CLR,,,,,,,,VFR,,,,,,,,,,,,METAR,810
KOIC 220415Z AUTO 33003KT 10SM SCT038 OVC044 M05/M11 A3031 RMK AO2 T10501114,KOIC,2024-03-22T04:15:00Z,42.5642,-75.5269,-5,-11.4,330,3,,10+,30.31,,,TRUE,TRUE,,,,,,,SCT,3800,OVC,4400,,,,,VFR,,,,,,,,,,,,METAR,311
KOGS 220415Z AUTO 34009KT 10SM CLR M07/M16 A3031 RMK AO2,KOGS,2024-03-22T04:15:00Z,44.68,-75.4641,-7,-16,340,9,,10+,30.31,,,TRUE,TRUE,,,,,,,CLR,,,,,,,,VFR,,,,,,,,,,,,METAR,88
KOGA 220415Z AUTO 35030G37KT 10SM CLR 07/M04 A2986 RMK AO2 T00671040,KOGA,2024-03-22T04:15:00Z,41.1164,-101.768,6.7,-4,350,30,37,10+,29.86,,,TRUE,TRUE,,,,,,,CLR,,,,,,,,VFR,,,,,,,,,,,,METAR,991
KOEO 220415Z AUTO 05003KT 1/2SM +SN OVC006 M03/M03 A3025 RMK AO2 T10351035,KOEO,2024-03-22T04:15:00Z,45.3108,-92.6948,-3.5,-3.5,50,3,,0.5,30.25,,,TRUE,TRUE,,,,,,+SN,OVC,600,,,,,,,LIFR,,,,,,,,,,,,METAR,269
KOEL 220415Z AUTO 21008KT 10SM CLR 08/03 A2985 RMK AO1 T00780028,KOEL,2024-03-22T04:15:00Z,39.1139,-100.819,7.8,2.8,210,8,,10+,29.85,,,TRUE,TRUE,,,,,,,CLR,,,,,,,,VFR,,,,,,,,,,,,METAR,924
KOEB 220415Z AUTO 16003KT 10SM OVC100 M01/M09 A3025 RMK AO2 T10111095,KOEB,2024-03-22T04:15:00Z,41.9308,-85.0544,-1.1,-9.5,160,3,,10+,30.25,,,TRUE,TRUE,,,,,,,OVC,10000,,,,,,,VFR,,,,,,,,,,,,METAR,291
KOCQ 220415Z AUTO 18006KT 10SM SCT100 BKN120 M02/M10 A3024 RMK AO1 T10181100,KOCQ,2024-03-22T04:15:00Z,44.8749,-87.9084,-1.8,-10,180,6,,10+,30.24,,,TRUE,TRUE,,,,,,,SCT,10000,BKN,12000,,,,,VFR,,,,,,,,,,,,METAR,181
KOBE 220415Z AUTO VRB04KT 10SM CLR 20/17 A3005 RMK AO2,KOBE,2024-03-22T04:15:00Z,27.2663,-80.8487,20,17,VRB,4,,10+,30.05,,,TRUE,TRUE,,,,,,,CLR,,,,,,,,VFR,,,,,,,,,,,,METAR,11
KOAR 220415Z AUTO 29004KT 10SM OVC011 12/11 A3012 RMK AO2,KOAR,2024-03-22T04:15:00Z,36.6815,-121.757,12,11,290,4,,10+,30.12,,,TRUE,TRUE,,,,,,,OVC,1100,,,,,,,MVFR,,,,,,,,,,,,METAR,41
KO86 220415Z AUTO 27006KT 10SM CLR 08/03 A3008 RMK A01,KO86,2024-03-22T04:15:00Z,40.9845,-122.693,8,3,270,6,,10+,30.08,,,TRUE,TRUE,,,,,,,CLR,,,,,,,,VFR,,,,,,,,,,,,METAR,729
KO69 220415Z AUTO 34005KT 10SM CLR 10/10 A3011 RMK A01,KO69,2024-03-22T04:15:00Z,38.2601,-122.607,10,10,340,5,,10+,30.11,,,TRUE,TRUE,,,,,,,CLR,,,,,,,,VFR,,,,,,,,,,,,METAR,26
KO54 220415Z AUTO 03004KT 10SM CLR 08/04 A3007 RMK A01,KO54,2024-03-22T04:15:00Z,40.746,-122.922,8,4,30,4,,10+,30.07,,,TRUE,TRUE,,,,,,,CLR,,,,,,,,VFR,,,,,,,,,,,,METAR,693
KO32 220415Z AUTO 34004KT 8SM CLR 16/11 A3006 RMK AO2 T01590115 $,KO32,2024-03-22T04:15:00Z,36.6691,-119.453,15.9,11.5,340,4,,8,30.06,,,TRUE,TRUE,TRUE,,,,,,CLR,,,,,,,,VFR,,,,,,,,,,,,METAR,117
KO22 220415Z AUTO 00000KT 10SM CLR 10/06 A3009 RMK A01,KO22,2024-03-22T04:15:00Z,38.03,-120.415,10,6,0,0,,10+,30.09,,,TRUE,TRUE,,,,,,,CLR,,,,,,,,VFR,,,,,,,,,,,,METAR,637
KO05 220415Z AUTO 00000KT 10SM SCT050 04/M00 A3013 RMK A01,KO05,2024-03-22T04:15:00Z,40.2865,-121.243,4,0,0,0,,10+,30.13,,,TRUE,TRUE,,,,,,,SCT,5000,,,,,,,VFR,,,,,,,,,,,,METAR,1380
KNUQ 220415Z AUTO 36007KT 10SM CLR 14/12 A3010 RMK AO2,KNUQ,2024-03-22T04:15:00Z,37.4059,-122.049,14,12,360,7,,10+,30.10,,,TRUE,TRUE,,,,,,,CLR,,,,,,,,VFR,,,,,,,,,,,,METAR,9
KNRN 220415Z AUTO 19008KT 10SM CLR 12/04 A2984 RMK AO2,KNRN,2024-03-22T04:15:00Z,39.8497,-99.8915,12,4,190,8,,10+,29.84,,,TRUE,TRUE,,,,,,,CLR,,,,,,,,VFR,,,,,,,,,,,,METAR,726
KN79 220415Z AUTO 34004KT 10SM CLR M02/M12 A3031 RMK AO2 T10241121,KN79,2024-03-22T04:15:00Z,40.8371,-76.546,-2.4,-12.1,340,4,,10+,30.31,,,TRUE,TRUE,,,,,,,CLR,,,,,,,,VFR,,,,,,,,,,,,METAR,269
KN38 220415Z AUTO 30005KT 10SM CLR M07/M13 A3026 RMK AO2,KN38,2024-03-22T04:15:00Z,41.7287,-77.3958,-7,-13,300,5,,10+,30.26,,,TRUE,TRUE,,,,,,,CLR,,,,,,,,VFR,,,,,,,,,,,,METAR,576
KN03 220415Z AUTO 25004KT 10SM OVC046 M05/M11 A3029 RMK AO2,KN03,2024-03-22T04:15:00Z,42.5929,-76.2174,-5,-11,250,4,,10+,30.29,,,TRUE,TRUE,,,,,,,OVC,4600,,,,,,,VFR,,,,,,,,,,,,METAR,361
KMZZ 220415Z AUTO 08006KT 10SM CLR M01/M09 A3022 RMK AO2 T10101086,KMZZ,2024-03-22T04:15:00Z,40.4863,-85.6859,-1,-8.6,80,6,,10+,30.22,,,TRUE,TRUE,,,,,,,CLR,,,,,,,,VFR,,,,,,,,,,,,METAR,260
KMZJ 220415Z AUTO 00000KT 10SM FEW034 SCT042 BKN050 16/03 A3007 RMK AO2,KMZJ,2024-03-22T04:15:00Z,32.5147,-111.335,16,3,0,0,,10+,30.07,,,TRUE,TRUE,,,,,,,FEW,3400,SCT,4200,BKN,5000,,,VFR,,,,,,,,,,,,METAR,574
KMZH 220415Z AUTO 20004KT 7SM -SN SCT035 SCT043 OVC048 M02/M09 A3021 RMK AO2,KMZH,2024-03-22T04:15:00Z,46.4163,-92.8049,-2,-9,200,4,,7,30.21,,,TRUE,TRUE,,,,,,-SN,SCT,3500,SCT,4300,OVC,4800,,,VFR,,,,,,,,,,,,METAR,331
KMYZ 220415Z AUTO 13007KT 10SM CLR 07/00 A2989 RMK AO2,KMYZ,2024-03-22T04:15:00Z,39.8544,-96.6279,7,0,130,7,,10+,29.89,,,TRUE,TRUE,,,,,,,CLR,,,,,,,,VFR,,,,,,,,,,,,METAR,388
KMYJ 220415Z AUTO 12004KT 10SM CLR 03/M02 A3003 RMK AO2,KMYJ,2024-03-22T04:15:00Z,39.1561,-91.8129,3,-2,120,4,,10+,30.03,,,TRUE,TRUE,,,,,,,CLR,,,,,,,,VFR,,,,,,,,,,,,METAR,249
KMXO 220415Z AUTO 09009KT 10SM BKN075 OVC090 03/M08 A3007 RMK AO2,KMXO,2024-03-22T04:15:00Z,42.2203,-91.1604,3,-8,90,9,,10+,30.07,,,TRUE,TRUE,,,,,,,BKN,7500,OVC,9000,,,,,VFR,,,,,,,,,,,,METAR,251
KMWO 220415Z AUTO 01003KT 10SM CLR 00/M09 A3023 RMK AO2 T10011091,KMWO,2024-03-22T04:15:00Z,39.5324,-84.3973,-0.1,-9.1,10,3,,10+,30.23,,,TRUE,TRUE,,,,,,,CLR,,,,,,,,VFR,,,,,,,,,,,,METAR,197
KMWM 220415Z AUTO 06012KT 10SM OVC065 M02/M08 A3010 RMK AO2,KMWM,2024-03-22T04:15:00Z,43.91,-95.1073,-2,-8,60,12,,10+,30.10,,,TRUE,TRUE,,,,,,,OVC,6500,,,,,,,VFR,,,,,,,,,,,,METAR,427
KMWC 220415Z AUTO 10005KT 10SM SCT038 BKN048 OVC060 00/M06 A3024 RMK AO2,KMWC,2024-03-22T04:15:00Z,43.1095,-88.0343,0,-6,100,5,,10+,30.24,,,TRUE,TRUE,,,,,,,SCT,3800,BKN,4800,OVC,6000,,,VFR,,,,,,,,,,,,METAR,225
KMWA 220415Z AUTO 05004KT 10SM CLR 06/M06 A3008 RMK AO2 T00571061,KMWA,2024-03-22T04:15:00Z,37.7544,-89.0118,5.7,-6.1,50,4,,10+,30.08,,,TRUE,TRUE,,,,,,,CLR,,,,,,,,VFR,,,,,,,,,,,,METAR,142
KMVH 220415Z AUTO 33015KT 10SM BKN009 OVC012 M04/M06 A3008 RMK AO2,KMVH,2024-03-22T04:15:00Z,46.838,-108.936,-4,-6,330,15,,10+,30.08,,,TRUE,TRUE,,,,,,,BKN,900,OVC,1200,,,,,IFR,,,,,,,,,,,,METAR,1352
KMVE 220415Z AUTO 08010KT 2SM -SN BKN007 BKN012 OVC020 M04/M04 A3017 RMK AO2,KMVE,2024-03-22T04:15:00Z,44.9675,-95.7116,-4,-4,80,10,,2,30.17,,,TRUE,TRUE,,,,,,-SN,BKN,700,BKN,1200,OVC,2000,,,IFR,,,,,,,,,,,,METAR,319
KMUT 220415Z AUTO 13008KT 10SM BKN060 OVC075 06/M07 A3010 RMK AO2,KMUT,2024-03-22T04:15:00Z,41.367,-91.1406,6,-7,130,8,,10+,30.10,,,TRUE,TRUE,,,,,,,BKN,6000,OVC,7500,,,,,VFR,,,,,,,,,,,,METAR,166
KMTV 220415Z AUTO 00000KT 10SM CLR 04/M03 A3023 RMK AO2 T00431031,KMTV,2024-03-22T04:15:00Z,36.6272,-80.0134,4.3,-3.1,0,0,,10+,30.23,,,TRUE,TRUE,,,,,,,CLR,,,,,,,,VFR,,,,,,,,,,,,METAR,276
KMTK 220415Z AUTO 13024KT 10SM FEW018 SCT080 OVC120 20/16 A2993 RMK A01,KMTK,2024-03-22T04:15:00Z,28.6967,-89.3958,20,16,130,24,,10+,29.93,,,TRUE,TRUE,,,,,,,FEW,1800,SCT,8000,OVC,12000,,,VFR,,,,,,,,,,,,METAR,50
KMRT 220415Z AUTO 09005KT 10SM CLR M02/M34 A3025 RMK AO2 T10161337,KMRT,2024-03-22T04:15:00Z,40.2237,-83.3475,-1.6,-33.7,90,5,,10+,30.25,,,TRUE,TRUE,,,,,,,CLR,,,,,,,,VFR,,,,,,,,,,,,METAR,302
KMRJ 220415Z AUTO 10006KT 10SM SCT043 SCT049 BKN060 00/M09 A3015 RMK AO2 PWINO,KMRJ,2024-03-22T04:15:00Z,42.8875,-90.2315,0,-9,100,6,,10+,30.15,,,TRUE,TRUE,,,,,TRUE,,SCT,4300,SCT,4900,BKN,6000,,,VFR,,,,,,,,,,,,METAR,350
KMQS 220415Z AUTO 34006KT 10SM CLR 00/M12 A3030 RMK AO2,KMQS,2024-03-22T04:15:00Z,39.9773,-75.8605,0,-12,340,6,,10+,30.30,,,TRUE,TRUE,,,,,,,CLR,,,,,,,,VFR,,,,,,,,,,,,METAR,200
KMQJ 220415Z AUTO 05004KT 10SM CLR M01/M09 A3020 RMK AO2 T10131091,KMQJ,2024-03-22T04:15:00Z,39.8402,-85.894,-1.3,-9.1,50,4,,10+,30.20,,,TRUE,TRUE,,,,,,,CLR,,,,,,,,VFR,,,,,,,,,,,,METAR,262
KMQB 220415Z AUTO 13015KT 10SM OVC060 05/M08 A3010 RMK AO2 T00511077,KMQB,2024-03-22T04:15:00Z,40.5176,-90.6481,5.1,-7.7,130,15,,10+,30.10,,,TRUE,TRUE,,,,,,,OVC,6000,,,,,,,VFR,,,,,,,,,,,,METAR,205
KMPZ 220415Z AUTO 13010KT 10SM SCT065 06/M04 A3005 RMK AO2,KMPZ,2024-03-22T04:15:00Z,40.9453,-91.5122,6,-4,130,10,,10+,30.05,,,TRUE,TRUE,,,,,,,SCT,6500,,,,,,,VFR,,,,,,,,,,,,METAR,222
KMPR 220415Z AUTO 17007KT 10SM CLR 09/07 A2990 RMK AO2 T00940073,KMPR,2024-03-22T04:15:00Z,38.3491,-97.6883,9.4,7.3,170,7,,10+,29.90,,,TRUE,TRUE,,,,,,,CLR,,,,,,,,VFR,,,,,,,,,,,,METAR,455
KMOX 220415Z AUTO 07007KT 1 1/2SM -SN BR SCT044 SCT055 M05/M05 A3016 RMK AO2 LTG DSNT N,KMOX,2024-03-22T04:15:00Z,45.5677,-95.9659,-5,-5,70,7,,1.5,30.16,,,TRUE,TRUE,,,,,,-SN BR,SCT,4400,SCT,5500,,,,,IFR,,,,,,,,,,,,METAR,346
KMOR 220415Z AUTO 06004KT 10SM CLR 10/M00 A3011 RMK A01,KMOR,2024-03-22T04:15:00Z,36.1746,-83.3853,10,0,60,4,,10+,30.11,,,TRUE,TRUE,,,,,,,CLR,,,,,,,,VFR,,,,,,,,,,,,METAR,393
KMOP 220415Z AUTO 00000KT 10SM CLR M04/M10 A3026 RMK AO2 T10381103,KMOP,2024-03-22T04:15:00Z,43.6229,-84.743,-3.8,-10.3,0,0,,10+,30.26,,,TRUE,TRUE,,,,,,,CLR,,,,,,,,VFR,,,,,,,,,,,,METAR,229
KMNZ 220415Z AUTO 21009KT 7SM CLR 13/13 RMK AO2 T01270127 TSNO,KMNZ,2024-03-22T04:15:00Z,31.6697,-98.1462,12.7,12.7,210,9,,7,0.00,,,TRUE,TRUE,,,TRUE,,,,CLR,,,,,,,,VFR,,,,,,,,,,,,METAR,397
KMNV 220415Z AUTO 00000KT 10SM SCT040 SCT050 13/00 A3009 RMK A01,KMNV,2024-03-22T04:15:00Z,35.5429,-84.3808,13,0,0,0,,10+,30.09,,,TRUE,TRUE,,,,,,,SCT,4000,SCT,5000,,,,,VFR,,,,,,,,,,,,METAR,306
KMNI 220415Z AUTO 12004KT 10SM CLR 11/10 A3018 RMK AO2,KMNI,2024-03-22T04:15:00Z,33.5882,-80.2059,11,10,120,4,,10+,30.18,,,TRUE,TRUE,,,,,,,CLR,,,,,,,,VFR,,,,,,,,,,,,METAR,29
KMNH 220415Z AUTO 26006KT 10SM CLR A3003 RMK AO2,KMNH,2024-03-22T04:15:00Z,39.2232,-104.642,,,260,6,,10+,30.03,,,TRUE,TRUE,,,,,,,CLR,,,,,,,,VFR,,,,,,,,,,,,METAR,2152
KMNE 220415Z AUTO 00000KT 10SM RA SCT027 BKN032 OVC100 13/09 A2995 RMK AO2,KMNE,2024-03-22T04:15:00Z,32.6433,-93.2972,13,9,0,0,,10+,29.95,,,TRUE,TRUE,,,,,,RA,SCT,2700,BKN,3200,OVC,10000,,,VFR,,,,,,,,,,,,METAR,84
KMMU 220415Z AUTO 33007KT 10SM CLR M01/M11 A3031 RMK AO2,KMMU,2024-03-22T04:15:00Z,40.7989,-74.4164,-1,-11,330,7,,10+,30.31,,,TRUE,TRUE,,,,,,,CLR,,,,,,,,VFR,,,,,,,,,,,,METAR,55
KMMI 220415Z AUTO 06003KT 10SM BKN043 OVC050 11/03 A3010 RMK A01,KMMI,2024-03-22T04:15:00Z,35.3952,-84.5612,11,3,60,3,,10+,30.10,,,TRUE,TRUE,,,,,,,BKN,4300,OVC,5000,,,,,VFR,,,,,,,,,,,,METAR,252
KMMH 220415Z AUTO 00000KT 10SM CLR 04/M03 A3017 RMK AO2 T00401034,KMMH,2024-03-22T04:15:00Z,37.6253,-118.838,4,-3.4,0,0,,10+,30.17,,,TRUE,TRUE,,,,,,,CLR,,,,,,,,VFR,,,,,,,,,,,,METAR,2167
KMLJ 220415Z AUTO VRB03KT 10SM CLR 18/08 A3008 RMK AO2,KMLJ,2024-03-22T04:15:00Z,33.153,-83.242,18,8,VRB,3,,10+,30.08,,,TRUE,TRUE,,,,,,,CLR,,,,,,,,VFR,,,,,,,,,,,,METAR,115
KMLE 220415Z AUTO 12007KT 10SM SCT060 08/M05 A2991 RMK AO2 T00771050,KMLE,2024-03-22T04:15:00Z,41.1981,-96.1131,7.7,-5,120,7,,10+,29.91,,,TRUE,TRUE,,,,,,,SCT,6000,,,,,,,VFR,,,,,,,,,,,,METAR,318
KMLC 220415Z AUTO 10005KT 4SM RA BR FEW014 BKN055 OVC070 14/13 A2990 RMK AO2 P0008 T01390128,KMLC,2024-03-22T04:15:00Z,34.8824,-95.7815,13.9,12.8,100,5,,4,29.90,,,TRUE,TRUE,,,,,,RA BR,FEW,1400,BKN,5500,OVC,7000,,,MVFR,,,,,,0.08,,,,,,SPECI,231
KMKS 220415Z AUTO 12003KT 10SM SCT006 12/11 A3017 RMK AO2,KMKS,2024-03-22T04:15:00Z,33.1874,-80.0363,12,11,120,3,,10+,30.17,,,TRUE,TRUE,,,,,,,SCT,600,,,,,,,VFR,,,,,,,,,,,,METAR,22
KMKN 220415Z AUTO 25008KT 4SM BR CLR 13/13 A2987 RMK AO2 T01280128,KMKN,2024-03-22T04:15:00Z,31.924,-98.5978,12.8,12.8,250,8,,4,29.87,,,TRUE,TRUE,,,,,,BR,CLR,,,,,,,,MVFR,,,,,,,,,,,,METAR,428
KMKJ 220415Z AUTO 00000KT 10SM SCT100 03/M03 A3022 RMK AO2 T00341031,KMKJ,2024-03-22T04:15:00Z,36.8944,-81.3449,3.4,-3.1,0,0,,10+,30.22,,,TRUE,TRUE,,,,,,,SCT,10000,,,,,,,VFR,,,,,,,,,,,,METAR,777
KMJQ 220415Z AUTO 05012G17KT 10SM OVC070 M02/M05 A3009 RMK AO2,KMJQ,2024-03-22T04:15:00Z,43.6496,-94.9885,-2,-5,50,12,17,10+,30.09,,,TRUE,TRUE,,,,,,,OVC,7000,,,,,,,VFR,,,,,,,,,,,,METAR,439
KMJD 220415Z AUTO 00000KT 10SM FEW100 13/13 A2993 RMK AO2,KMJD,2024-03-22T04:15:00Z,30.494,-89.6535,13,13,0,0,,10+,29.93,,,TRUE,TRUE,,,,,,,FEW,10000,,,,,,,VFR,,,,,,,,,,,,METAR,17
KMHR 220415Z AUTO 16006KT 10SM CLR 13/10 A3006 RMK AO2,KMHR,2024-03-22T04:15:00Z,38.56,-121.284,13,10,160,6,,10+,30.06,,,TRUE,TRUE,,,,,,,CLR,,,,,,,,VFR,,,,,,,,,,,,METAR,30
KMHP 220415Z AUTO 10006KT 10SM CLR 15/12 A3011 RMK AO2 T01520124,KMHP,2024-03-22T04:15:00Z,32.374,-82.079,15.2,12.4,100,6,,10+,30.11,,,TRUE,TRUE,,,,,,,CLR,,,,,,,,VFR,,,,,,,,,,,,METAR,60
KMHL 220415Z AUTO 11009KT 10SM CLR 07/M03 A2998 RMK AO2,KMHL,2024-03-22T04:15:00Z,39.093,-93.2024,7,-3,110,9,,10+,29.98,,,TRUE,TRUE,,,,,,,CLR,,,,,,,,VFR,,,,,,,,,,,,METAR,236
KMGR 220415Z AUTO 00000KT 10SM BKN100 17/08 A3008 RMK AO2 T01690081 $,KMGR,2024-03-22T04:15:00Z,31.0835,-83.8035,16.9,8.1,0,0,,10+,30.08,,,TRUE,TRUE,TRUE,,,,,,BKN,10000,,,,,,,VFR,,,,,,,,,,,,METAR,86
KMGN 220415Z AUTO 03003KT 10SM CLR M08/M13 A3029 RMK AO2 T10891134,KMGN,2024-03-22T04:15:00Z,45.4241,-84.913,-8.9,-13.4,30,3,,10+,30.29,,,TRUE,TRUE,,,,,,,CLR,,,,,,,,VFR,,,,,,,,,,,,METAR,205
KMGG 220415Z AUTO 00000KT 1 1/2SM -SN OVC009 M04/M05 A3022 RMK AO2 P0002 T10371051,KMGG,2024-03-22T04:15:00Z,45.2354,-93.9896,-3.7,-5.1,0,0,,1.5,30.22,,,TRUE,TRUE,,,,,,-SN,OVC,900,,,,,,,IFR,,,,,,0.02,,,,,,METAR,310
KMGC 220415Z AUTO 10SM SCT070 BKN100 00/M08 A3022 RMK AO2,KMGC,2024-03-22T04:15:00Z,41.7048,-86.8183,0,-8,,,,10+,30.22,,,TRUE,TRUE,,,,,,,SCT,7000,BKN,10000,,,,,VFR,,,,,,,,,,,,METAR,199
KMFV 220415Z AUTO 00000KT 10SM CLR M01/M04 A3031 RMK AO2 T10101037,KMFV,2024-03-22T04:15:00Z,37.646,-75.763,-1,-3.7,0,0,,10+,30.31,,,TRUE,TRUE,,,,,,,CLR,,,,,,,,VFR,,,,,,,,,,,,METAR,13
KMEZ 220415Z AUTO 00000KT 8SM -RA OVC035 12/12 A2995 RMK AO2 P0000 T01210121,KMEZ,2024-03-22T04:15:00Z,34.5414,-94.1918,12.1,12.1,0,0,,8,29.95,,,TRUE,TRUE,,,,,,-RA,OVC,3500,,,,,,,VFR,,,,,,0.005,,,,,,METAR,320
KMEV 220415Z AUTO VRB03KT 10SM CLR 11/M01 A3011 RMK AO2,KMEV,2024-03-22T04:15:00Z,38.9963,-119.75,11,-1,VRB,3,,10+,30.11,,,TRUE,TRUE,,,,,,,CLR,,,,,,,,VFR,,,,,,,,,,,,METAR,1437
KMDZ 220415Z AUTO 21003KT 3/4SM OVC010 M05/M06 A3018 RMK AO2 T10461061 PWINO,KMDZ,2024-03-22T04:15:00Z,45.1013,-90.3064,-4.6,-6.1,210,3,,0.75,30.18,,,TRUE,TRUE,,,,,TRUE,,OVC,1000,,,,,,,LIFR,,,,,,,,,,,,METAR,446
KMDQ 220415Z AUTO 01003KT 10SM OVC120 15/06 A3003 RMK A02 T01530055,KMDQ,2024-03-22T04:15:00Z,34.866,-86.559,15.3,5.5,10,3,,10+,30.03,,,TRUE,TRUE,,,,,,,OVC,12000,,,,,,,VFR,,,,,,,,,,,,METAR,221
KMDD 220415Z AUTO 25003KT 10SM CLR 15/04 A2993 RMK AO2 T01480040,KMDD,2024-03-22T04:15:00Z,32.0359,-102.1,14.8,4,250,3,,10+,29.93,,,TRUE,TRUE,,,,,,,CLR,,,,,,,,VFR,,,,,,,,,,,,METAR,853
KMCJ 220415Z AUTO 13010KT 8SM BKN014 OVC020 19/17 A2984 RMK A01,KMCJ,2024-03-22T04:15:00Z,29.7139,-95.3967,19,17,130,10,,8,29.84,,,TRUE,TRUE,,,,,,,BKN,1400,OVC,2000,,,,,MVFR,,,,,,,,,,,,METAR,70
KMCD 220415Z AUTO 06003KT 10SM CLR M05/M09 A3029 RMK AO2 T10471092,KMCD,2024-03-22T04:15:00Z,45.866,-84.634,-4.7,-9.2,60,3,,10+,30.29,,,TRUE,TRUE,,,,,,,CLR,,,,,,,,VFR,,,,,,,,,,,,METAR,228
KMCC 220415Z AUTO 17006KT 10SM CLR 15/10 A3007 RMK AO2,KMCC,2024-03-22T04:15:00Z,38.678,-121.403,15,10,170,6,,10+,30.07,,,TRUE,TRUE,,,,,,,CLR,,,,,,,,VFR,,,,,,,,,,,,METAR,21
KMCB 220415Z AUTO 00000KT 10SM BKN025 12/06 A2997 RMK AO2 T01170056,KMCB,2024-03-22T04:15:00Z,31.1823,-90.4721,11.7,5.6,0,0,,10+,29.97,,,TRUE,TRUE,,,,,,,BKN,2500,,,,,,,MVFR,,,,,,,,,,,,SPECI,124
KMBY 220415Z AUTO 11009KT 10SM CLR 05/M04 A3001 RMK AO2,KMBY,2024-03-22T04:15:00Z,39.464,-92.4244,5,-4,110,9,,10+,30.01,,,TRUE,TRUE,,,,,,,CLR,,,,,,,,VFR,,,,,,,,,,,,METAR,263
KMBT 220415Z AUTO 00000KT 10SM FEW029 FEW045 BKN065 14/M02 A3004 RMK A01,KMBT,2024-03-22T04:15:00Z,35.8767,-86.3793,14,-2,0,0,,10+,30.04,,,TRUE,TRUE,,,,,,,FEW,2900,FEW,4500,BKN,6500,,,VFR,,,,,,,,,,,,METAR,187
KMAW 220415Z AUTO 04005KT 10SM OVC100 12/M01 A3004 RMK AO1,KMAW,2024-03-22T04:15:00Z,36.5945,-89.9865,12,-1,40,5,,10+,30.04,,,TRUE,TRUE,,,,,,,OVC,10000,,,,,,,VFR,,,,,,,,,,,,METAR,88
KMAO 220415Z AUTO 14006KT 10SM CLR 11/08 A3019 RMK AO2,KMAO,2024-03-22T04:15:00Z,34.1852,-79.3341,11,8,140,6,,10+,30.19,,,TRUE,TRUE,,,,,,,CLR,,,,,,,,VFR,,,,,,,,,,,,METAR,27
KMAN 220415Z AUTO 00000KT 10SM CLR 09/02 A3004 RMK A01,KMAN,2024-03-22T04:15:00Z,43.582,-116.521,9,2,0,0,,10+,30.04,,,TRUE,TRUE,,,,,,,CLR,,,,,,,,VFR,,,,,,,,,,,,METAR,773
KM91 220415Z AUTO VRB03KT 10SM OVC080 10/M02 A3006 RMK A01,KM91,2024-03-22T04:15:00Z,36.5363,-86.919,10,-2,VRB,3,,10+,30.06,,,TRUE,TRUE,,,,,,,OVC,8000,,,,,,,VFR,,,,,,,,,,,,METAR,214
KM75 220415Z AUTO 02005KT 4SM BR SCT007 BKN030 OVC090 M06/M06 A3022 RMK A01,KM75,2024-03-22T04:15:00Z,48.3686,-107.919,-6,-6,20,5,,4,30.22,,,TRUE,TRUE,,,,,,BR,SCT,700,BKN,3000,OVC,9000,,,MVFR,,,,,,,,,,,,METAR,687
KM40 220415Z AUTO 00000KT 10SM OVC095 13/12 A3000 RMK AO2,KM40,2024-03-22T04:15:00Z,33.8755,-88.4872,13,12,0,0,,10+,30.00,,,TRUE,TRUE,,,,,,,OVC,9500,,,,,,,VFR,,,,,,,,,,,,METAR,68
KM30 220415Z AUTO 07003KT 10SM CLR 08/M05 A3007 RMK AO2 T00811051,KM30,2024-03-22T04:15:00Z,37.1824,-88.7487,8.1,-5.1,70,3,,10+,30.07,,,TRUE,TRUE,,,,,,,CLR,,,,,,,,VFR,,,,,,,,,,,,METAR,116
KM21 220415Z AUTO 08005KT 10SM CLR 08/M05 A3010 RMK AO2 T00831047,KM21,2024-03-22T04:15:00Z,37.2291,-87.1542,8.3,-4.7,80,5,,10+,30.10,,,TRUE,TRUE,,,,,,,CLR,,,,,,,,VFR,,,,,,,,,,,,METAR,127
KM02 220415Z AUTO 08006KT 10SM FEW044 SCT070 BKN075 12/M03 A3004 RMK A01,KM02,2024-03-22T04:15:00Z,36.1289,-87.4283,12,-3,80,6,,10+,30.04,,,TRUE,TRUE,,,,,,,FEW,4400,SCT,7000,BKN,7500,,,VFR,,,,,,,,,,,,METAR,268
KM01 220415Z AUTO 10005KT 5SM HZ OVC130 17/06 A2997 RMK AO2 T01690065 $,KM01,2024-03-22T04:15:00Z,35.2004,-90.0548,16.9,6.5,100,5,,5,29.97,,,TRUE,TRUE,TRUE,,,,,HZ,OVC,13000,,,,,,,MVFR,,,,,,,,,,,,METAR,68
KLYV 220415Z AUTO 07015G21KT 10SM OVC065 M01/M08 A3003 RMK AO2,KLYV,2024-03-22T04:15:00Z,43.6217,-96.214,-1,-8,70,15,21,10+,30.03,,,TRUE,TRUE,,,,,,,OVC,6500,,,,,,,VFR,,,,,,,,,,,,METAR,435
KLYO 220415Z AUTO 15010KT 10SM CLR 10/08 A2989 RMK AO2 T01050077,KLYO,2024-03-22T04:15:00Z,38.343,-98.2266,10.5,7.7,150,10,,10+,29.89,,,TRUE,TRUE,,,,,,,CLR,,,,,,,,VFR,,,,,,,,,,,,METAR,515
KLXY 220415Z AUTO 27006G16KT 7SM TSRA BKN005 OVC010 14/14 A2990 RMK AO2 LTG DSNT ALQS P0008 T01400136,KLXY,2024-03-22T04:15:00Z,31.6446,-96.5122,14,13.6,270,6,16,7,29.90,,,TRUE,TRUE,,,,,,TSRA,BKN,500,OVC,1000,,,,,IFR,,,,,,0.08,,,,,,METAR,164
KLXN 220415Z AUTO 15012KT 10SM CLR 11/04 A2978 RMK AO2 T01070035,KLXN,2024-03-22T04:15:00Z,40.7915,-99.775,10.7,3.5,150,12,,10+,29.78,,,TRUE,TRUE,,,,,,,CLR,,,,,,,,VFR,,,,,,,,,,,,METAR,734
KLXL 220415Z AUTO 00000KT 1 1/4SM SN OVC007 M05/M05 A3020 RMK AO2 P0001,KLXL,2024-03-22T04:15:00Z,45.9509,-94.3441,-5,-5,0,0,,1.25,30.20,,,TRUE,TRUE,,,,,,SN,OVC,700,,,,,,,IFR,,,,,,0.01,,,,,,METAR,335
KLWB 220415Z AUTO 00000KT 10SM CLR 04/M12 A3022 RMK AO2 T00441116,KLWB,2024-03-22T04:15:00Z,37.8633,-80.3923,4.4,-11.6,0,0,,10+,30.22,,,TRUE,TRUE,,,,,,,CLR,,,,,,,,VFR,,,,,,,,,,,,METAR,702
KLWA 220415Z AUTO 08004KT 10SM SCT110 M01/M10 A3024 RMK AO2 T10131101,KLWA,2024-03-22T04:15:00Z,42.3476,-86.2578,-1.3,-10.1,80,4,,10+,30.24,,,TRUE,TRUE,,,,,,,SCT,11000,,,,,,,VFR,,,,,,,,,,,,METAR,199
KLVN 220415Z AUTO 07003KT 2 1/2SM -SN SCT009 OVC019 M04/M05 A3021 RMK AO2,KLVN,2024-03-22T04:15:00Z,44.6252,-93.2273,-4,-5,70,3,,2.5,30.21,,,TRUE,TRUE,,,,,,-SN,SCT,900,OVC,1900,,,,,IFR,,,,,,,,,,,,METAR,292
KLVL 220415Z AUTO 00000KT CLR 07/02 A3026 RMK AO1 T00710022,KLVL,2024-03-22T04:15:00Z,36.7723,-77.7925,7.1,2.2,0,0,,,30.26,,,TRUE,TRUE,,,,,,,CLR,,,,,,,,VFR,,,,,,,,,,,,METAR,98
KLUX 220415Z AUTO 15009KT 10SM CLR 16/04 A3014 RMK AO2,KLUX,2024-03-22T04:15:00Z,34.508,-81.949,16,4,150,9,,10+,30.14,,,TRUE,TRUE,,,,,,,CLR,,,,,,,,VFR,,,,,,,,,,,,METAR,213
KLUV 220415Z AUTO 10007KT 10SM SCT100 OVC120 12/08 A2994 RMK AO2,KLUV,2024-03-22T04:15:00Z,32.7481,-101.913,12,8,100,7,,10+,29.94,,,TRUE,TRUE,,,,,,,SCT,10000,OVC,12000,,,,,VFR,,,,,,,,,,,,METAR,910
KLUM 220415Z AUTO 00000KT 4SM OVC014 M02/M03 A3022 RMK AO2 P0001 T10221031 PWINO,KLUM,2024-03-22T04:15:00Z,44.8936,-91.8665,-2.2,-3.1,0,0,,4,30.22,,,TRUE,TRUE,,,,,TRUE,,OVC,1400,,,,,,,MVFR,,,,,,0.01,,,,,,METAR,271
KLUL 220415Z AUTO 00000KT 10SM SCT060 16/07 A2996 RMK A02 T01570074,KLUL,2024-03-22T04:15:00Z,31.6682,-89.1705,15.7,7.4,0,0,,10+,29.96,,,TRUE,TRUE,,,,,,,SCT,6000,,,,,,,VFR,,,,,,,,,,,,METAR,74
KLUG 220415Z AUTO 00000KT 10SM FEW060 FEW075 OVC110 12/04 A3004 RMK A01,KLUG,2024-03-22T04:15:00Z,35.5082,-86.8055,12,4,0,0,,10+,30.04,,,TRUE,TRUE,,,,,,,FEW,6000,FEW,7500,OVC,11000,,,VFR,,,,,,,,,,,,METAR,218
KLUD 220415Z AUTO 00000KT 10SM OVC034 13/12 A2986 RMK AO2 T01270117,KLUD,2024-03-22T04:15:00Z,33.2568,-97.5826,12.7,11.7,0,0,,10+,29.86,,,TRUE,TRUE,,,,,,,OVC,3400,,,,,,,VFR,,,,,,,,,,,,METAR,319
KLUA 220415Z AUTO 00000KT 10SM CLR M01/M07 A3028 RMK AO2,KLUA,2024-03-22T04:15:00Z,38.667,-78.501,-1,-7,0,0,,10+,30.28,,,TRUE,TRUE,,,,,,,CLR,,,,,,,,VFR,,,,,,,,,,,,METAR,273
KLRY 220415Z AUTO 12004KT 10SM CLR 10/00 A2997 RMK AO2,KLRY,2024-03-22T04:15:00Z,38.6074,-94.3453,10,0,120,4,,10+,29.97,,,TRUE,TRUE,,,,,,,CLR,,,,,,,,VFR,,,,,,,,,,,,METAR,272
KLRU 220415Z AUTO 26010KT 10SM CLR 17/01 A3005 RMK AO2 T01680006,KLRU,2024-03-22T04:15:00Z,32.2884,-106.913,16.8,0.6,260,10,,10+,30.05,,,TRUE,TRUE,,,,,,,CLR,,,,,,,,VFR,,,,,,,,,,,,METAR,1355
KLRO 220415Z AUTO 00000G12KT 5SM BR OVC006 16/16 A3016 RMK AO2,KLRO,2024-03-22T04:15:00Z,32.8982,-79.7796,16,16,0,0,12,5,30.16,,,TRUE,TRUE,,,,,,BR,OVC,600,,,,,,,IFR,,,,,,,,,,,,METAR,3
KLRJ 220415Z AUTO 07013KT 10SM OVC060 04/M11 A2998 RMK AO2,KLRJ,2024-03-22T04:15:00Z,42.7771,-96.195,4,-11,70,13,,10+,29.98,,,TRUE,TRUE,,,,,,,OVC,6000,,,,,,,VFR,,,,,,,,,,,,METAR,363
KLQK 220415Z AUTO 13006KT 10SM CLR 16/04 A3011 RMK AO2 T01560040,KLQK,2024-03-22T04:15:00Z,34.8069,-82.7047,15.6,4,130,6,,10+,30.11,,,TRUE,TRUE,,,,,,,CLR,,,,,,,,VFR,,,,,,,,,,,,METAR,291
KLOT 220415Z AUTO 09008KT 10SM BKN095 OVC120 01/M07 A3019 RMK AO2,KLOT,2024-03-22T04:15:00Z,41.6031,-88.1017,1,-7,90,8,,10+,30.19,,,TRUE,TRUE,,,,,,,BKN,9500,OVC,12000,,,,,VFR,,,,,,,,,,,,METAR,205
KLOM 220415Z AUTO 01004KT 10SM CLR 00/M11 A3032 RMK AO2 T10051109,KLOM,2024-03-22T04:15:00Z,40.1376,-75.2684,-0.5,-10.9,10,4,,10+,30.32,,,TRUE,TRUE,,,,,,,CLR,,,,,,,,VFR,,,,,,,,,,,,METAR,87
KLNP 220415Z AUTO 00000KT 10SM CLR 05/M09 A3018 RMK AO2,KLNP,2024-03-22T04:15:00Z,36.9884,-82.524,5,-9,0,0,,10+,30.18,,,TRUE,TRUE,,,,,,,CLR,,,,,,,,VFR,,,,,,,,,,,,METAR,817
KLNN 220415Z AUTO 00000KT 10SM CLR M05/M10 A3034 RMK AO1 T10521103,KLNN,2024-03-22T04:15:00Z,41.6839,-81.3896,-5.2,-10.3,0,0,,10+,30.34,,,TRUE,TRUE,,,,,,,CLR,,,,,,,,VFR,,,,,,,,,,,,METAR,190
KLNL 220415Z AUTO 04004KT 10SM OVC090 M06/M14 A3019 RMK AO2 T10571138,KLNL,2024-03-22T04:15:00Z,46.1515,-89.2108,-5.7,-13.8,40,4,,10+,30.19,,,TRUE,TRUE,,,,,,,OVC,9000,,,,,,,VFR,,,,,,,,,,,,METAR,517
KLNC 220415Z AUTO 14003KT 10SM -VCTSRA SCT055 BKN075 OVC090 14/13 A2985 RMK AO2 LTG DSNT NE THRU S P0002 T01370131,KLNC,2024-03-22T04:15:00Z,32.5832,-96.7209,13.7,13.1,140,3,,10+,29.85,,,TRUE,TRUE,,,,,,VCTS -RA,SCT,5500,BKN,7500,OVC,9000,,,VFR,,,,,,0.02,,,,,,METAR,152
KLNA 220415Z AUTO 11013G19KT 10SM CLR 23/15 A3008 RMK AO2 T02340151 TSNO,KLNA,2024-03-22T04:15:00Z,26.5925,-80.0848,23.4,15.1,110,13,19,10+,30.08,,,TRUE,TRUE,,,TRUE,,,,CLR,,,,,,,,VFR,,,,,,,,,,,,METAR,3
KLMS 220415Z AUTO 00000KT 10SM OVC080 15/09 A3001 RMK AO2,KLMS,2024-03-22T04:15:00Z,33.15,-89.063,15,9,0,0,,10+,30.01,,,TRUE,TRUE,,,,,,,OVC,8000,,,,,,,VFR,,,,,,,,,,,,METAR,169
KLMO 220415Z AUTO 24006KT 10SM CLR 13/M02 A2996 RMK AO2 T01281021,KLMO,2024-03-22T04:15:00Z,40.1612,-105.16,12.8,-2.1,240,6,,10+,29.96,,,TRUE,TRUE,,,,,,,CLR,,,,,,,,VFR,,,,,,,,,,,,METAR,1535
KLLN 220415Z AUTO 08007KT 10SM FEW044 FEW055 10/04 A2995 RMK AO2,KLLN,2024-03-22T04:15:00Z,33.556,-102.375,10,4,80,7,,10+,29.95,,,TRUE,TRUE,,,,,,,FEW,4400,FEW,5500,,,,,VFR,,,,,,,,,,,,METAR,1071
KLKR 220415Z AUTO 13005KT 10SM FEW060 14/07 A3016 RMK AO2,KLKR,2024-03-22T04:15:00Z,34.7266,-80.8532,14,7,130,5,,10+,30.16,,,TRUE,TRUE,,,,,,,FEW,6000,,,,,,,VFR,,,,,,,,,,,,METAR,166
KLJF 220415Z AUTO 07004KT 3/4SM SN OVC003 M04/M06 A3018 RMK AO2 TSNO,KLJF,2024-03-22T04:15:00Z,45.0948,-94.5084,-4,-6,70,4,,0.75,30.18,,,TRUE,TRUE,,,TRUE,,,SN,OVC,300,,,,,,,LIFR,,,,,,,,,,,,METAR,347
KLHM 220415Z AUTO 12003KT 10SM CLR 13/07 A3006 RMK AO1,KLHM,2024-03-22T04:15:00Z,38.9148,-121.352,13,7,120,3,,10+,30.06,,,TRUE,TRUE,,,,,,,CLR,,,,,,,,VFR,,,,,,,,,,,,METAR,36
KLHB 220415Z AUTO 10006KT 10SM -TSRA SCT013 BKN044 OVC110 14/13 A2990 RMK AO2 LTG DSNT ALQS P0006 T01420130,KLHB,2024-03-22T04:15:00Z,30.8693,-96.6207,14.2,13,100,6,,10+,29.90,,,TRUE,TRUE,,,,,,-TSRA,SCT,1300,BKN,4400,OVC,11000,,,VFR,,,,,,0.06,,,,,,METAR,83
KLGC 220415Z AUTO 00000KT 10SM OVC100 14/09 A3006 RMK AO2 T01400086,KLGC,2024-03-22T04:15:00Z,33.0093,-85.0717,14,8.6,0,0,,10+,30.06,,,TRUE,TRUE,,,,,,,OVC,10000,,,,,,,VFR,,,,,,,,,,,,METAR,209
KLDM 220415Z AUTO 00000KT 10SM CLR M04/M14 A3026 RMK AO2 T10431141,KLDM,2024-03-22T04:15:00Z,43.9614,-86.4107,-4.3,-14.1,0,0,,10+,30.26,,,TRUE,TRUE,,,,,,,CLR,,,,,,,,VFR,,,,,,,,,,,,METAR,194
KLDJ 220415Z AUTO 33005KT 10SM CLR 00/M13 A3033 RMK AO2 T00031126,KLDJ,2024-03-22T04:15:00Z,40.6162,-74.2451,0.3,-12.6,330,5,,10+,30.33,,,TRUE,TRUE,,,,,,,CLR,,,,,,,,VFR,,,,,,,,,,,,METAR,6
KLCQ 220415Z AUTO 12005KT 10SM BKN095 17/12 A3007 RMK AO2,KLCQ,2024-03-22T04:15:00Z,30.1838,-82.5684,17,12,120,5,,10+,30.07,,,TRUE,TRUE,,,,,,,BKN,9500,,,,,,,VFR,,,,,,,,,,,,METAR,59
KLCG 220415Z AUTO 09009KT 10SM CLR 06/M08 A2991 RMK AO2 T00611076,KLCG,2024-03-22T04:15:00Z,42.2423,-96.983,6.1,-7.6,90,9,,10+,29.91,,,TRUE,TRUE,,,,,,,CLR,,,,,,,,VFR,,,,,,,,,,,,METAR,434
KLBO 220415Z AUTO 13003KT 10SM CLR 11/02 A3001 RMK AO2,KLBO,2024-03-22T04:15:00Z,37.6449,-92.6544,11,2,130,3,,10+,30.01,,,TRUE,TRUE,,,,,,,CLR,,,,,,,,VFR,,,,,,,,,,,,METAR,399
KLBE 220415Z AUTO 01004KT 10SM CLR M02/M11 A3030 RMK AO2,KLBE,2024-03-22T04:15:00Z,40.2767,-79.4039,-2,-11,10,4,,10+,30.30,,,TRUE,TRUE,,,,,,,CLR,,,,,,,,VFR,,,,,,,,,,,,METAR,345
KLAM 220415Z AUTO 29013KT 10SM CLR 10/M06 A3006 RMK AO2 T00991061 $,KLAM,2024-03-22T04:15:00Z,35.8789,-106.262,9.9,-6.1,290,13,,10+,30.06,,,TRUE,TRUE,TRUE,,,,,,CLR,,,,,,,,VFR,,,,,,,,,,,,METAR,2166
KLAL 220415Z AUTO 12007KT 10SM CLR 21/16 A3005 RMK AO2 T02050162,KLAL,2024-03-22T04:15:00Z,27.9866,-82.0193,20.5,16.2,120,7,,10+,30.05,,,TRUE,TRUE,,,,,,,CLR,,,,,,,,VFR,,,,,,,,,,,,METAR,39
KL35 220415Z AUTO 00000KT 10SM CLR 01/M02 A3022 RMK AO2,KL35,2024-03-22T04:15:00Z,34.2626,-116.855,1,-2,0,0,,10+,30.22,,,TRUE,TRUE,,,,,,,CLR,,,,,,,,VFR,,,,,,,,,,,,METAR,2062
KL08 220415Z AUTO 33012KT 10SM CLR 21/01 A2999 RMK AO2,KL08,2024-03-22T04:15:00Z,33.2604,-116.323,21,1,330,12,,10+,29.99,,,TRUE,TRUE,,,,,,,CLR,,,,,,,,VFR,,,,,,,,,,,,METAR,156
KKY8 220415Z AUTO 06007G12KT 10SM BKN033 BKN038 BKN043 08/M09 A3012 RMK A01,KKY8,2024-03-22T04:15:00Z,37.953,-86.8592,8,-9,60,7,12,10+,30.12,,,TRUE,TRUE,,,,,,,BKN,3300,BKN,3800,BKN,4300,,,VFR,,,,,,,,,,,,METAR,124
KKNB 220415Z AUTO 01008KT 10SM CLR 11/M01 A3016 RMK A01,KKNB,2024-03-22T04:15:00Z,37.0078,-112.53,11,-1,10,8,,10+,30.16,,,TRUE,TRUE,,,,,,,CLR,,,,,,,,VFR,,,,,,,,,,,,METAR,1476
KK88 220415Z AUTO 14007KT 10SM CLR 13/06 A2994 RMK AO1 T01330055,KK88,2024-03-22T04:15:00Z,37.8692,-95.384,13.3,5.5,140,7,,10+,29.94,,,TRUE,TRUE,,,,,,,CLR,,,,,,,,VFR,,,,,,,,,,,,METAR,308
KK83 220415Z AUTO 12008KT 10SM CLR 07/M03 A2993 RMK AO2 T00681027,KK83,2024-03-22T04:15:00Z,39.9053,-95.7747,6.8,-2.7,120,8,,10+,29.93,,,TRUE,TRUE,,,,,,,CLR,,,,,,,,VFR,,,,,,,,,,,,METAR,405
KK82 220415Z AUTO 14012KT 10SM CLR 10/04 A2984 RMK AO2 T00980042,KK82,2024-03-22T04:15:00Z,39.7606,-98.7957,9.8,4.2,140,12,,10+,29.84,,,TRUE,TRUE,,,,,,,CLR,,,,,,,,VFR,,,,,,,,,,,,METAR,548
KK70 220415Z AUTO 10014G20KT 10SM CLR 23/18 A3003 RMK AO2,KK70,2024-03-22T04:15:00Z,25.322,-80.277,23,18,100,14,20,10+,30.03,,,TRUE,TRUE,,,,,,,CLR,,,,,,,,VFR,,,,,,,,,,,,METAR,20
KK62 220415Z AUTO 06008KT 10SM CLR 02/M11 A3019 RMK AO2,KK62,2024-03-22T04:15:00Z,38.7018,-84.3964,2,-11,60,8,,10+,30.19,,,TRUE,TRUE,,,,,,,CLR,,,,,,,,VFR,,,,,,,,,,,,METAR,274
KJZP 220415Z AUTO 11003KT 10SM CLR 16/02 A3009 RMK AO2 T01650024,KJZP,2024-03-22T04:15:00Z,34.4542,-84.4597,16.5,2.4,110,3,,10+,30.09,,,TRUE,TRUE,,,,,,,CLR,,,,,,,,VFR,,,,,,,,,,,,METAR,462
KJZI 220415Z AUTO 07009KT 6SM BR BKN006 16/16 A3016 RMK AO2,KJZI,2024-03-22T04:15:00Z,32.7025,-80.0058,16,16,70,9,,6,30.16,,,TRUE,TRUE,,,,,,BR,BKN,600,,,,,,,IFR,,,,,,,,,,,,METAR,5
KJYR 220415Z AUTO 14010KT 10SM BKN031 OVC042 06/M02 A2985 RMK AO2,KJYR,2024-03-22T04:15:00Z,40.8942,-97.6258,6,-2,140,10,,10+,29.85,,,TRUE,TRUE,,,,,,,BKN,3100,OVC,4200,,,,,VFR,,,,,,,,,,,,METAR,508
KJYO 220415Z AUTO 04003KT 10SM CLR 03/M09 A3033 RMK AO2,KJYO,2024-03-22T04:15:00Z,39.0826,-77.5605,3,-9,40,3,,10+,30.33,,,TRUE,TRUE,,,,,,,CLR,,,,,,,,VFR,,,,,,,,,,,,METAR,112
KJYM 220415Z AUTO 00000KT 10SM SCT100 M03/M13 A3023 RMK AO2 T10291134,KJYM,2024-03-22T04:15:00Z,41.9197,-84.5853,-2.9,-13.4,0,0,,10+,30.23,,,TRUE,TRUE,,,,,,,SCT,10000,,,,,,,VFR,,,,,,,,,,,,METAR,357
KJYL 220415Z AUTO 12005KT 7SM CLR 14/14 A3014 RMK AO2 T01420136,KJYL,2024-03-22T04:15:00Z,32.6459,-81.5894,14.2,13.6,120,5,,7,30.14,,,TRUE,TRUE,,,,,,,CLR,,,,,,,,VFR,,,,,,,,,,,,METAR,54
KJYG 220415Z AUTO 05011KT 10SM SCT060 OVC075 M02/M05 A3013 RMK AO2,KJYG,2024-03-22T04:15:00Z,43.9855,-94.5527,-2,-5,50,11,,10+,30.13,,,TRUE,TRUE,,,,,,,SCT,6000,OVC,7500,,,,,VFR,,,,,,,,,,,,METAR,323
KJXI 220415Z AUTO 12005KT 10SM SCT010 OVC015 13/12 A2991 RMK AO2 T01320117,KJXI,2024-03-22T04:15:00Z,32.7036,-94.9471,13.2,11.7,120,5,,10+,29.91,,,TRUE,TRUE,,,,,,,SCT,1000,OVC,1500,,,,,MVFR,,,,,,,,,,,,METAR,130
KJWY 220415Z AUTO 22003KT 10SM -RA SCT085 OVC110 13/13 A2989 RMK AO2 T01310128,KJWY,2024-03-22T04:15:00Z,32.456,-96.914,13.1,12.8,220,3,,10+,29.89,,,TRUE,TRUE,,,,,,-RA,SCT,8500,OVC,11000,,,,,VFR,,,,,,,,,,,,METAR,211
KJWN 220415Z AUTO 06005KT 10SM FEW044 BKN050 BKN060 12/M02 A3005 RMK AO2,KJWN,2024-03-22T04:15:00Z,36.1852,-86.8833,12,-2,60,5,,10+,30.05,,,TRUE,TRUE,,,,,,,FEW,4400,BKN,5000,BKN,6000,,,VFR,,,,,,,,,,,,METAR,149
KJWG 220415Z AUTO 10003KT 10SM OVC035 12/11 A2994 RMK AO2 T01250113,KJWG,2024-03-22T04:15:00Z,35.863,-98.423,12.5,11.3,100,3,,10+,29.94,,,TRUE,TRUE,,,,,,,OVC,3500,,,,,,,VFR,,,,,,,,,,,,METAR,469
KJVY 220415Z 00000KT 10SM BKN060 05/M08 A3016 RMK AO2 CALM WIND RUNWAY 18 PREFERRED,KJVY,2024-03-22T04:15:00Z,38.3692,-85.7366,5,-8,0,0,,10+,30.16,,,,TRUE,,,,,,,BKN,6000,,,,,,,VFR,,,,,,,,,,,,METAR,141
KJVW 220415Z AUTO 00000KT 5SM BR FEW018 SCT027 OVC085 14/14 A2996 RMK AO2,KJVW,2024-03-22T04:15:00Z,32.3069,-90.412,14,14,0,0,,5,29.96,,,TRUE,TRUE,,,,,,BR,FEW,1800,SCT,2700,OVC,8500,,,MVFR,,,,,,,,,,,,METAR,73
KJVL 220415Z AUTO 10009KT 10SM OVC080 01/M06 A3018 RMK AO2,KJVL,2024-03-22T04:15:00Z,42.6213,-89.0419,1,-6,100,9,,10+,30.18,,,TRUE,TRUE,,,,,,,OVC,8000,,,,,,,VFR,,,,,,,,,,,,METAR,244
KJTC 220415Z AUTO 25011KT 10SM CLR 05/M01 A3019 RMK AO2,KJTC,2024-03-22T04:15:00Z,34.1292,-109.309,5,-1,250,11,,10+,30.19,,,TRUE,TRUE,,,,,,,CLR,,,,,,,,VFR,,,,,,,,,,,,METAR,2148
KJSO 220415Z AUTO 16003KT 10SM BKN005 OVC010 13/12 A2991 RMK AO2 P0001 T01250123,KJSO,2024-03-22T04:15:00Z,31.869,-95.2145,12.5,12.3,160,3,,10+,29.91,,,TRUE,TRUE,,,,,,,BKN,500,OVC,1000,,,,,IFR,,,,,,0.01,,,,,,METAR,204
KJPX 220415Z AUTO 30008G15KT 260V340 10SM CLR 00/M14 A3027 RMK AO2 T10051140,KJPX,2024-03-22T04:15:00Z,40.9605,-72.2511,-0.5,-14,300,8,15,10+,30.27,,,TRUE,TRUE,,,,,,,CLR,,,,,,,,VFR,,,,,,,,,,,,METAR,10
KJOT 220415Z AUTO 11007KT 10SM CLR 02/M07 A3018 RMK AO2 T00211069,KJOT,2024-03-22T04:15:00Z,41.5176,-88.179,2.1,-6.9,110,7,,10+,30.18,,,TRUE,TRUE,,,,,,,CLR,,,,,,,,VFR,,,,,,,,,,,,METAR,175
KJMR 220415Z AUTO 00000KT 1 1/4SM UP OVC009 M04/M05 A3026 RMK AO2 P0001,KJMR,2024-03-22T04:15:00Z,45.8885,-93.269,-4,-5,0,0,,1.25,30.26,,,TRUE,TRUE,,,,,,UP,OVC,900,,,,,,,IFR,,,,,,0.01,,,,,,METAR,301
KJKJ 220415Z AUTO 03009KT 4SM -SN SCT008 OVC013 M06/M08 A3023 RMK AO2,KJKJ,2024-03-22T04:15:00Z,46.8404,-96.6545,-6,-8,30,9,,4,30.23,,,TRUE,TRUE,,,,,,-SN,SCT,800,OVC,1300,,,,,MVFR,,,,,,,,,,,,METAR,280
KJKA 220415Z AUTO 09004KT 10SM FEW060 BKN075 BKN090 15/15 A2998 RMK AO2,KJKA,2024-03-22T04:15:00Z,30.291,-87.661,15,15,90,4,,10+,29.98,,,TRUE,TRUE,,,,,,,FEW,6000,BKN,7500,BKN,9000,,,VFR,,,,,,,,,,,,METAR,5
KJHN 220415Z AUTO 18007KT 10SM CLR 06/03 A2988 RMK AO2 T00620027,KJHN,2024-03-22T04:15:00Z,37.5782,-101.73,6.2,2.7,180,7,,10+,29.88,,,TRUE,TRUE,,,,,,,CLR,,,,,,,,VFR,,,,,,,,,,,,METAR,1013
KJFZ 220415Z AUTO 08003KT 10SM CLR 07/M08 A3018 RMK AO2 T00711084,KJFZ,2024-03-22T04:15:00Z,37.0634,-81.7969,7.1,-8.4,80,3,,10+,30.18,,,TRUE,TRUE,,,,,,,CLR,,,,,,,,VFR,,,,,,,,,,,,METAR,809
KJFX 220415Z AUTO 00000KT 10SM FEW100 13/13 A3001 RMK AO2,KJFX,2024-03-22T04:15:00Z,33.9008,-87.3092,13,13,0,0,,10+,30.01,,,TRUE,TRUE,,,,,,,FEW,10000,,,,,,,VFR,,,,,,,,,,,,METAR,144
KJES 220415Z AUTO 00000KT 10SM CLR 15/12 A3013 RMK AO2,KJES,2024-03-22T04:15:00Z,31.5521,-81.8896,15,12,0,0,,10+,30.13,,,TRUE,TRUE,,,,,,,CLR,,,,,,,,VFR,,,,,,,,,,,,METAR,26
KJDD 220415Z AUTO 00000KT 10SM OVC006 13/ A2990 RMK AO2 LTG DSNT S THRU NW,KJDD,2024-03-22T04:15:00Z,32.7403,-95.4945,13,,0,0,,10+,29.90,,,TRUE,TRUE,,,,,,,OVC,600,,,,,,,IFR,,,,,,,,,,,,METAR,127
KJCA 220415Z AUTO 14006KT 10SM CLR 17/06 A3009 RMK AO2 T01690057,KJCA,2024-03-22T04:15:00Z,34.1739,-83.5583,16.9,5.7,140,6,,10+,30.09,,,TRUE,TRUE,,,,,,,CLR,,,,,,,,VFR,,,,,,,,,,,,METAR,287
KJAS 220415Z AUTO 31003KT 13/13 A2994 RMK AO2 PWINO TSNO,KJAS,2024-03-22T04:15:00Z,30.8904,-94.0332,13,13,310,3,,,29.94,,,TRUE,TRUE,,,TRUE,,TRUE,,,,,,,,,,VFR,,,,,,,,,,,,METAR,60
KJAQ 220415Z AUTO 36004KT 10SM CLR 13/10 A3010 RMK AO1 T01340098,KJAQ,2024-03-22T04:15:00Z,38.3742,-120.794,13.4,9.8,360,4,,10+,30.10,,,TRUE,TRUE,,,,,,,CLR,,,,,,,,VFR,,,,,,,,,,,,METAR,518
KIZA 220415Z AUTO 00000KT 10SM CLR 11/10 A3011 RMK AO2,KIZA,2024-03-22T04:15:00Z,34.6059,-120.076,11,10,0,0,,10+,30.11,,,TRUE,TRUE,,,,,,,CLR,,,,,,,,VFR,,,,,,,,,,,,METAR,200
KIYA 220415Z AUTO 11005KT 10SM OVC009 15/15 A2991 RMK AO2 CIG 008V013 T01520150,KIYA,2024-03-22T04:15:00Z,29.976,-92.0826,15.2,15,110,5,,10+,29.91,,,TRUE,TRUE,,,,,,,OVC,900,,,,,,,IFR,,,,,,,,,,,,METAR,4
KISQ 220415Z AUTO 16007KT 10SM OVC036 M03/M09 A3026 RMK AO2 T10271088,KISQ,2024-03-22T04:15:00Z,45.9729,-86.1728,-2.7,-8.8,160,7,,10+,30.26,,,TRUE,TRUE,,,,,,,OVC,3600,,,,,,,VFR,,,,,,,,,,,,METAR,206
KIRS 220415Z AUTO 15005KT 10SM SCT100 OVC120 M01/M10 A3023 RMK AO2 T10061103,KIRS,2024-03-22T04:15:00Z,41.8154,-85.4376,-0.6,-10.3,150,5,,10+,30.23,,,TRUE,TRUE,,,,,,,SCT,10000,OVC,12000,,,,,VFR,,,,,,,,,,,,METAR,282
KIOB 220415Z AUTO 08006KT 10SM CLR 03/M10 A3020 RMK AO2 PWINO,KIOB,2024-03-22T04:15:00Z,38.0574,-83.9829,3,-10,80,6,,10+,30.20,,,TRUE,TRUE,,,,,TRUE,,CLR,,,,,,,,VFR,,,,,,,,,,,,METAR,301
KINJ 220415Z AUTO 12008KT 10SM VCTS SCT095 OVC110 13/13 A2983 RMK AO2 LTG DSNT NE AND E T01330133,KINJ,2024-03-22T04:15:00Z,32.0844,-97.0959,13.3,13.3,120,8,,10+,29.83,,,TRUE,TRUE,,,,,,VCTS,SCT,9500,OVC,11000,,,,,VFR,,,,,,,,,,,,METAR,208
KINF 220415Z AUTO 12006KT 7SM BKN110 21/17 A3004 RMK AO2,KINF,2024-03-22T04:15:00Z,28.8062,-82.319,21,17,120,6,,7,30.04,,,TRUE,TRUE,,,,,,,BKN,11000,,,,,,,VFR,,,,,,,,,,,,METAR,14
KIMS 220415Z AUTO 08005KT 10SM CLR 03/M08 A3020 RMK AO2,KIMS,2024-03-22T04:15:00Z,38.7515,-85.4689,3,-8,80,5,,10+,30.20,,,TRUE,TRUE,,,,,,,CLR,,,,,,,,VFR,,,,,,,,,,,,METAR,244
KIKW 220415Z AUTO 00000KT 10SM CLR M04/M10 A3027 RMK AO2 T10371101,KIKW,2024-03-22T04:15:00Z,43.6643,-84.2613,-3.7,-10.1,0,0,,10+,30.27,,,TRUE,TRUE,,,,,,,CLR,,,,,,,,VFR,,,,,,,,,,,,METAR,190
KIKV 220415Z AUTO 10009G14KT 10SM OVC060 07/M07 A3001 RMK AO2,KIKV,2024-03-22T04:15:00Z,41.6878,-93.5695,7,-7,100,9,14,10+,30.01,,,TRUE,TRUE,,,,,,,OVC,6000,,,,,,,VFR,,,,,,,,,,,,METAR,270
KIKT 220415Z AUTO 14027KT 9SM BKN014 BKN031 OVC075 19/16 A2992 RMK A01,KIKT,2024-03-22T04:15:00Z,28.5208,-88.2889,19,16,140,27,,9,29.92,,,TRUE,TRUE,,,,,,,BKN,1400,BKN,3100,OVC,7500,,,MVFR,,,,,,,,,,,,METAR,36
KIKK 220415Z AUTO 12010KT 10SM SCT110 02/M08 A3018 RMK AO2 T00161084 PWINO,KIKK,2024-03-22T04:15:00Z,41.0687,-87.8537,1.6,-8.4,120,10,,10+,30.18,,,TRUE,TRUE,,,,,TRUE,,SCT,11000,,,,,,,VFR,,,,,,,,,,,,METAR,188
KIKG 220415Z AUTO 00000KT 10SM CLR 18/17 A2988 RMK AO2 T01760167,KIKG,2024-03-22T04:15:00Z,27.5464,-98.0292,17.6,16.7,0,0,,10+,29.88,,,TRUE,TRUE,,,,,,,CLR,,,,,,,,VFR,,,,,,,,,,,,METAR,37
KIJX 220415Z AUTO 12010KT 10SM CLR 04/M04 A3009 RMK AO2 T00421045,KIJX,2024-03-22T04:15:00Z,39.774,-90.2419,4.2,-4.5,120,10,,10+,30.09,,,TRUE,TRUE,,,,,,,CLR,,,,,,,,VFR,,,,,,,,,,,,METAR,187
KIIY 220415Z AUTO 15007KT 100V170 10SM CLR 16/06 A3011 RMK AO2 T01620056,KIIY,2024-03-22T04:15:00Z,33.7797,-82.8135,16.2,5.6,150,7,,10+,30.11,,,TRUE,TRUE,,,,,,,CLR,,,,,,,,VFR,,,,,,,,,,,,METAR,192
KIIB 220415Z AUTO 09012KT 10SM OVC070 02/M11 A3008 RMK AO2 T00191111,KIIB,2024-03-22T04:15:00Z,42.4544,-91.9504,1.9,-11.1,90,12,,10+,30.08,,,TRUE,TRUE,,,,,,,OVC,7000,,,,,,,VFR,,,,,,,,,,,,METAR,294
KIGQ 220415Z AUTO 13007KT 10SM SCT110 01/M07 A3019 RMK AO2 T00061072,KIGQ,2024-03-22T04:15:00Z,41.5412,-87.5282,0.6,-7.2,130,7,,10+,30.19,,,TRUE,TRUE,,,,,,,SCT,11000,,,,,,,VFR,,,,,,,,,,,,METAR,187
KIFP 220415Z AUTO 00000KT 10SM CLR 24/01 A2996 RMK AO2,KIFP,2024-03-22T04:15:00Z,35.1487,-114.561,24,1,0,0,,10+,29.96,,,TRUE,TRUE,,,,,,,CLR,,,,,,,,VFR,,,,,,,,,,,,METAR,210
KIFA 220415Z AUTO 08012KT 10SM BKN060 OVC110 03/M13 A3006 RMK AO2 T00271131,KIFA,2024-03-22T04:15:00Z,42.4691,-93.2651,2.7,-13.1,80,12,,10+,30.06,,,TRUE,TRUE,,,,,,,BKN,6000,OVC,11000,,,,,VFR,,,,,,,,,,,,METAR,344
KIER 220415Z AUTO 14003KT 7SM RA OVC025 13/12 A2997 RMK AO2 P0002 T01250122,KIER,2024-03-22T04:15:00Z,31.736,-93.1003,12.5,12.2,140,3,,7,29.97,,,TRUE,TRUE,,,,,,RA,OVC,2500,,,,,,,MVFR,,,,,,0.02,,,,,,METAR,35
KIDP 220415Z AUTO 00000KT 10SM -RA OVC070 13/12 A2995 RMK AO2 P0001 T01290122,KIDP,2024-03-22T04:15:00Z,37.1566,-95.7792,12.9,12.2,0,0,,10+,29.95,,,TRUE,TRUE,,,,,,-RA,OVC,7000,,,,,,,VFR,,,,,,0.01,,,,,,METAR,252
KIDI 220415Z AUTO 00000KT 10SM CLR M03/M12 A3033 RMK A01,KIDI,2024-03-22T04:15:00Z,40.6337,-79.1036,-3,-12,0,0,,10+,30.33,,,TRUE,TRUE,,,,,,,CLR,,,,,,,,VFR,,,,,,,,,,,,METAR,425
KICL 220415Z AUTO 00000KT 10SM SCT037 BKN043 06/M08 A2997 RMK AO2,KICL,2024-03-22T04:15:00Z,40.7242,-95.0222,6,-8,0,0,,10+,29.97,,,TRUE,TRUE,,,,,,,SCT,3700,BKN,4300,,,,,VFR,,,,,,,,,,,,METAR,299
KIBM 220415Z AUTO 34017G22KT 10SM CLR 03/M05 A2998 RMK AO2 T00301055,KIBM,2024-03-22T04:15:00Z,41.1894,-103.671,3,-5.5,340,17,22,10+,29.98,,,TRUE,TRUE,,,,,,,CLR,,,,,,,,VFR,,,,,,,,,,,,METAR,1494
KI95 220415Z AUTO 11006KT 10SM SCT055 SCT070 SCT095 M03/M08 A3023 RMK A01,KI95,2024-03-22T04:15:00Z,40.6142,-83.6374,-3,-8,110,6,,10+,30.23,,,TRUE,TRUE,,,,,,,SCT,5500,SCT,7000,SCT,9500,,,VFR,,,,,,,,,,,,METAR,312
KI75 220415Z AUTO 12008KT 10SM SCT055 07/M07 A2999 RMK AO2 T00651075,KI75,2024-03-22T04:15:00Z,41.0472,-93.6876,6.5,-7.5,120,8,,10+,29.99,,,TRUE,TRUE,,,,,,,SCT,5500,,,,,,,VFR,,,,,,,,,,,,METAR,336
KI74 220415Z AUTO 09006KT 10SM CLR M01/M11 A3023 RMK AO2,KI74,2024-03-22T04:15:00Z,40.1314,-83.757,-1,-11,90,6,,10+,30.23,,,TRUE,TRUE,,,,,,,CLR,,,,,,,,VFR,,,,,,,,,,,,METAR,322
KI68 220415Z AUTO 09005KT 10SM FEW050 01/M09 A3020 RMK AO2,KI68,2024-03-22T04:15:00Z,39.4664,-84.2532,1,-9,90,5,,10+,30.20,,,TRUE,TRUE,,,,,,,FEW,5000,,,,,,,VFR,,,,,,,,,,,,METAR,274
KI67 220415Z AUTO 04004KT 10SM CLR 00/M07 A3021 RMK AO1,KI67,2024-03-22T04:15:00Z,39.2565,-84.7753,0,-7,40,4,,10+,30.21,,,TRUE,TRUE,,,,,,,CLR,,,,,,,,VFR,,,,,,,,,,,,METAR,177
KI63 220415Z AUTO 12009KT 10SM CLR 04/M04 A3006 RMK AO2 T00411043,KI63,2024-03-22T04:15:00Z,39.9883,-90.8023,4.1,-4.3,120,9,,10+,30.06,,,TRUE,TRUE,,,,,,,CLR,,,,,,,,VFR,,,,,,,,,,,,METAR,221
KI23 220415Z AUTO 04006KT 10SM CLR M01/M10 A3022 RMK AO1,KI23,2024-03-22T04:15:00Z,39.5697,-83.4239,-1,-10,40,6,,10+,30.22,,,TRUE,TRUE,,,,,,,CLR,,,,,,,,VFR,,,,,,,,,,,,METAR,298
KI16 220415Z AUTO 10SM CLR 03/M03 A3025 RMK AO2 T00251026,KI16,2024-03-22T04:15:00Z,37.5998,-81.5589,2.5,-2.6,,,,10+,30.25,,,TRUE,TRUE,,,,,,,CLR,,,,,,,,VFR,,,,,,,,,,,,METAR,528
KHZX 220415Z AUTO 00000KT 10SM OVC035 M03/M10 A3021 RMK AO2,KHZX,2024-03-22T04:15:00Z,46.6189,-93.3128,-3,-10,0,0,,10+,30.21,,,TRUE,TRUE,,,,,,,OVC,3500,,,,,,,VFR,,,,,,,,,,,,METAR,374
KHZR 220415Z AUTO 32004KT 10SM SCT011 BKN020 12/11 A2997 RMK AO2 T01200111,KHZR,2024-03-22T04:15:00Z,30.718,-91.48,12,11.1,320,4,,10+,29.97,,,TRUE,TRUE,,,,,,,SCT,1100,BKN,2000,,,,,MVFR,,,,,,,,,,,,METAR,11
KHZE 220415Z AUTO 00000KT 10SM UP OVC045 M09/M10 A3021 RMK AO2,KHZE,2024-03-22T04:15:00Z,47.288,-101.577,-9,-10,0,0,,10+,30.21,,,TRUE,TRUE,,,,,,UP,OVC,4500,,,,,,,VFR,,,,,,,,,,,,METAR,542
KHZD 220415Z AUTO 09004KT 10SM FEW050 OVC075 14/00 A3003 RMK A01,KHZD,2024-03-22T04:15:00Z,36.089,-88.4654,14,0,90,4,,10+,30.03,,,TRUE,TRUE,,,,,,,FEW,5000,OVC,7500,,,,,VFR,,,,,,,,,,,,METAR,147
KHYX 220415Z AUTO 13005KT 10SM CLR M04/M13 A3028 RMK AO2,KHYX,2024-03-22T04:15:00Z,43.4319,-83.8648,-4,-13,130,5,,10+,30.28,,,TRUE,TRUE,,,,,,,CLR,,,,,,,,VFR,,,,,,,,,,,,METAR,181
KHYW 220415Z AUTO 06003KT 10SM CLR 10/10 A3020 RMK AO2,KHYW,2024-03-22T04:15:00Z,33.8256,-79.1259,10,10,60,3,,10+,30.20,,,TRUE,TRUE,,,,,,,CLR,,,,,,,,VFR,,,,,,,,,,,,METAR,10
KHXD 220415Z AUTO 07008KT 7SM SCT006 17/16 A3014 RMK AO2,KHXD,2024-03-22T04:15:00Z,32.2263,-80.6949,17,16,70,8,,7,30.14,,,TRUE,TRUE,,,,,,,SCT,600,,,,,,,VFR,,,,,,,,,,,,METAR,5
KHWY 220415Z AUTO 00000KT 10SM CLR M02/M06 A3031 RMK AO2 T10231062,KHWY,2024-03-22T04:15:00Z,38.5876,-77.715,-2.3,-6.2,0,0,,10+,30.31,,,TRUE,TRUE,,,,,,,CLR,,,,,,,,VFR,,,,,,,,,,,,METAR,93
KHVS 220415Z AUTO 00000KT 10SM FEW050 OVC060 12/08 A3017 RMK AO2,KHVS,2024-03-22T04:15:00Z,34.4065,-80.1198,12,8,0,0,,10+,30.17,,,TRUE,TRUE,,,,,,,FEW,5000,OVC,6000,,,,,VFR,,,,,,,,,,,,METAR,110
KHVC 220415Z AUTO 06006KT 10SM FEW090 09/M04 A3007 RMK AO2,KHVC,2024-03-22T04:15:00Z,36.8603,-87.4478,9,-4,60,6,,10+,30.07,,,TRUE,TRUE,,,,,,,FEW,9000,,,,,,,VFR,,,,,,,,,,,,METAR,171
KHTH 220415Z AUTO 24005KT 10SM CLR 12/M06 A3006 RMK A01,KHTH,2024-03-22T04:15:00Z,38.5448,-118.631,12,-6,240,5,,10+,30.06,,,TRUE,TRUE,,,,,,,CLR,,,,,,,,VFR,,,,,,,,,,,,METAR,1281
KHSP 220415Z AUTO 21004KT 10SM SCT120 04/M14 A3018 RMK AO2 T00411137,KHSP,2024-03-22T04:15:00Z,37.9531,-79.8285,4.1,-13.7,210,4,,10+,30.18,,,TRUE,TRUE,,,,,,,SCT,12000,,,,,,,VFR,,,,,,,,,,,,METAR,1148
KHSG 220415Z AUTO 28006KT 10SM SCT070 OVC095 02/01 A3002 RMK AO2 T00180005,KHSG,2024-03-22T04:15:00Z,43.7178,-108.385,1.8,0.5,280,6,,10+,30.02,,,TRUE,TRUE,,,,,,,SCT,7000,OVC,9500,,,,,VFR,,,,,,,,,,,,METAR,1497
KHSD 220415Z AUTO 07007KT 10SM BKN009 BKN014 OVC018 14/13 A2989 RMK A01,KHSD,2024-03-22T04:15:00Z,35.6018,-97.7093,14,13,70,7,,10+,29.89,,,TRUE,TRUE,,,,,,,BKN,900,BKN,1400,OVC,1800,,,IFR,,,,,,,,,,,,METAR,358
KHSB 220415Z AUTO 07006KT 10SM CLR 07/M04 A3009 RMK AO2 T00711036,KHSB,2024-03-22T04:15:00Z,37.8128,-88.5449,7.1,-3.6,70,6,,10+,30.09,,,TRUE,TRUE,,,,,,,CLR,,,,,,,,VFR,,,,,,,,,,,,METAR,118
KHRX 220415Z AUTO 14003KT 10SM CLR 07/04 A2995 RMK AO2 T00710035 TSNO,KHRX,2024-03-22T04:15:00Z,34.8628,-102.32,7.1,3.5,140,3,,10+,29.95,,,TRUE,TRUE,,,TRUE,,,,CLR,,,,,,,,VFR,,,,,,,,,,,,METAR,1153
KHQZ 220415Z AUTO 24005KT 10SM BKN005 BKN075 OVC100 14/14 A2987 RMK AO1 T01380135,KHQZ,2024-03-22T04:15:00Z,32.7514,-96.5291,13.8,13.5,240,5,,10+,29.87,,,TRUE,TRUE,,,,,,,BKN,500,BKN,7500,OVC,10000,,,IFR,,,,,,,,,,,,METAR,136
KHQU 220415Z AUTO 13006KT 10SM CLR 16/06 A3011 RMK AO2 T01630058,KHQU,2024-03-22T04:15:00Z,33.5279,-82.518,16.3,5.8,130,6,,10+,30.11,,,TRUE,TRUE,,,,,,,CLR,,,,,,,,VFR,,,,,,,,,,,,METAR,141
KHQG 220415Z AUTO 18006KT 10SM CLR 08/05 A2989 RMK AO2 T00750045 PWINO,KHQG,2024-03-22T04:15:00Z,37.1647,-101.371,7.5,4.5,180,6,,10+,29.89,,,TRUE,TRUE,,,,,TRUE,,CLR,,,,,,,,VFR,,,,,,,,,,,,METAR,956
KHPT 220415Z AUTO 08011KT 7SM -SN OVC060 00/M10 A3006 RMK AO2,KHPT,2024-03-22T04:15:00Z,42.7175,-93.2244,0,-10,80,11,,7,30.06,,,TRUE,TRUE,,,,,,-SN,OVC,6000,,,,,,,VFR,,,,,,,,,,,,METAR,354
KHOE 220415Z AUTO 10003KT 10SM CLR 17/05 A3009 RMK AO2 T01720056,KHOE,2024-03-22T04:15:00Z,31.0561,-82.7726,17.2,5.6,100,3,,10+,30.09,,,TRUE,TRUE,,,,,,,CLR,,,,,,,,VFR,,,,,,,,,,,,METAR,56
KHOB 220415Z AUTO 31005KT 10SM CLR 09/M01 A2995 RMK AO2,KHOB,2024-03-22T04:15:00Z,32.6797,-103.222,9,-1,310,5,,10+,29.95,,,TRUE,TRUE,,,,,,,CLR,,,,,,,,VFR,,,,,,,,,,,,METAR,1112
KHNR 220415Z AUTO 13008KT 10SM OVC055 06/M08 A2995 RMK A01,KHNR,2024-03-22T04:15:00Z,41.5841,-95.3358,6,-8,130,8,,10+,29.95,,,TRUE,TRUE,,,,,,,OVC,5500,,,,,,,VFR,,,,,,,,,,,,METAR,364
KHMZ 220415Z AUTO 33006KT 10SM CLR M04/M10 A3029 RMK AO2 T10401103,KHMZ,2024-03-22T04:15:00Z,40.0863,-78.5167,-4,-10.3,330,6,,10+,30.29,,,TRUE,TRUE,,,,,,,CLR,,,,,,,,VFR,,,,,,,,,,,,METAR,351
KHMT 220415Z AUTO 25003KT 10SM CLR 12/10 A3010 RMK AO2 T01220102,KHMT,2024-03-22T04:15:00Z,33.7303,-117.027,12.2,10.2,250,3,,10+,30.10,,,TRUE,TRUE,,,,,,,CLR,,,,,,,,VFR,,,,,,,,,,,,METAR,462
KHMP 220415Z AUTO 08003KT 10SM CLR 13/08 A3009 RMK AO2 T01310083,KHMP,2024-03-22T04:15:00Z,33.3916,-84.3312,13.1,8.3,80,3,,10+,30.09,,,TRUE,TRUE,,,,,,,CLR,,,,,,,,VFR,,,,,,,,,,,,METAR,263
KHLX 220415Z AUTO 10005KT 10SM OVC100 09/M06 A3018 RMK AO2 T00881056,KHLX,2024-03-22T04:15:00Z,36.7637,-80.8211,8.8,-5.6,100,5,,10+,30.18,,,TRUE,TRUE,,,,,,,OVC,10000,,,,,,,VFR,,,,,,,,,,,,METAR,819
KHLB 220415Z AUTO 06008KT 10SM BKN050 OVC055 01/M10 A3018 RMK A01,KHLB,2024-03-22T04:15:00Z,39.3463,-85.2602,1,-10,60,8,,10+,30.18,,,TRUE,TRUE,,,,,,,BKN,5000,OVC,5500,,,,,VFR,,,,,,,,,,,,METAR,297
KHJH 220415Z AUTO 15009KT 10SM CLR 09/00 A2986 RMK AO2 T00910000,KHJH,2024-03-22T04:15:00Z,40.1493,-97.5872,9.1,0,150,9,,10+,29.86,,,TRUE,TRUE,,,,,,,CLR,,,,,,,,VFR,,,,,,,,,,,,METAR,449
KHII 220415Z AUTO 10007KT 10SM 24/01 A2997 RMK AO1,KHII,2024-03-22T04:15:00Z,34.5659,-114.352,24,1,100,7,,10+,29.97,,,TRUE,TRUE,,,,,,,,,,,,,,,VFR,,,,,,,,,,,,METAR,241
KHHW 220415Z AUTO 10003KT 4SM +RA SCT044 SCT060 OVC070 12/11 A2993 RMK AO2 LTG DSNT S,KHHW,2024-03-22T04:15:00Z,34.0308,-95.5401,12,11,100,3,,4,29.93,,,TRUE,TRUE,,,,,,+RA,SCT,4400,SCT,6000,OVC,7000,,,MVFR,,,,,,,,,,,,METAR,178
KHHV 220415Z AUTO 12017G28KT 6SM BR BKN009 OVC018 23/21 A2980 RMK A01,KHHV,2024-03-22T04:15:00Z,26.9392,-94.6886,23,21,120,17,28,6,29.80,,,TRUE,TRUE,,,,,,BR,BKN,900,OVC,1800,,,,,IFR,,,,,,,,,,,,METAR,25
KHHG 220415Z AUTO 09004KT 10SM CLR M01/M10 A3023 RMK AO2 T10151105,KHHG,2024-03-22T04:15:00Z,40.8543,-85.4543,-1.5,-10.5,90,4,,10+,30.23,,,TRUE,TRUE,,,,,,,CLR,,,,,,,,VFR,,,,,,,,,,,,METAR,247
KHHF 220415Z AUTO 19006KT 10SM CLR 12/08 A2991 RMK AO2 T01200081,KHHF,2024-03-22T04:15:00Z,35.8929,-100.405,12,8.1,190,6,,10+,29.91,,,TRUE,TRUE,,,,,,,CLR,,,,,,,,VFR,,,,,,,,,,,,METAR,729
KHFJ 220415Z AUTO 14007KT 10SM CLR 12/05 A2996 RMK AO2,KHFJ,2024-03-22T04:15:00Z,36.9105,-94.0099,12,5,140,7,,10+,29.96,,,TRUE,TRUE,,,,,,,CLR,,,,,,,,VFR,,,,,,,,,,,,METAR,398
KHEQ 220415Z AUTO 35026G33KT 10SM CLR 06/M04 A2991 RMK AO2,KHEQ,2024-03-22T04:15:00Z,40.5715,-102.277,6,-4,350,26,33,10+,29.91,,,TRUE,TRUE,,,,,,,CLR,,,,,,,,VFR,,,,,,,,,,,,METAR,1136
KHEG 220415Z AUTO 06004KT 10SM OVC049 17/13 A3009 RMK AO2,KHEG,2024-03-22T04:15:00Z,30.2771,-81.8087,17,13,60,4,,10+,30.09,,,TRUE,TRUE,,,,,,,OVC,4900,,,,,,,VFR,,,,,,,,,,,,METAR,25
KHDL 220415Z AUTO 23006KT 10SM FEW037 OVC085 18/08 A3005 RMK AO2,KHDL,2024-03-22T04:15:00Z,31.3641,-85.3112,18,8,230,6,,10+,30.05,,,TRUE,TRUE,,,,,,,FEW,3700,OVC,8500,,,,,VFR,,,,,,,,,,,,METAR,109
KHDE 220415Z AUTO 17011KT 10SM CLR 10/04 A2979 RMK AO2 T00970035,KHDE,2024-03-22T04:15:00Z,40.4496,-99.3363,9.7,3.5,170,11,,10+,29.79,,,TRUE,TRUE,,,,,,,CLR,,,,,,,,VFR,,,,,,,,,,,,METAR,703
KHDC 220415Z AUTO 03003KT 10SM BKN021 11/11 A2996 RMK AO2 T01130106,KHDC,2024-03-22T04:15:00Z,30.5237,-90.4176,11.3,10.6,30,3,,10+,29.96,,,TRUE,TRUE,,,,,,,BKN,2100,,,,,,,MVFR,,,,,,,,,,,,METAR,12
KHCR 220415Z AUTO 00000KT 10SM CLR 04/M05 A3009 RMK AO2 T00411048,KHCR,2024-03-22T04:15:00Z,40.4774,-111.433,4.1,-4.8,0,0,,10+,30.09,,,TRUE,TRUE,,,,,,,CLR,,,,,,,,VFR,,,,,,,,,,,,METAR,1708
KHCO 220415Z AUTO 02007KT 10SM SCT095 M04/M12 A3026 RMK AO2,KHCO,2024-03-22T04:15:00Z,48.7524,-96.9376,-4,-12,20,7,,10+,30.26,,,TRUE,TRUE,,,,,,,SCT,9500,,,,,,,VFR,,,,,,,,,,,,METAR,250
KHCD 220415Z AUTO 07004KT 1 1/4SM SN BKN007 M03/M05 A3019 RMK AO2 T10351051,KHCD,2024-03-22T04:15:00Z,44.8597,-94.3855,-3.5,-5.1,70,4,,1.25,30.19,,,TRUE,TRUE,,,,,,SN,BKN,700,,,,,,,IFR,,,,,,,,,,,,METAR,320
KHAI 220415Z AUTO 00000KT 10SM BKN120 00/M10 A3025 RMK AO2 T10021096,KHAI,2024-03-22T04:15:00Z,41.9591,-85.5933,-0.2,-9.6,0,0,,10+,30.25,,,TRUE,TRUE,,,,,,,BKN,12000,,,,,,,VFR,,,,,,,,,,,,METAR,250
KHAF 220415Z AUTO 00000KT 10SM SCT011 11/11 A3012 RMK AO2,KHAF,2024-03-22T04:15:00Z,37.5136,-122.5,11,11,0,0,,10+,30.12,,,TRUE,TRUE,,,,,,,SCT,1100,,,,,,,VFR,,,,,,,,,,,,METAR,11
KHAE 220415Z AUTO 11005KT 10SM CLR 06/M06 A3004 RMK AO2,KHAE,2024-03-22T04:15:00Z,39.7262,-91.4425,6,-6,110,5,,10+,30.04,,,TRUE,TRUE,,,,,,,CLR,,,,,,,,VFR,,,,,,,,,,,,METAR,230
KGZS 220415Z AUTO 00000KT 10SM FEW065 OVC075 14/08 A3003 RMK A01,KGZS,2024-03-22T04:15:00Z,35.1533,-87.0543,14,8,0,0,,10+,30.03,,,TRUE,TRUE,,,,,,,FEW,6500,OVC,7500,,,,,VFR,,,,,,,,,,,,METAR,198
KGZL 220415Z AUTO 11006KT 8SM -RA FEW039 BKN050 OVC060 15/12 A2993 RMK AO2,KGZL,2024-03-22T04:15:00Z,35.2913,-95.0956,15,12,110,6,,8,29.93,,,TRUE,TRUE,,,,,,-RA,FEW,3900,BKN,5000,OVC,6000,,,VFR,,,,,,,,,,,,METAR,176
KGYY 220415Z AUTO 14006KT 10SM BKN060 OVC100 01/M08 A3019 RMK AO2,KGYY,2024-03-22T04:15:00Z,41.6121,-87.4091,1,-8,140,6,,10+,30.19,,,TRUE,TRUE,,,,,,,BKN,6000,OVC,10000,,,,,VFR,,,,,,,,,,,,METAR,179
KGYL 220415Z AUTO 06003KT 1 1/4SM -SN OVC010 M03/M05 A3019 RMK AO2 T10351050,KGYL,2024-03-22T04:15:00Z,44.7588,-94.0905,-3.5,-5,60,3,,1.25,30.19,,,TRUE,TRUE,,,,,,-SN,OVC,1000,,,,,,,IFR,,,,,,,,,,,,METAR,304
KGYI 220415Z AUTO 12003KT 10SM BKN006 BKN017 OVC023 14/13 A2988 RMK AO2 T01400130 TSNO,KGYI,2024-03-22T04:15:00Z,33.7231,-96.6714,14,13,120,3,,10+,29.88,,,TRUE,TRUE,,,TRUE,,,,BKN,600,BKN,1700,OVC,2300,,,IFR,,,,,,,,,,,,METAR,227
KGYH 220415Z AUTO 14009KT 10SM CLR 16/04 A3013 RMK AO2,KGYH,2024-03-22T04:15:00Z,34.763,-82.375,16,4,140,9,,10+,30.13,,,TRUE,TRUE,,,,,,,CLR,,,,,,,,VFR,,,,,,,,,,,,METAR,283
KGYF 220415Z AUTO 11008KT 7SM BKN003 23/23 A2983 RMK AO2 PWINO T02350228,KGYF,2024-03-22T04:15:00Z,26.1292,-94.8981,23.5,22.8,110,8,,7,29.83,,,TRUE,TRUE,,,,,TRUE,,BKN,300,,,,,,,LIFR,,,,,,,,,,,,METAR,65
KGYB 220415Z AUTO 00000KT 10SM -RA SCT085 BKN110 14/12 A2985 RMK AO2 T01440122,KGYB,2024-03-22T04:15:00Z,30.1714,-96.9785,14.4,12.2,0,0,,10+,29.85,,,TRUE,TRUE,,,,,,-RA,SCT,8500,BKN,11000,,,,,VFR,,,,,,,,,,,,METAR,140
KGWR 220415Z AUTO 07006KT 3/4SM BR OVC003 M05/M05 A3019 RMK A01,KGWR,2024-03-22T04:15:00Z,46.2185,-97.6396,-5,-5,70,6,,0.75,30.19,,,TRUE,TRUE,,,,,,BR,OVC,300,,,,,,,LIFR,,,,,,,,,,,,METAR,381
KGWB 220415Z AUTO 08003KT 10SM SCT090 BKN110 00/M07 A3026 RMK AO2,KGWB,2024-03-22T04:15:00Z,41.3061,-85.0585,0,-7,80,3,,10+,30.26,,,TRUE,TRUE,,,,,,,SCT,9000,BKN,11000,,,,,VFR,,,,,,,,,,,,METAR,268
KGVW 220415Z AUTO 14020KT 6SM BR BKN046 BKN055 OVC070 20/18 A2985 RMK A01,KGVW,2024-03-22T04:15:00Z,29.1303,-94.5466,20,18,140,20,,6,29.85,,,TRUE,TRUE,,,,,,BR,BKN,4600,BKN,5500,OVC,7000,,,VFR,,,,,,,,,,,,METAR,37
KGVT 220415Z AUTO 10010KT 10SM -RA 13/ A2986 RMK AO2 P0013 TSNO T0133////,KGVT,2024-03-22T04:15:00Z,33.0669,-96.0614,13.3,,100,10,,10+,29.86,,,TRUE,TRUE,,,TRUE,,,-RA,,,,,,,,,VFR,,,,,,0.13,,,,,,METAR,165
KGVE 220415Z AUTO 00000KT 10SM CLR 02/M05 A3030 RMK AO1 T00201052,KGVE,2024-03-22T04:15:00Z,38.1569,-78.1656,2,-5.2,0,0,,10+,30.30,,,TRUE,TRUE,,,,,,,CLR,,,,,,,,VFR,,,,,,,,,,,,METAR,138
KGUL 220415Z AUTO 11014KT 8SM CLR A2981 RMK A01,KGUL,2024-03-22T04:15:00Z,27.3039,-93.5383,,,110,14,,8,29.81,,,TRUE,TRUE,,,,,,,CLR,,,,,,,,VFR,,,,,,,,,,,,METAR,20
KGRY 220415Z AUTO 13021G27KT 10SM SCT011 BKN026 OVC070 20/17 A2991 RMK A01,KGRY,2024-03-22T04:15:00Z,27.6247,-90.4411,20,17,130,21,27,10+,29.91,,,TRUE,TRUE,,,,,,,SCT,1100,BKN,2600,OVC,7000,,,MVFR,,,,,,,,,,,,METAR,58
KGRN 220415Z AUTO 36010KT 10SM SCT110 01/M09 A2998 RMK AO2 T00061088,KGRN,2024-03-22T04:15:00Z,42.8039,-102.181,0.6,-8.8,360,10,,10+,29.98,,,TRUE,TRUE,,,,,,,SCT,11000,,,,,,,VFR,,,,,,,,,,,,METAR,1080
KGPM 220415Z AUTO 00000KT 10SM SCT120 14/14 A2986 RMK AO2 T01350135,KGPM,2024-03-22T04:15:00Z,32.6928,-97.0485,13.5,13.5,0,0,,10+,29.86,,,TRUE,TRUE,,,,,,,SCT,12000,,,,,,,VFR,,,,,,,,,,,,METAR,178
KGPH 220415Z AUTO 13005KT 10SM CLR 08/M03 A2996 RMK AO2,KGPH,2024-03-22T04:15:00Z,39.3248,-94.3082,8,-3,130,5,,10+,29.96,,,TRUE,TRUE,,,,,,,CLR,,,,,,,,VFR,,,,,,,,,,,,METAR,233
KGPC 220415Z AUTO 08007KT 10SM CLR 01/M09 A3016 RMK AO2 T00151092,KGPC,2024-03-22T04:15:00Z,39.635,-86.816,1.5,-9.2,80,7,,10+,30.16,,,TRUE,TRUE,,,,,,,CLR,,,,,,,,VFR,,,,,,,,,,,,METAR,254
KGOP 220415Z AUTO 22005KT 10SM CLR 12/12 A2988 RMK AO2,KGOP,2024-03-22T04:15:00Z,31.4208,-97.7951,12,12,220,5,,10+,29.88,,,TRUE,TRUE,,,,,,,CLR,,,,,,,,VFR,,,,,,,,,,,,METAR,272
KGOO 220415Z AUTO VRB03KT 10SM CLR A3011 RMK A01,KGOO,2024-03-22T04:15:00Z,39.224,-121.003,,,VRB,3,,10+,30.11,,,TRUE,TRUE,,,,,,,CLR,,,,,,,,VFR,,,,,,,,,,,,METAR,950
KGNT 220415Z AUTO 29011KT 10SM CLR 09/M04 A3014 RMK AO2 T00911041,KGNT,2024-03-22T04:15:00Z,35.1653,-107.902,9.1,-4.1,290,11,,10+,30.14,,,TRUE,TRUE,,,,,,,CLR,,,,,,,,VFR,,,,,,,,,,,,METAR,1988
KGNG 220415Z AUTO 24005KT 10SM SCT048 SCT060 08/M02 A3009 RMK AO2,KGNG,2024-03-22T04:15:00Z,42.9155,-114.765,8,-2,240,5,,10+,30.09,,,TRUE,TRUE,,,,,,,SCT,4800,SCT,6000,,,,,VFR,,,,,,,,,,,,METAR,1128
KGNC 220415Z AUTO 27007KT 10SM CLR 11/02 A2997 RMK AO2 T01100023,KGNC,2024-03-22T04:15:00Z,32.678,-102.65,11,2.3,270,7,,10+,29.97,,,TRUE,TRUE,,,,,,,CLR,,,,,,,,VFR,,,,,,,,,,,,METAR,1002
KGNB 220415Z AUTO 25009KT 10SM CLR 02/M03 A3012 RMK AO2 T00151035,KGNB,2024-03-22T04:15:00Z,40.0904,-105.911,1.5,-3.5,250,9,,10+,30.12,,,TRUE,TRUE,,,,,,,CLR,,,,,,,,VFR,,,,,,,,,,,,METAR,2500
KGMJ 220415Z AUTO 00000KT 10SM SCT055 BKN100 13/09 A2994 RMK AO2 TSNO,KGMJ,2024-03-22T04:15:00Z,36.607,-94.7369,13,9,0,0,,10+,29.94,,,TRUE,TRUE,,,TRUE,,,,SCT,5500,BKN,10000,,,,,VFR,,,,,,,,,,,,METAR,251
KGLY 220415Z AUTO 13007KT 10SM FEW040 BKN049 10/01 A2996 RMK AO2,KGLY,2024-03-22T04:15:00Z,38.3572,-93.6774,10,1,130,7,,10+,29.96,,,TRUE,TRUE,,,,,,,FEW,4000,BKN,4900,,,,,VFR,,,,,,,,,,,,METAR,247
KGLW 220415Z AUTO 06006KT 10SM CLR 07/M03 A3012 RMK AO2 T00681031,KGLW,2024-03-22T04:15:00Z,37.0337,-85.9523,6.8,-3.1,60,6,,10+,30.12,,,TRUE,TRUE,,,,,,,CLR,,,,,,,,VFR,,,,,,,,,,,,METAR,216
KGLE 220415Z AUTO 24005KT 10SM BKN023 OVC075 13/13 A2989 RMK AO2 T01250125 PWINO,KGLE,2024-03-22T04:15:00Z,33.6525,-97.1981,12.5,12.5,240,5,,10+,29.89,,,TRUE,TRUE,,,,,TRUE,,BKN,2300,OVC,7500,,,,,MVFR,,,,,,,,,,,,METAR,250
KGKT 220415Z AUTO 00000KT 10SM CLR 08/02 A3012 RMK A01,KGKT,2024-03-22T04:15:00Z,35.8568,-83.5333,8,2,0,0,,10+,30.12,,,TRUE,TRUE,,,,,,,CLR,,,,,,,,VFR,,,,,,,,,,,,METAR,305
KGIC 220415Z AUTO 15004KT 10SM OVC080 06/02 A3008 RMK AO1,KGIC,2024-03-22T04:15:00Z,45.9411,-116.133,6,2,150,4,,10+,30.08,,,TRUE,TRUE,,,,,,,OVC,8000,,,,,,,VFR,,,,,,,,,,,,METAR,1002
KGHW 220415Z AUTO 06006KT 2SM -SN BKN012 BKN019 OVC028 M06/M06 A3018 RMK AO2,KGHW,2024-03-22T04:15:00Z,45.6456,-95.3187,-6,-6,60,6,,2,30.18,,,TRUE,TRUE,,,,,,-SN,BKN,1200,BKN,1900,OVC,2800,,,IFR,,,,,,,,,,,,METAR,423
KGHG 220415Z AUTO 29008G19KT 250V330 10SM CLR M02/M15 A3017 RMK AO2,KGHG,2024-03-22T04:15:00Z,42.0961,-70.6769,-2,-15,290,8,19,10+,30.17,,,TRUE,TRUE,,,,,,,CLR,,,,,,,,VFR,,,,,,,,,,,,METAR,3
KGGP 220415Z AUTO 09007KT 10SM CLR M01/M08 A3022 RMK AO2,KGGP,2024-03-22T04:15:00Z,40.7127,-86.3673,-1,-8,90,7,,10+,30.22,,,TRUE,TRUE,,,,,,,CLR,,,,,,,,VFR,,,,,,,,,,,,METAR,224
KGGI 220415Z AUTO 11008KT 10SM OVC060 07/M04 A3004 RMK AO2 T00721045,KGGI,2024-03-22T04:15:00Z,41.7097,-92.7332,7.2,-4.5,110,8,,10+,30.04,,,TRUE,TRUE,,,,,,,OVC,6000,,,,,,,VFR,,,,,,,,,,,,METAR,305
KGGG 220415Z AUTO 12008KT 10SM OVC008 13/12 A2990 RMK AO2 CIG 006V012 T01330117,KGGG,2024-03-22T04:15:00Z,32.3909,-94.714,13.3,11.7,120,8,,10+,29.90,,,TRUE,TRUE,,,,,,,OVC,800,,,,,,,IFR,,,,,,,,,,,,SPECI,107
KGGF 220415Z AUTO 33027G33KT 10SM FEW075 BKN110 07/M04 A2986 RMK AO2,KGGF,2024-03-22T04:15:00Z,40.871,-101.734,7,-4,330,27,33,10+,29.86,,,TRUE,TRUE,,,,,,,FEW,7500,BKN,11000,,,,,VFR,,,,,,,,,,,,METAR,1044
KGGE 220415Z AUTO 09006KT 7SM OVC006 14/13 A3019 RMK AO2,KGGE,2024-03-22T04:15:00Z,33.3138,-79.3187,14,13,90,6,,7,30.19,,,TRUE,TRUE,,,,,,,OVC,600,,,,,,,IFR,,,,,,,,,,,,METAR,9
KGDK 220415Z AUTO 08004KT 10SM BKN055 M00/M09 A3021 RMK AO2,KGDK,2024-03-22T04:15:00Z,39.6935,-83.9896,0,-9,80,4,,10+,30.21,,,TRUE,TRUE,,,,,,,BKN,5500,,,,,,,VFR,,,,,,,,,,,,METAR,284
KGDJ 220415Z AUTO 33005KT 10SM CLR 13/13 A2986 RMK AO2 LTG DSNT E T01300125,KGDJ,2024-03-22T04:15:00Z,32.4469,-97.817,13,12.5,330,5,,10+,29.86,,,TRUE,TRUE,,,,,,,CLR,,,,,,,,VFR,,,,,,,,,,,,METAR,235
KGDB 220415Z AUTO 07010KT 1 3/4SM -SN OVC011 M03/M04 A3017 RMK AO2 P0001 T10261037,KGDB,2024-03-22T04:15:00Z,44.7521,-95.5591,-2.6,-3.7,70,10,,1.75,30.17,,,TRUE,TRUE,,,,,,-SN,OVC,1100,,,,,,,IFR,,,,,,0.01,,,,,,METAR,316
KGDA 220415Z AUTO 09005KT 10SM CLR 08/M06 A3008 RMK AO2 T00791062 PWINO,KGDA,2024-03-22T04:15:00Z,37.3344,-88.1095,7.9,-6.2,90,5,,10+,30.08,,,TRUE,TRUE,,,,,TRUE,,CLR,,,,,,,,VFR,,,,,,,,,,,,METAR,199
KGCY 220415Z AUTO 09005KT 10SM FEW050 BKN060 BKN070 13/M04 A3012 RMK A01,KGCY,2024-03-22T04:15:00Z,36.1924,-82.8135,13,-4,90,5,,10+,30.12,,,TRUE,TRUE,,,,,,,FEW,5000,BKN,6000,BKN,7000,,,VFR,,,,,,,,,,,,METAR,488
KGCM 220415Z AUTO 11004KT 10SM OVC075 15/14 A2993 RMK AO2,KGCM,2024-03-22T04:15:00Z,36.2918,-95.4825,15,14,110,4,,10+,29.93,,,TRUE,TRUE,,,,,,,OVC,7500,,,,,,,VFR,,,,,,,,,,,,METAR,215
KGCD 220415Z AUTO 05004KT 10SM BKN090 08/00 A3004 RMK AO2 T00760004,KGCD,2024-03-22T04:15:00Z,44.4029,-118.967,7.6,0.4,50,4,,10+,30.04,,,TRUE,TRUE,,,,,,,BKN,9000,,,,,,,VFR,,,,,,,,,,,,METAR,1122
KGBG 220415Z AUTO 12007KT 10SM OVC065 05/M05 A3010 RMK AO2 T00471050 TSNO,KGBG,2024-03-22T04:15:00Z,40.9329,-90.4334,4.7,-5,120,7,,10+,30.10,,,TRUE,TRUE,,,TRUE,,,,OVC,6500,,,,,,,VFR,,,,,,,,,,,,METAR,230
KGAO 220415Z AUTO 10005KT 10SM BKN018 17/14 A2995 RMK AO2 T01650141,KGAO,2024-03-22T04:15:00Z,29.4352,-90.2599,16.5,14.1,100,5,,10+,29.95,,,TRUE,TRUE,,,,,,,BKN,1800,,,,,,,MVFR,,,,,,,,,,,,METAR,
KGAF 220415Z AUTO 21005KT 10SM CLR M05/M12 A3027 RMK AO2,KGAF,2024-03-22T04:15:00Z,48.4081,-97.3694,-5,-12,210,5,,10+,30.27,,,TRUE,TRUE,,,,,,,CLR,,,,,,,,VFR,,,,,,,,,,,,METAR,250
KFZG 220415Z AUTO 13003KT 10SM SCT110 18/05 A3008 RMK AO2 T01840047 PWINO,KFZG,2024-03-22T04:15:00Z,31.684,-83.2712,18.4,4.7,130,3,,10+,30.08,,,TRUE,TRUE,,,,,TRUE,,SCT,11000,,,,,,,VFR,,,,,,,,,,,,METAR,105
KFYJ 220415Z AUTO 00000KT 10SM CLR 03/M01 A3032 RMK AO1 T00291009,KFYJ,2024-03-22T04:15:00Z,37.5224,-76.7663,2.9,-0.9,0,0,,10+,30.32,,,TRUE,TRUE,,,,,,,CLR,,,,,,,,VFR,,,,,,,,,,,,METAR,3
KFYG 220415Z AUTO 00000KT 10SM 09/M04 A3006 RMK AO2,KFYG,2024-03-22T04:15:00Z,38.5877,-90.9915,9,-4,0,0,,10+,30.06,,,TRUE,TRUE,,,,,,,,,,,,,,,VFR,,,,,,,,,,,,METAR,147
KFYE 220415Z AUTO 00000KT 10SM CLR 15/08 A2998 RMK A01,KFYE,2024-03-22T04:15:00Z,35.2061,-89.3929,15,8,0,0,,10+,29.98,,,TRUE,TRUE,,,,,,,CLR,,,,,,,,VFR,,,,,,,,,,,,METAR,133
KFXY 220415Z AUTO 06007KT 10SM OVC060 M02/M03 A3008 RMK AO2,KFXY,2024-03-22T04:15:00Z,43.2323,-93.6237,-2,-3,60,7,,10+,30.08,,,TRUE,TRUE,,,,,,,OVC,6000,,,,,,,VFR,,,,,,,,,,,,METAR,366
KFWS 220415Z AUTO 00000KT 10SM BKN010 13/12 A2987 RMK AO2 LTG DSNT NE AND SE T01330125,KFWS,2024-03-22T04:15:00Z,32.558,-97.308,13.3,12.5,0,0,,10+,29.87,,,TRUE,TRUE,,,,,,,BKN,1000,,,,,,,MVFR,,,,,,,,,,,,METAR,211
KFWC 220415Z AUTO 05006KT 10SM CLR 05/M03 A3011 RMK AO2 T00521035,KFWC,2024-03-22T04:15:00Z,38.3796,-88.4135,5.2,-3.5,50,6,,10+,30.11,,,TRUE,TRUE,,,,,,,CLR,,,,,,,,VFR,,,,,,,,,,,,METAR,131
KFWB 220415Z AUTO 12006KT 10SM BKN047 OVC050 13/04 A2998 RMK AO2,KFWB,2024-03-22T04:15:00Z,36.6933,-93.4049,13,4,120,6,,10+,29.98,,,TRUE,TRUE,,,,,,,BKN,4700,OVC,5000,,,,,VFR,,,,,,,,,,,,METAR,392
KFVX 220415Z AUTO 01006KT 10SM CLR 06/M02 A3026 RMK AO2 T00641025,KFVX,2024-03-22T04:15:00Z,37.363,-78.4372,6.4,-2.5,10,6,,10+,30.26,,,TRUE,TRUE,,,,,,,CLR,,,,,,,,VFR,,,,,,,,,,,,METAR,129
KFSO 220415Z AUTO 29006G16KT 10SM CLR M06/M16 A3023 RMK AO2 T10591160,KFSO,2024-03-22T04:15:00Z,44.9411,-73.0997,-5.9,-16,290,6,16,10+,30.23,,,TRUE,TRUE,,,,,,,CLR,,,,,,,,VFR,,,,,,,,,,,,METAR,70
KFSK 220415Z AUTO 15006KT 10SM CLR 12/06 A2995 RMK AO2 T01170055,KFSK,2024-03-22T04:15:00Z,37.796,-94.7676,11.7,5.5,150,6,,10+,29.95,,,TRUE,TRUE,,,,,,,CLR,,,,,,,,VFR,,,,,,,,,,,,METAR,276
KFSE 220415Z AUTO 00000KT 10SM SCT050 OVC055 M06/M18 A3022 RMK AO2,KFSE,2024-03-22T04:15:00Z,47.589,-95.773,-6,-18,0,0,,10+,30.22,,,TRUE,TRUE,,,,,,,SCT,5000,OVC,5500,,,,,VFR,,,,,,,,,,,,METAR,389
KFRH 220415Z AUTO 08010KT 10SM CLR 04/M10 A3013 RMK AO1,KFRH,2024-03-22T04:15:00Z,38.5034,-86.6442,4,-10,80,10,,10+,30.13,,,TRUE,TRUE,,,,,,,CLR,,,,,,,,VFR,,,,,,,,,,,,METAR,241
KFPY 220415Z AUTO 08004KT 10SM SCT085 SCT110 18/09 A3005 RMK AO2 T01830090,KFPY,2024-03-22T04:15:00Z,30.0719,-83.5731,18.3,9,80,4,,10+,30.05,,,TRUE,TRUE,,,,,,,SCT,8500,SCT,11000,,,,,VFR,,,,,,,,,,,,METAR,12
KFPK 220415Z AUTO 11002KT 10SM SCT120 M03/M07 A3025 RMK AO2,KFPK,2024-03-22T04:15:00Z,42.5764,-84.8125,-3,-7,110,2,,10+,30.25,,,TRUE,TRUE,,,,,,,SCT,12000,,,,,,,VFR,,,,,,,,,,,,METAR,269
KFOT 220415Z AUTO 00000KT 5SM CLR 11/10 A3003 RMK AO1,KFOT,2024-03-22T04:15:00Z,40.5529,-124.134,11,10,0,0,,5,30.03,,,TRUE,TRUE,,,,,,,CLR,,,,,,,,MVFR,,,,,,,,,,,,METAR,118
KFOM 220415Z AUTO 10SM CLR 08/00 A3013 RMK AO1,KFOM,2024-03-22T04:15:00Z,38.9618,-112.36,8,0,,,,10+,30.13,,,TRUE,TRUE,,,,,,,CLR,,,,,,,,VFR,,,,,,,,,,,,METAR,1519
KFOA 220415Z AUTO 08006KT 10SM CLR 05/M05 A3012 RMK AO2,KFOA,2024-03-22T04:15:00Z,38.6673,-88.4527,5,-5,80,6,,10+,30.12,,,TRUE,TRUE,,,,,,,CLR,,,,,,,,VFR,,,,,,,,,,,,METAR,141
KFMM 220415Z AUTO 32022G31KT 10SM SCT070 OVC110 14/M00 A2991 RMK AO2,KFMM,2024-03-22T04:15:00Z,40.3315,-103.807,14,0,320,22,31,10+,29.91,,,TRUE,TRUE,,,,,,,SCT,7000,OVC,11000,,,,,VFR,,,,,,,,,,,,METAR,1376
KFLY 220415Z AUTO 35009G15KT 10SM BKN100 09/M09 A3001 RMK AO2 T00881087,KFLY,2024-03-22T04:15:00Z,38.9439,-104.568,8.8,-8.7,350,9,15,10+,30.01,,,TRUE,TRUE,,,,,,,BKN,10000,,,,,,,VFR,,,,,,,,,,,,METAR,2096
KFKS 220415Z AUTO 00000KT 10SM SCT120 M03/M13 A3027 RMK AO2 T10291129,KFKS,2024-03-22T04:15:00Z,44.6246,-86.1985,-2.9,-12.9,0,0,,10+,30.27,,,TRUE,TRUE,,,,,,,SCT,12000,,,,,,,VFR,,,,,,,,,,,,METAR,189
KFKN 220415Z AUTO 00000KT 10SM CLR 03/M01 A3029 RMK AO2 T00311007,KFKN,2024-03-22T04:15:00Z,36.6984,-76.9032,3.1,-0.7,0,0,,10+,30.29,,,TRUE,TRUE,,,,,,,CLR,,,,,,,,VFR,,,,,,,,,,,,METAR,9
KFKA 220415Z AUTO 05004KT 1 1/2SM -SN BR BKN002 BKN006 OVC021 M04/M04 A3014 RMK AO2,KFKA,2024-03-22T04:15:00Z,43.677,-92.174,-4,-4,50,4,,1.5,30.14,,,TRUE,TRUE,,,,,,-SN BR,BKN,200,BKN,600,OVC,2100,,,LIFR,,,,,,,,,,,,METAR,388
KFIN 220415Z AUTO 12004KT 10SM SCT034 19/17 A3007 RMK AO2 T01850168,KFIN,2024-03-22T04:15:00Z,29.467,-81.207,18.5,16.8,120,4,,10+,30.07,,,TRUE,TRUE,,,,,,,SCT,3400,,,,,,,VFR,,,,,,,,,,,,METAR,10
KFHB 220415Z AUTO 09007KT 10SM CLR 18/15 A3009 RMK AO2,KFHB,2024-03-22T04:15:00Z,30.6131,-81.4623,18,15,90,7,,10+,30.09,,,TRUE,TRUE,,,,,,,CLR,,,,,,,,VFR,,,,,,,,,,,,METAR,4
KFGX 220415Z AUTO 08007KT 10SM CLR 02/M11 A3022 RMK AO2 T00211115,KFGX,2024-03-22T04:15:00Z,38.5383,-83.7467,2.1,-11.5,80,7,,10+,30.22,,,TRUE,TRUE,,,,,,,CLR,,,,,,,,VFR,,,,,,,,,,,,METAR,279
KFGN 220415Z AUTO 02007KT 10SM CLR M08/M18 A3025 RMK AO2,KFGN,2024-03-22T04:15:00Z,49.318,-94.902,-8,-18,20,7,,10+,30.25,,,TRUE,TRUE,,,,,,,CLR,,,,,,,,VFR,,,,,,,,,,,,METAR,327
KFFX 220415Z AUTO 08006KT 10SM CLR M03/M11 A3025 RMK AO2 T10301106,KFFX,2024-03-22T04:15:00Z,43.4417,-85.9936,-3,-10.6,80,6,,10+,30.25,,,TRUE,TRUE,,,,,,,CLR,,,,,,,,VFR,,,,,,,,,,,,METAR,234
KFFM 220415Z AUTO 03004KT 1SM -SN BR SCT005 BKN019 OVC030 M05/M05 A3019 RMK AO2,KFFM,2024-03-22T04:15:00Z,46.2865,-96.1534,-5,-5,30,4,,1,30.19,,,TRUE,TRUE,,,,,,-SN BR,SCT,500,BKN,1900,OVC,3000,,,IFR,,,,,,,,,,,,METAR,362
KFFL 220415Z AUTO 12008KT 10SM SCT048 OVC060 05/M08 A3003 RMK A01,KFFL,2024-03-22T04:15:00Z,41.0521,-91.9834,5,-8,120,8,,10+,30.03,,,TRUE,TRUE,,,,,,,SCT,4800,OVC,6000,,,,,VFR,,,,,,,,,,,,METAR,240
KFET 220415Z AUTO 12007KT 10SM CLR 07/M06 A2991 RMK AO2 T00691065,KFET,2024-03-22T04:15:00Z,41.4489,-96.5237,6.9,-6.5,120,7,,10+,29.91,,,TRUE,TRUE,,,,,,,CLR,,,,,,,,VFR,,,,,,,,,,,,METAR,366
KFEP 220415Z AUTO 11012KT OVC085 02/M06 A3018 RMK AO2 T00161058,KFEP,2024-03-22T04:15:00Z,42.2475,-89.581,1.6,-5.8,110,12,,,30.18,,,TRUE,TRUE,,,,,,,OVC,8500,,,,,,,VFR,,,,,,,,,,,,METAR,255
KFDW 220415Z AUTO 13005KT 10SM CLR 14/07 A3015 RMK AO1,KFDW,2024-03-22T04:15:00Z,34.3151,-81.1119,14,7,130,5,,10+,30.15,,,TRUE,TRUE,,,,,,,CLR,,,,,,,,VFR,,,,,,,,,,,,METAR,174
KFCH 220415Z AUTO 36004KT 10SM CLR 19/09 A3009 RMK A01,KFCH,2024-03-22T04:15:00Z,36.7338,-119.82,19,9,360,4,,10+,30.09,,,TRUE,TRUE,,,,,,,CLR,,,,,,,,VFR,,,,,,,,,,,,METAR,85
KFBR 220415Z AUTO 25014G20KT 10SM CLR 04/M05 A3014 RMK AO2 T00371053,KFBR,2024-03-22T04:15:00Z,41.3941,-110.406,3.7,-5.3,250,14,20,10+,30.14,,,TRUE,TRUE,,,,,,,CLR,,,,,,,,VFR,,,,,,,,,,,,METAR,2140
KFBL 220415Z AUTO 02004KT 2SM -SN BKN015 OVC021 M03/M04 A3019 RMK AO2,KFBL,2024-03-22T04:15:00Z,44.3298,-93.3119,-3,-4,20,4,,2,30.19,,,TRUE,TRUE,,,,,,-SN,BKN,1500,OVC,2100,,,,,IFR,,,,,,,,,,,,METAR,318
KF70 220415Z AUTO 00000KT 10SM CLR 14/10 A3010 RMK AO2,KF70,2024-03-22T04:15:00Z,33.577,-117.126,14,10,0,0,,10+,30.10,,,TRUE,TRUE,,,,,,,CLR,,,,,,,,VFR,,,,,,,,,,,,METAR,406
KF46 220415Z AUTO 12009G15KT 10SM VCTS BKN003 BKN015 OVC100 14/14 A2983 RMK AO2 LTG DSNT E THRU S T01400140,KF46,2024-03-22T04:15:00Z,32.9322,-96.4349,14,14,120,9,15,10+,29.83,,,TRUE,TRUE,,,,,,VCTS,BKN,300,BKN,1500,OVC,10000,,,LIFR,,,,,,,,,,,,METAR,175
KF44 220415Z AUTO 13004KT 10SM TS OVC006 13/13 A2986 RMK AO2 LTG DSNT SW THRU N,KF44,2024-03-22T04:15:00Z,32.165,-95.829,13,13,130,4,,10+,29.86,,,TRUE,TRUE,,,,,,TS,OVC,600,,,,,,,IFR,,,,,,,,,,,,METAR,137
KF17 220415Z AUTO 11004KT 7SM -RA BKN005 BKN009 OVC037 13/12 A2994 RMK AO2 P0001,KF17,2024-03-22T04:15:00Z,31.8277,-94.154,13,12,110,4,,7,29.94,,,TRUE,TRUE,,,,,,-RA,BKN,500,BKN,900,OVC,3700,,,IFR,,,,,,0.01,,,,,,METAR,93
KF05 220415Z AUTO 32003KT 10SM CLR 12/12 A2989 RMK AO2 T01190119,KF05,2024-03-22T04:15:00Z,34.2283,-99.2834,11.9,11.9,320,3,,10+,29.89,,,TRUE,TRUE,,,,,,,CLR,,,,,,,,VFR,,,,,,,,,,,,METAR,384
KF00 220415Z AUTO 10009KT 10SM -RA OVC005 13/ A2986 RMK AO2 LTG DSNT S T0133////,KF00,2024-03-22T04:15:00Z,33.6158,-96.1809,13.3,,100,9,,10+,29.86,,,TRUE,TRUE,,,,,,-RA,OVC,500,,,,,,,IFR,,,,,,,,,,,,METAR,189
KEZZ 220415Z AUTO 13011KT 10SM CLR 07/M04 A2996 RMK AO2 T00681043,KEZZ,2024-03-22T04:15:00Z,39.729,-94.2785,6.8,-4.3,130,11,,10+,29.96,,,TRUE,TRUE,,,,,,,CLR,,,,,,,,VFR,,,,,,,,,,,,METAR,317
KEZS 220415Z AUTO 17003KT 10SM OVC065 M01/M11 A3023 RMK AO2 T10121113,KEZS,2024-03-22T04:15:00Z,44.787,-88.5639,-1.2,-11.3,170,3,,10+,30.23,,,TRUE,TRUE,,,,,,,OVC,6500,,,,,,,VFR,,,,,,,,,,,,METAR,247
KEZM 220415Z AUTO 13005KT 10SM CLR 17/07 A3011 RMK AO2,KEZM,2024-03-22T04:15:00Z,32.2136,-83.1321,17,7,130,5,,10+,30.11,,,TRUE,TRUE,,,,,,,CLR,,,,,,,,VFR,,,,,,,,,,,,METAR,86
KEZF 220415Z AUTO 00000KT 10SM CLR 02/M05 A3030 RMK AO2 T00171051,KEZF,2024-03-22T04:15:00Z,38.2685,-77.448,1.7,-5.1,0,0,,10+,30.30,,,TRUE,TRUE,,,,,,,CLR,,,,,,,,VFR,,,,,,,,,,,,METAR,26
KEVU 220415Z AUTO 10008KT 10SM CLR 07/M03 A2995 RMK AO2 T00771036,KEVU,2024-03-22T04:15:00Z,40.3524,-94.9137,7.7,-3.6,100,8,,10+,29.95,,,TRUE,TRUE,,,,,,,CLR,,,,,,,,VFR,,,,,,,,,,,,METAR,351
KETO 220415Z AUTO 14031G37KT 5SM HZ OVC014 20/17 A2993 RMK A01,KETO,2024-03-22T04:15:00Z,28.0336,-89.1008,20,17,140,31,37,5,29.93,,,TRUE,TRUE,,,,,,HZ,OVC,1400,,,,,,,MVFR,,,,,,,,,,,,METAR,42
KETN 220415Z AUTO 00000KT 10SM CLR 11/11 A2987 RMK AO2 T01080106,KETN,2024-03-22T04:15:00Z,32.4164,-98.8113,10.8,10.6,0,0,,10+,29.87,,,TRUE,TRUE,,,,,,,CLR,,,,,,,,VFR,,,,,,,,,,,,METAR,445
KETB 220415Z AUTO 11005KT 10SM OVC060 M01/M07 A3022 RMK AO2,KETB,2024-03-22T04:15:00Z,43.4225,-88.1326,-1,-7,110,5,,10+,30.22,,,TRUE,TRUE,,,,,,,OVC,6000,,,,,,,VFR,,,,,,,,,,,,METAR,269
KERY 220415Z AUTO 11003KT 10SM CLR M10/M13 A3028 RMK AO2 T10971130,KERY,2024-03-22T04:15:00Z,46.3151,-85.4568,-9.7,-13,110,3,,10+,30.28,,,TRUE,TRUE,,,,,,,CLR,,,,,,,,VFR,,,,,,,,,,,,METAR,261
KERV 220415Z AUTO 00000KT 3/4SM BR OVC002 14/13 A2991 RMK AO2 T01360132,KERV,2024-03-22T04:15:00Z,29.9779,-99.0872,13.6,13.2,0,0,,0.75,29.91,,,TRUE,TRUE,,,,,,BR,OVC,200,,,,,,,LIFR,,,,,,,,,,,,METAR,483
KEQA 220415Z AUTO 15010KT 10SM CLR 13/12 A2992 RMK AO2,KEQA,2024-03-22T04:15:00Z,37.7753,-96.8145,13,12,150,10,,10+,29.92,,,TRUE,TRUE,,,,,,,CLR,,,,,,,,VFR,,,,,,,,,,,,METAR,422
KEOK 220415Z AUTO 13011G17KT 10SM OVC060 07/M06 A3005 RMK A01,KEOK,2024-03-22T04:15:00Z,40.4615,-91.4274,7,-6,130,11,17,10+,30.05,,,TRUE,TRUE,,,,,,,OVC,6000,,,,,,,VFR,,,,,,,,,,,,METAR,206
KEOE 220415Z AUTO 00000KT 10SM CLR 16/04 A3017 RMK AO2,KEOE,2024-03-22T04:15:00Z,34.3062,-81.6413,16,4,0,0,,10+,30.17,,,TRUE,TRUE,,,,,,,CLR,,,,,,,,VFR,,,,,,,,,,,,METAR,166
KENL 220415Z AUTO 08005KT 10SM CLR 05/M03 A3010 RMK AO2 T00461031,KENL,2024-03-22T04:15:00Z,38.5095,-89.09,4.6,-3.1,80,5,,10+,30.10,,,TRUE,TRUE,,,,,,,CLR,,,,,,,,VFR,,,,,,,,,,,,METAR,161
KEMV 220415Z AUTO 00000KT 10SM CLR 04/01 A3028 RMK AO2 T00410009,KEMV,2024-03-22T04:15:00Z,36.6858,-77.485,4.1,0.9,0,0,,10+,30.28,,,TRUE,TRUE,,,,,,,CLR,,,,,,,,VFR,,,,,,,,,,,,METAR,35
KEMM 220415Z AUTO 00000KT 10SM CLR 01/M04 A3011 RMK AO2,KEMM,2024-03-22T04:15:00Z,41.8224,-110.555,1,-4,0,0,,10+,30.11,,,TRUE,TRUE,,,,,,,CLR,,,,,,,,VFR,,,,,,,,,,,,METAR,2219
KELO 220415Z AUTO 00000KT 10SM CLR M09/M18 A3021 RMK AO2,KELO,2024-03-22T04:15:00Z,47.8287,-91.8371,-9,-18,0,0,,10+,30.21,,,TRUE,TRUE,,,,,,,CLR,,,,,,,,VFR,,,,,,,,,,,,METAR,438
KELK 220415Z AUTO 00000KT 3/4SM BR CLR 08/08 A2990 RMK AO2 T00780078 $,KELK,2024-03-22T04:15:00Z,35.4261,-99.3926,7.8,7.8,0,0,,0.75,29.90,,,TRUE,TRUE,TRUE,,,,,BR,CLR,,,,,,,,LIFR,,,,,,,,,,,,METAR,603
KELA 220415Z AUTO 00000KT 10SM OVC012 17/17 A2986 RMK AO2 LTG DSNT N AND NW T01650165,KELA,2024-03-22T04:15:00Z,29.602,-96.3239,16.5,16.5,0,0,,10+,29.86,,,TRUE,TRUE,,,,,,,OVC,1200,,,,,,,MVFR,,,,,,,,,,,,METAR,56
KEKX 220415Z AUTO 08008KT 10SM CLR 05/M07 A3012 RMK AO2 T00521069,KEKX,2024-03-22T04:15:00Z,37.6924,-85.9204,5.2,-6.9,80,8,,10+,30.12,,,TRUE,TRUE,,,,,,,CLR,,,,,,,,VFR,,,,,,,,,,,,METAR,234
KEKM 220415Z 11006KT 10SM OVC080 00/M09 A3022 RMK AO2 T00021086 $,KEKM,2024-03-22T04:15:00Z,41.7222,-86,0.2,-8.6,110,6,,10+,30.22,,,,TRUE,TRUE,,,,,,OVC,8000,,,,,,,VFR,,,,,,,,,,,,METAR,236
KEIK 220415Z AUTO 23009G17KT 10SM BKN150 11/M01 A2993 RMK AO2 T01131011,KEIK,2024-03-22T04:15:00Z,40.0117,-105.05,11.3,-1.1,230,9,17,10+,29.93,,,TRUE,TRUE,,,,,,,BKN,15000,,,,,,,VFR,,,,,,,,,,,,METAR,1551
KEHY 220415Z AUTO 26020G30KT 10SM CLR 04/M07 A2998 RMK AO2 PWINO,KEHY,2024-03-22T04:15:00Z,41.725,-106.459,4,-7,260,20,30,10+,29.98,,,TRUE,TRUE,,,,,TRUE,,CLR,,,,,,,,VFR,,,,,,,,,,,,METAR,2239
KEHA 220415Z AUTO 20008KT 10SM CLR 07/04 A2992 RMK AO2 T00730036,KEHA,2024-03-22T04:15:00Z,37.0011,-101.88,7.3,3.6,200,8,,10+,29.92,,,TRUE,TRUE,,,,,,,CLR,,,,,,,,VFR,,,,,,,,,,,,METAR,1103
KEGV 220415Z AUTO 05004KT 10SM OVC090 M04/M15 A3015 RMK AO2 T10451149,KEGV,2024-03-22T04:15:00Z,45.9309,-89.267,-4.5,-14.9,50,4,,10+,30.15,,,TRUE,TRUE,,,,,,,OVC,9000,,,,,,,VFR,,,,,,,,,,,,METAR,499
KEGT 220415Z AUTO 14005KT 10SM CLR 11/10 A2992 RMK AO2 T01090099,KEGT,2024-03-22T04:15:00Z,37.3251,-97.3901,10.9,9.9,140,5,,10+,29.92,,,TRUE,TRUE,,,,,,,CLR,,,,,,,,VFR,,,,,,,,,,,,METAR,387
KEFT 220415Z AUTO 10008KT 10SM BKN065 OVC075 00/M03 A3014 RMK AO2 T00011027,KEFT,2024-03-22T04:15:00Z,42.6196,-89.5931,0.1,-2.7,100,8,,10+,30.14,,,TRUE,TRUE,,,,,,,BKN,6500,OVC,7500,,,,,VFR,,,,,,,,,,,,METAR,332
KEFK 220415Z AUTO 30012G21KT 7SM CLR M07/M15 A3011 RMK AO2 T10751150,KEFK,2024-03-22T04:15:00Z,44.8886,-72.2296,-7.5,-15,300,12,21,7,30.11,,,TRUE,TRUE,,,,,,,CLR,,,,,,,,VFR,,,,,,,,,,,,METAR,282
KEDU 220415Z AUTO 21005KT 10SM CLR 14/10 A3006 RMK AO1,KEDU,2024-03-22T04:15:00Z,38.53,-121.788,14,10,210,5,,10+,30.06,,,TRUE,TRUE,,,,,,,CLR,,,,,,,,VFR,,,,,,,,,,,,METAR,20
KEDN 220415Z AUTO 00000KT 10SM OVC080 16/07 A3005 RMK AO1 T01610070,KEDN,2024-03-22T04:15:00Z,31.299,-85.9,16.1,7,0,0,,10+,30.05,,,TRUE,TRUE,,,,,,,OVC,8000,,,,,,,VFR,,,,,,,,,,,,METAR,103
KEDJ 220415Z AUTO 11008KT 10SM FEW022 FEW027 SCT043 M00/M17 A3023 RMK A01,KEDJ,2024-03-22T04:15:00Z,40.3714,-83.8142,0,-17,110,8,,10+,30.23,,,TRUE,TRUE,,,,,,,FEW,2200,FEW,2700,SCT,4300,,,VFR,,,,,,,,,,,,METAR,341
KEDC 220415Z AUTO 01008KT 5SM BR FEW008 SCT016 16/16 A2984 RMK AO2,KEDC,2024-03-22T04:15:00Z,30.3926,-97.5621,16,16,10,8,,5,29.84,,,TRUE,TRUE,,,,,,BR,FEW,800,SCT,1600,,,,,MVFR,,,,,,,,,,,,METAR,184
KECU 220415Z AUTO 26003KT 10SM CLR 16/06 A2996 RMK AO2,KECU,2024-03-22T04:15:00Z,29.948,-100.174,16,6,260,3,,10+,29.96,,,TRUE,TRUE,,,,,,,CLR,,,,,,,,VFR,,,,,,,,,,,,METAR,725
KECS 220415Z AUTO 31003KT 10SM CLR 00/M05 A2999 RMK AO2,KECS,2024-03-22T04:15:00Z,43.8845,-104.312,0,-5,310,3,,10+,29.99,,,TRUE,TRUE,,,,,,,CLR,,,,,,,,VFR,,,,,,,,,,,,METAR,1273
KEBS 220415Z AUTO 08011KT 10SM OVC055 03/M11 A3001 RMK AO2,KEBS,2024-03-22T04:15:00Z,42.4372,-93.8725,3,-11,80,11,,10+,30.01,,,TRUE,TRUE,,,,,,,OVC,5500,,,,,,,VFR,,,,,,,,,,,,METAR,340
KEBG 220415Z AUTO 36005KT 10SM CLR 19/18 A2986 RMK AO2,KEBG,2024-03-22T04:15:00Z,26.4433,-98.1255,19,18,360,5,,10+,29.86,,,TRUE,TRUE,,,,,,,CLR,,,,,,,,VFR,,,,,,,,,,,,METAR,21
KEBA 220415Z AUTO 13006KT 10SM CLR 16/05 A3011 RMK AO2 T01640054,KEBA,2024-03-22T04:15:00Z,34.0957,-82.8121,16.4,5.4,130,6,,10+,30.11,,,TRUE,TRUE,,,,,,,CLR,,,,,,,,VFR,,,,,,,,,,,,METAR,180
KEAN 220415Z AUTO 33004KT 10SM OVC090 05/M02 A3003 RMK AO2 T00531017,KEAN,2024-03-22T04:15:00Z,42.0563,-104.939,5.3,-1.7,330,4,,10+,30.03,,,TRUE,TRUE,,,,,,,OVC,9000,,,,,,,VFR,,,,,,,,,,,,METAR,1452
KE77 220415Z AUTO 22010KT 10SM CLR 14/02 A3017 RMK AO2,KE77,2024-03-22T04:15:00Z,32.634,-110.647,14,2,220,10,,10+,30.17,,,TRUE,TRUE,,,,,,,CLR,,,,,,,,VFR,,,,,,,,,,,,METAR,989
KE57 220415Z AUTO 00000KT 10SM CLR 09/M00 A2994 RMK AO2,KE57,2024-03-22T04:15:00Z,32.976,-102.843,9,0,0,0,,10+,29.94,,,TRUE,TRUE,,,,,,,CLR,,,,,,,,VFR,,,,,,,,,,,,METAR,1090
KE42 220415Z AUTO 16010KT 10SM CLR 10/07 A2991 RMK AO2 T01030066,KE42,2024-03-22T04:15:00Z,36.2193,-101.194,10.3,6.6,160,10,,10+,29.91,,,TRUE,TRUE,,,,,,,CLR,,,,,,,,VFR,,,,,,,,,,,,METAR,942
KE41 220415Z AUTO 00000KT 10SM SCT110 14/02 A2992 RMK AO2 T01450018,KE41,2024-03-22T04:15:00Z,31.1945,-101.473,14.5,1.8,0,0,,10+,29.92,,,TRUE,TRUE,,,,,,,SCT,11000,,,,,,,VFR,,,,,,,,,,,,METAR,825
KE38 220415Z AUTO 00000KT 10SM CLR 14/M05 A3011 RMK AO2 T01351050,KE38,2024-03-22T04:15:00Z,30.3851,-103.68,13.5,-5,0,0,,10+,30.11,,,TRUE,TRUE,,,,,,,CLR,,,,,,,,VFR,,,,,,,,,,,,METAR,1372
KE16 220415Z AUTO 15005KT 10SM BKN029 14/10 A3012 RMK AO2 PWINO PNO,KE16,2024-03-22T04:15:00Z,37.0797,-121.598,14,10,150,5,,10+,30.12,,,TRUE,TRUE,,,,,TRUE,,BKN,2900,,,,,,,MVFR,,,,,,,,,,,,METAR,84
KE11 220415Z AUTO 00000KT 10SM CLR 13/04 A2994 RMK AO2 T01260039,KE11,2024-03-22T04:15:00Z,32.3281,-102.528,12.6,3.9,0,0,,10+,29.94,,,TRUE,TRUE,,,,,,,CLR,,,,,,,,VFR,,,,,,,,,,,,METAR,966
KDZJ 220415Z AUTO 00000KT 10SM CLR 09/03 A3012 RMK AO2 T00890035,KDZJ,2024-03-22T04:15:00Z,34.8552,-84.0014,8.9,3.5,0,0,,10+,30.12,,,TRUE,TRUE,,,,,,,CLR,,,,,,,,VFR,,,,,,,,,,,,METAR,578
KDZB 220415Z AUTO 18003KT 7SM BKN006 OVC010 16/16 A2990 RMK AO2 LTG DSNT SE T01600157,KDZB,2024-03-22T04:15:00Z,30.521,-98.3574,16,15.7,180,3,,7,29.90,,,TRUE,TRUE,,,,,,,BKN,600,OVC,1000,,,,,IFR,,,,,,,,,,,,METAR,329
KDYT 220415Z AUTO 18005KT 10SM OVC065 M02/M17 A3021 RMK AO2,KDYT,2024-03-22T04:15:00Z,46.7231,-92.0438,-2,-17,180,5,,10+,30.21,,,TRUE,TRUE,,,,,,,OVC,6500,,,,,,,VFR,,,,,,,,,,,,METAR,185
KDYB 220415Z AUTO 08005KT 10SM BKN070 14/13 A3014 RMK AO2,KDYB,2024-03-22T04:15:00Z,33.062,-80.28,14,13,80,5,,10+,30.14,,,TRUE,TRUE,,,,,,,BKN,7000,,,,,,,VFR,,,,,,,,,,,,METAR,15
KDXX 220415Z AUTO 07009KT 1SM -SN BKN006 OVC012 M02/M03 A3017 RMK AO2,KDXX,2024-03-22T04:15:00Z,44.9839,-96.1789,-2,-3,70,9,,1,30.17,,,TRUE,TRUE,,,,,,-SN,BKN,600,OVC,1200,,,,,IFR,,,,,,,,,,,,METAR,327
KDWX 220415Z AUTO 00000KT 10SM BKN075 03/00 A3011 RMK AO2 T00321005,KDWX,2024-03-22T04:15:00Z,41.037,-107.5,3.2,-0.5,0,0,,10+,30.11,,,TRUE,TRUE,,,,,,,BKN,7500,,,,,,,VFR,,,,,,,,,,,,METAR,1974
KDWA 220415Z AUTO 00000KT 10SM CLR 13/10 A3007 RMK AO2,KDWA,2024-03-22T04:15:00Z,38.5803,-121.854,13,10,0,0,,10+,30.07,,,TRUE,TRUE,,,,,,,CLR,,,,,,,,VFR,,,,,,,,,,,,METAR,28
KDVO 220415Z AUTO 36009KT 5SM -RA CLR 13/13 A3009 RMK AO2,KDVO,2024-03-22T04:15:00Z,38.1417,-122.555,13,13,360,9,,5,30.09,,,TRUE,TRUE,,,,,,-RA,CLR,,,,,,,,MVFR,,,,,,,,,,,,METAR,1
KDVK 220415Z AUTO 00000KT 10SM CLR 03/M06 A3017 RMK AO2,KDVK,2024-03-22T04:15:00Z,37.5764,-84.7641,3,-6,0,0,,10+,30.17,,,TRUE,TRUE,,,,,,,CLR,,,,,,,,VFR,,,,,,,,,,,,METAR,309
KDUX 220415Z AUTO 17008KT 10SM CLR 05/02 A2992 RMK AO2 T00520024,KDUX,2024-03-22T04:15:00Z,35.8608,-102.009,5.2,2.4,170,8,,10+,29.92,,,TRUE,TRUE,,,,,,,CLR,,,,,,,,VFR,,,,,,,,,,,,METAR,1129
KDUH 220415Z AUTO 00000KT 10SM SCT110 M02/M12 A3029 RMK AO2 T10181116,KDUH,2024-03-22T04:15:00Z,41.7375,-83.6493,-1.8,-11.6,0,0,,10+,30.29,,,TRUE,TRUE,,,,,,,SCT,11000,,,,,,,VFR,,,,,,,,,,,,METAR,203
KDUC 220415Z AUTO 05006KT 10SM OVC010 13/ A2987 RMK AO2 T0135////,KDUC,2024-03-22T04:15:00Z,34.4778,-97.9616,13.5,,50,6,,10+,29.87,,,TRUE,TRUE,,,,,,,OVC,1000,,,,,,,MVFR,,,,,,,,,,,,METAR,339
KDUA 220415Z AUTO 11009KT 10SM OVC008 14/12 A2988 RMK AO2,KDUA,2024-03-22T04:15:00Z,33.9427,-96.3967,14,12,110,9,,10+,29.88,,,TRUE,TRUE,,,,,,,OVC,800,,,,,,,IFR,,,,,,,,,,,,METAR,209
KDTL 220415Z AUTO 35008KT 1 1/2SM -SN BR OVC004 M06/M07 A3019 RMK AO2,KDTL,2024-03-22T04:15:00Z,46.8286,-95.8857,-6,-7,350,8,,1.5,30.19,,,TRUE,TRUE,,,,,,-SN BR,OVC,400,,,,,,,LIFR,,,,,,,,,,,,METAR,425
KDTA 220415Z AUTO 16013KT 10SM CLR 07/00 A3009 RMK AO1,KDTA,2024-03-22T04:15:00Z,39.3879,-112.504,7,0,160,13,,10+,30.09,,,TRUE,TRUE,,,,,,,CLR,,,,,,,,VFR,,,,,,,,,,,,METAR,1452
KDSF 220415Z AUTO 09022G30KT 3SM BR SCT023 BKN045 OVC090 19/17 A2995 RMK A01,KDSF,2024-03-22T04:15:00Z,28.3426,-88.2649,19,17,90,22,30,3,29.95,,,TRUE,TRUE,,,,,,BR,SCT,2300,BKN,4500,OVC,9000,,,MVFR,,,,,,,,,,,,METAR,40
KDRM 220415Z AUTO 00000KT 10SM CLR M11/M13 A3031 RMK AO2 T11121134,KDRM,2024-03-22T04:15:00Z,46.009,-83.743,-11.2,-13.4,0,0,,10+,30.31,,,TRUE,TRUE,,,,,,,CLR,,,,,,,,VFR,,,,,,,,,,,,METAR,201
KDRI 220415Z AUTO 05005KT 10SM -RA OVC004 13/13 A2994 RMK AO2 RAB0357 CIG 003V005 P0000 T01290129 TSNO $,KDRI,2024-03-22T04:15:00Z,30.8344,-93.3359,12.9,12.9,50,5,,10+,29.94,,,TRUE,TRUE,TRUE,,TRUE,,,-RA,OVC,400,,,,,,,LIFR,,,,,,0.005,,,,,,METAR,59
KDQH 220415Z AUTO 10004KT 10SM SCT100 17/04 A3010 RMK AO2 T01710044,KDQH,2024-03-22T04:15:00Z,31.4739,-82.8609,17.1,4.4,100,4,,10+,30.10,,,TRUE,TRUE,,,,,,,SCT,10000,,,,,,,VFR,,,,,,,,,,,,METAR,76
KDNV 220415Z AUTO 10008KT 10SM CLR 02/M09 A3016 RMK AO2 T00201091,KDNV,2024-03-22T04:15:00Z,40.2032,-87.5897,2,-9.1,100,8,,10+,30.16,,,TRUE,TRUE,,,,,,,CLR,,,,,,,,VFR,,,,,,,,,,,,METAR,208
KDNS 220415Z AUTO 12008KT 10SM OVC048 07/M07 A2997 RMK AO2,KDNS,2024-03-22T04:15:00Z,41.9842,-95.38,7,-7,120,8,,10+,29.97,,,TRUE,TRUE,,,,,,,OVC,4800,,,,,,,VFR,,,,,,,,,,,,METAR,382
KDNN 220415Z AUTO 00000KT 9SM SCT150 13/03 A3005 RMK AO2 T01340030,KDNN,2024-03-22T04:15:00Z,34.727,-84.8733,13.4,3,0,0,,9,30.05,,,TRUE,TRUE,,,,,,,SCT,15000,,,,,,,VFR,,,,,,,,,,,,METAR,216
KDNA 220415Z AUTO 27008KT 10SM CLR 15/M03 A3005 RMK AO2,KDNA,2024-03-22T04:15:00Z,31.875,-106.694,15,-3,270,8,,10+,30.05,,,TRUE,TRUE,,,,,,,CLR,,,,,,,,VFR,,,,,,,,,,,,METAR,1254
KDLZ 220415Z AUTO 07008KT 10SM SCT100 M02/M10 A3027 RMK AO2,KDLZ,2024-03-22T04:15:00Z,40.281,-83.114,-2,-10,70,8,,10+,30.27,,,TRUE,TRUE,,,,,,,SCT,10000,,,,,,,VFR,,,,,,,,,,,,METAR,287
KDLL 220415Z AUTO 11008KT 10SM BKN035 BKN046 OVC055 00/M07 A3018 RMK AO2 T00001068,KDLL,2024-03-22T04:15:00Z,43.5236,-89.7736,0,-6.8,110,8,,10+,30.18,,,TRUE,TRUE,,,,,,,BKN,3500,BKN,4600,OVC,5500,,,VFR,,,,,,,,,,,,METAR,297
KDKX 220415Z AUTO 00000KT 10SM CLR 08/05 A3012 RMK A01,KDKX,2024-03-22T04:15:00Z,35.9658,-83.8717,8,5,0,0,,10+,30.12,,,TRUE,TRUE,,,,,,,CLR,,,,,,,,VFR,,,,,,,,,,,,METAR,253
KDKB 220415Z AUTO 10006KT 10SM BKN110 01/M08 A3018 RMK AO2 T00051076,KDKB,2024-03-22T04:15:00Z,41.9338,-88.7066,0.5,-7.6,100,6,,10+,30.18,,,TRUE,TRUE,,,,,,,BKN,11000,,,,,,,VFR,,,,,,,,,,,,METAR,277
KDEH 220415Z AUTO 06005KT 1 1/4SM -SN BKN003 OVC007 M03/M03 A3012 RMK AO2,KDEH,2024-03-22T04:15:00Z,43.2755,-91.7433,-3,-3,60,5,,1.25,30.12,,,TRUE,TRUE,,,,,,-SN,BKN,300,OVC,700,,,,,LIFR,,,,,,,,,,,,METAR,348
KDED 220415Z AUTO 12004KT 10SM CLR 19/16 A3008 RMK AO2 T01870162,KDED,2024-03-22T04:15:00Z,29.075,-81.286,18.7,16.2,120,4,,10+,30.08,,,TRUE,TRUE,,,,,,,CLR,,,,,,,,VFR,,,,,,,,,,,,METAR,21
KDCM 220415Z AUTO 13007KT 10SM CLR 13/04 A3016 RMK AO2,KDCM,2024-03-22T04:15:00Z,34.7908,-81.1987,13,4,130,7,,10+,30.16,,,TRUE,TRUE,,,,,,,CLR,,,,,,,,VFR,,,,,,,,,,,,METAR,191
KDBN 220415Z AUTO 12007KT 10SM CLR 18/05 A3011 RMK AO2,KDBN,2024-03-22T04:15:00Z,32.5632,-82.9855,18,5,120,7,,10+,30.11,,,TRUE,TRUE,,,,,,,CLR,,,,,,,,VFR,,,,,,,,,,,,METAR,90
KD95 220415Z AUTO 12003KT 10SM CLR M04/M10 A3030 RMK AO2 T10411097,KD95,2024-03-22T04:15:00Z,43.0675,-83.2702,-4.1,-9.7,120,3,,10+,30.30,,,TRUE,TRUE,,,,,,,CLR,,,,,,,,VFR,,,,,,,,,,,,METAR,253
KD73 220415Z AUTO 04005KT 10SM CLR 17/06 A3009 RMK AO2 T01700060,KD73,2024-03-22T04:15:00Z,33.7826,-83.6948,17,6,40,5,,10+,30.09,,,TRUE,TRUE,,,,,,,CLR,,,,,,,,VFR,,,,,,,,,,,,METAR,254
KD60 220415Z AUTO 07007KT 2 1/2SM BR FEW020 FEW049 M07/M07 A3021 RMK AO2,KD60,2024-03-22T04:15:00Z,48.3834,-102.898,-7,-7,70,7,,2.5,30.21,,,TRUE,TRUE,,,,,,BR,FEW,2000,FEW,4900,,,,,IFR,,,,,,,,,,,,METAR,682
KD57 220415Z AUTO 05005KT 10SM SCT011 BKN037 OVC043 M08/M09 A3015 RMK AO2,KD57,2024-03-22T04:15:00Z,46.814,-101.864,-8,-9,50,5,,10+,30.15,,,TRUE,TRUE,,,,,,,SCT,1100,BKN,3700,OVC,4300,,,VFR,,,,,,,,,,,,METAR,636
KD55 220415Z AUTO 05012KT 10SM FEW065 BKN075 BKN085 M06/M11 A3022 RMK AO2,KD55,2024-03-22T04:15:00Z,48.7519,-98.3971,-6,-11,50,12,,10+,30.22,,,TRUE,TRUE,,,,,,,FEW,6500,BKN,7500,BKN,8500,,,VFR,,,,,,,,,,,,METAR,488
KD50 220415Z AUTO 07004KT 9SM FEW014 SCT026 OVC032 M07/M08 A3023 RMK AO2,KD50,2024-03-22T04:15:00Z,48.9248,-103.296,-7,-8,70,4,,9,30.23,,,TRUE,TRUE,,,,,,,FEW,1400,SCT,2600,OVC,3200,,,VFR,,,,,,,,,,,,METAR,591
KD39 220415Z AUTO 09005KT 2 1/2SM -SN CLR M05/M06 A3019 RMK AO2 T10551056,KD39,2024-03-22T04:15:00Z,45.7057,-94.9308,-5.5,-5.6,90,5,,2.5,30.19,,,TRUE,TRUE,,,,,,-SN,CLR,,,,,,,,IFR,,,,,,,,,,,,METAR,378
KD25 220415Z AUTO 06006KT 10SM BKN070 OVC080 M06/M15 A3016 RMK AO2 T10561148,KD25,2024-03-22T04:15:00Z,46.1203,-89.88,-5.6,-14.8,60,6,,10+,30.16,,,TRUE,TRUE,,,,,,,BKN,7000,OVC,8000,,,,,VFR,,,,,,,,,,,,METAR,490
KD09 220415Z AUTO 03009KT 10SM M06/M13 A3022 RMK AO2,KD09,2024-03-22T04:15:00Z,48.83,-100.417,-6,-13,30,9,,10+,30.22,,,TRUE,TRUE,,,,,,,,,,,,,,,VFR,,,,,,,,,,,,METAR,512
KCZT 220415Z AUTO 00000KT 10SM CLR 18/16 A2988 RMK AO2,KCZT,2024-03-22T04:15:00Z,28.5204,-99.8192,18,16,0,0,,10+,29.88,,,TRUE,TRUE,,,,,,,CLR,,,,,,,,VFR,,,,,,,,,,,,METAR,176
KCZL 220415Z AUTO 35003KT 10SM FEW120 14/07 A3005 RMK AO2,KCZL,2024-03-22T04:15:00Z,34.45,-84.936,14,7,350,3,,10+,30.05,,,TRUE,TRUE,,,,,,,FEW,12000,,,,,,,VFR,,,,,,,,,,,,METAR,197
KCYD 220415Z AUTO 12026KT 10SM BKN011 BKN040 OVC110 20/17 A2997 RMK A02 LTG DSNT E T01970171,KCYD,2024-03-22T04:15:00Z,28.1694,-89.2228,19.7,17.1,120,26,,10+,29.97,,,TRUE,TRUE,,,,,,,BKN,1100,BKN,4000,OVC,11000,,,MVFR,,,,,,,,,,,,METAR,30
KCXW 220415Z AUTO 06004KT 10SM OVC070 14/10 A2996 RMK A01,KCXW,2024-03-22T04:15:00Z,35.0217,-92.5506,14,10,60,4,,10+,29.96,,,TRUE,TRUE,,,,,,,OVC,7000,,,,,,,VFR,,,,,,,,,,,,METAR,84
KCXU 220415Z AUTO 00000KT 10SM SCT100 17/12 A3007 RMK AO1 T01670118,KCXU,2024-03-22T04:15:00Z,31.2141,-84.2358,16.7,11.8,0,0,,10+,30.07,,,TRUE,TRUE,,,,,,,SCT,10000,,,,,,,VFR,,,,,,,,,,,,METAR,48
KCXP 220415Z AUTO 00000KT 10SM CLR 11/M00 A3012 RMK AO2,KCXP,2024-03-22T04:15:00Z,39.1905,-119.732,11,0,0,0,,10+,30.12,,,TRUE,TRUE,,,,,,,CLR,,,,,,,,VFR,,,,,,,,,,,,METAR,1431
KCXE 220415Z AUTO 09003KT 10SM CLR 06/00 A3023 RMK AO1 T00551001,KCXE,2024-03-22T04:15:00Z,36.7923,-78.5027,5.5,-0.1,90,3,,10+,30.23,,,TRUE,TRUE,,,,,,,CLR,,,,,,,,VFR,,,,,,,,,,,,METAR,154
KCWV 220415Z AUTO 00000KT 10SM CLR 15/12 A3012 RMK AO2 T01500122,KCWV,2024-03-22T04:15:00Z,32.193,-81.873,15,12.2,0,0,,10+,30.12,,,TRUE,TRUE,,,,,,,CLR,,,,,,,,VFR,,,,,,,,,,,,METAR,32
KCWF 220415Z AUTO 08007KT 10SM OVC017 15/13 A2990 RMK AO2 LTG DSNT W T01470131,KCWF,2024-03-22T04:15:00Z,30.2216,-93.1467,14.7,13.1,80,7,,10+,29.90,,,TRUE,TRUE,,,,,,,OVC,1700,,,,,,,MVFR,,,,,,,,,,,,METAR,4
KCWC 220415Z AUTO 35006KT 10SM OVC018 14/13 A2987 RMK AO2 T01400132,KCWC,2024-03-22T04:15:00Z,33.8629,-98.4914,14,13.2,350,6,,10+,29.87,,,TRUE,TRUE,,,,,,,OVC,1800,,,,,,,MVFR,,,,,,,,,,,,METAR,304
KCWA 220415Z AUTO 16011KT 10SM CLR M02/M13 A3017 RMK AO2,KCWA,2024-03-22T04:15:00Z,44.7795,-89.671,-2,-13,160,11,,10+,30.17,,,TRUE,TRUE,,,,,,,CLR,,,,,,,,VFR,,,,,,,,,,,,METAR,387
KCVX 220415Z AUTO 13003KT 10SM CLR M05/M12 A3029 RMK AO2 T10541122,KCVX,2024-03-22T04:15:00Z,45.304,-85.2689,-5.4,-12.2,130,3,,10+,30.29,,,TRUE,TRUE,,,,,,,CLR,,,,,,,,VFR,,,,,,,,,,,,METAR,196
KCVH 220415Z AUTO 00000KT 10SM CLR 12/11 A3012 RMK A01,KCVH,2024-03-22T04:15:00Z,36.8919,-121.41,12,11,0,0,,10+,30.12,,,TRUE,TRUE,,,,,,,CLR,,,,,,,,VFR,,,,,,,,,,,,METAR,68
KCVC 220415Z AUTO 10003KT 10SM CLR 16/06 A3007 RMK AO2,KCVC,2024-03-22T04:15:00Z,33.6312,-83.8482,16,6,100,3,,10+,30.07,,,TRUE,TRUE,,,,,,,CLR,,,,,,,,VFR,,,,,,,,,,,,METAR,240
KCVB 220415Z AUTO 00000KT 10SM CLR 17/14 A2990 RMK AO2 T01700139,KCVB,2024-03-22T04:15:00Z,29.343,-98.8497,17,13.9,0,0,,10+,29.90,,,TRUE,TRUE,,,,,,,CLR,,,,,,,,VFR,,,,,,,,,,,,METAR,234
KCUL 220415Z AUTO 00000KT 10SM CLR 04/M04 A3010 RMK AO2 T00351038,KCUL,2024-03-22T04:15:00Z,38.0887,-88.1212,3.5,-3.8,0,0,,10+,30.10,,,TRUE,TRUE,,,,,,,CLR,,,,,,,,VFR,,,,,,,,,,,,METAR,116
KCUH 220415Z AUTO 11003KT 10SM DZ BKN035 BKN060 OVC090 13/13 A2991 RMK AO2 T01310126,KCUH,2024-03-22T04:15:00Z,35.949,-96.768,13.1,12.6,110,3,,10+,29.91,,,TRUE,TRUE,,,,,,DZ,BKN,3500,BKN,6000,OVC,9000,,,VFR,,,,,,,,,,,,METAR,274
KCTY 220415Z AUTO 00000KT 10SM BKN060 OVC100 19/13 A3006 RMK AO2,KCTY,2024-03-22T04:15:00Z,29.6334,-83.1055,19,13,0,0,,10+,30.06,,,TRUE,TRUE,,,,,,,BKN,6000,OVC,10000,,,,,VFR,,,,,,,,,,,,METAR,12
KCTJ 220415Z AUTO 00000KT 10SM CLR 15/06 A3010 RMK AO2 T01530064 PNO,KCTJ,2024-03-22T04:15:00Z,33.6313,-85.1538,15.3,6.4,0,0,,10+,30.10,,,TRUE,TRUE,,,,,,,CLR,,,,,,,,VFR,,,,,,,,,,,,METAR,351
KCSQ 220415Z AUTO 11008KT 10SM BKN120 03/M08 A2997 RMK AO2,KCSQ,2024-03-22T04:15:00Z,41.0188,-94.361,3,-8,110,8,,10+,29.97,,,TRUE,TRUE,,,,,,,BKN,12000,,,,,,,VFR,,,,,,,,,,,,METAR,394
KCSB 220415Z AUTO 16010G15KT 10SM CLR 12/05 A2979 RMK AO2,KCSB,2024-03-22T04:15:00Z,40.307,-100.162,12,5,160,10,15,10+,29.79,,,TRUE,TRUE,,,,,,,CLR,,,,,,,,VFR,,,,,,,,,,,,METAR,736
KCRX 220415Z AUTO 00000KT 10SM FEW110 16/09 A3000 RMK AO2,KCRX,2024-03-22T04:15:00Z,34.9209,-88.6071,16,9,0,0,,10+,30.00,,,TRUE,TRUE,,,,,,,FEW,11000,,,,,,,VFR,,,,,,,,,,,,METAR,128
KCQW 220415Z AUTO 00000KT 10SM CLR 13/06 A3017 RMK AO2,KCQW,2024-03-22T04:15:00Z,34.7128,-79.9622,13,6,0,0,,10+,30.17,,,TRUE,TRUE,,,,,,,CLR,,,,,,,,VFR,,,,,,,,,,,,METAR,67
KCQM 220415Z AUTO 00000KT 10SM CLR M07/M19 A3020 RMK AO2,KCQM,2024-03-22T04:15:00Z,47.8199,-92.6817,-7,-19,0,0,,10+,30.20,,,TRUE,TRUE,,,,,,,CLR,,,,,,,,VFR,,,,,,,,,,,,METAR,406
KCQF 220415Z AUTO 00000KT 10SM -DZ SCT095 OVC110 15/08 A2999 RMK AO2,KCQF,2024-03-22T04:15:00Z,30.4618,-87.8749,15,8,0,0,,10+,29.99,,,TRUE,TRUE,,,,,,-DZ,SCT,9500,OVC,11000,,,,,VFR,,,,,,,,,,,,METAR,21
KCPW 220415Z AUTO 31010KT 10SM CLR M03/M12 A3026 RMK AO2,KCPW,2024-03-22T04:15:00Z,37.464,-106.804,-3,-12,310,10,,10+,30.26,,,TRUE,TRUE,,,,,,,CLR,,,,,,,,VFR,,,,,,,,,,,,METAR,3570
KCPU 220415Z AUTO 33003KT 10SM CLR 14/09 A3010 RMK AO2 T01440087,KCPU,2024-03-22T04:15:00Z,38.1445,-120.645,14.4,8.7,330,3,,10+,30.10,,,TRUE,TRUE,,,,,,,CLR,,,,,,,,VFR,,,,,,,,,,,,METAR,400
KCPT 220415Z AUTO 05004KT 10SM CLR 13/13 A2987 RMK A01 LTG DSNT SE,KCPT,2024-03-22T04:15:00Z,32.3526,-97.435,13,13,50,4,,10+,29.87,,,TRUE,TRUE,,,,,,,CLR,,,,,,,,VFR,,,,,,,,,,,,METAR,260
KCPP 220415Z AUTO 15007KT 120V180 10SM SCT003 17/06 A3008 RMK AO2,KCPP,2024-03-22T04:15:00Z,33.5991,-83.1401,17,6,150,7,,10+,30.08,,,TRUE,TRUE,,,,,,,SCT,300,,,,,,,VFR,,,,,,,,,,,,METAR,207
KCPK 220415Z AUTO 00000KT 10SM CLR 02/00 A3029 RMK AO2 T00180000,KCPK,2024-03-22T04:15:00Z,36.6631,-76.3264,1.8,0,0,0,,10+,30.29,,,TRUE,TRUE,,,,,,,CLR,,,,,,,,VFR,,,,,,,,,,,,METAR,4
KCPF 220415Z AUTO 00000KT 10SM CLR 05/M08 A3017 RMK AO2,KCPF,2024-03-22T04:15:00Z,37.3869,-83.2593,5,-8,0,0,,10+,30.17,,,TRUE,TRUE,,,,,,,CLR,,,,,,,,VFR,,,,,,,,,,,,METAR,382
KCOQ 220415Z AUTO 00000KT 10SM OVC070 M03/M18 A3016 RMK AO2 TSNO,KCOQ,2024-03-22T04:15:00Z,46.6986,-92.5034,-3,-18,0,0,,10+,30.16,,,TRUE,TRUE,,,TRUE,,,,OVC,7000,,,,,,,VFR,,,,,,,,,,,,METAR,390
KCOM 220415Z AUTO 27004KT 10SM CLR 13/12 A2990 RMK AO2 T01270117,KCOM,2024-03-22T04:15:00Z,31.8415,-99.4058,12.7,11.7,270,4,,10+,29.90,,,TRUE,TRUE,,,,,,,CLR,,,,,,,,VFR,,,,,,,,,,,,METAR,516
KCNI 220415Z AUTO 06004KT 10SM BKN085 BKN120 17/04 A3008 RMK AO2 T01690039,KCNI,2024-03-22T04:15:00Z,34.31,-84.424,16.9,3.9,60,4,,10+,30.08,,,TRUE,TRUE,,,,,,,BKN,8500,BKN,12000,,,,,VFR,,,,,,,,,,,,METAR,371
KCNC 220415Z AUTO 12008KT 10SM 05/M06 A2999 RMK AO2,KCNC,2024-03-22T04:15:00Z,41.0185,-93.3608,5,-6,120,8,,10+,29.99,,,TRUE,TRUE,,,,,,,,,,,,,,,VFR,,,,,,,,,,,,METAR,319
KCNB 220415Z AUTO 03010KT 7SM -SN SCT041 BKN047 OVC070 M03/M04 A3015 RMK AO2 T10301045,KCNB,2024-03-22T04:15:00Z,44.7297,-96.2623,-3,-4.5,30,10,,7,30.15,,,TRUE,TRUE,,,,,,-SN,SCT,4100,BKN,4700,OVC,7000,,,VFR,,,,,,,,,,,,METAR,363
KCMR 220415Z AUTO 23007KT 10SM CLR 06/M03 A3022 RMK AO2,KCMR,2024-03-22T04:15:00Z,35.3016,-112.197,6,-3,230,7,,10+,30.22,,,TRUE,TRUE,,,,,,,CLR,,,,,,,,VFR,,,,,,,,,,,,METAR,2039
KCMD 220415Z AUTO 00000KT 10SM FEW120 16/08 A3003 RMK AO2,KCMD,2024-03-22T04:15:00Z,34.2722,-86.8583,16,8,0,0,,10+,30.03,,,TRUE,TRUE,,,,,,,FEW,12000,,,,,,,VFR,,,,,,,,,,,,METAR,294
KCLW 220415Z AUTO 12004KT 10SM SCT030 BKN036 OVC080 20/15 A3003 RMK AO2,KCLW,2024-03-22T04:15:00Z,27.9741,-82.7563,20,15,120,4,,10+,30.03,,,TRUE,TRUE,,,,,,,SCT,3000,BKN,3600,OVC,8000,,,VFR,,,,,,,,,,,,METAR,21
KCLS 220415Z AUTO 00000KT 10SM OVC065 11/11 A3006 RMK AO2,KCLS,2024-03-22T04:15:00Z,46.6774,-122.986,11,11,0,0,,10+,30.06,,,TRUE,TRUE,,,,,,,OVC,6500,,,,,,,VFR,,,,,,,,,,,,METAR,52
KCLI 220415Z AUTO 16006KT 10SM OVC060 M02/M09 A3023 RMK AO2 T10191093,KCLI,2024-03-22T04:15:00Z,44.6152,-88.7313,-1.9,-9.3,160,6,,10+,30.23,,,TRUE,TRUE,,,,,,,OVC,6000,,,,,,,VFR,,,,,,,,,,,,METAR,248
KCKZ 220415Z AUTO 35004KT 10SM CLR M01/M13 A3031 RMK AO2,KCKZ,2024-03-22T04:15:00Z,40.3864,-75.2953,-1,-13,350,4,,10+,30.31,,,TRUE,TRUE,,,,,,,CLR,,,,,,,,VFR,,,,,,,,,,,,METAR,160
KCKP 220415Z AUTO 09013G20KT 10SM OVC050 03/M11 A2999 RMK AO2 T00291111,KCKP,2024-03-22T04:15:00Z,42.7304,-95.5538,2.9,-11.1,90,13,20,10+,29.99,,,TRUE,TRUE,,,,,,,OVC,5000,,,,,,,VFR,,,,,,,,,,,,METAR,369
KCKM 220415Z AUTO 00000KT 10SM 15/ A2997 RMK A01,KCKM,2024-03-22T04:15:00Z,34.2945,-90.5146,15,,0,0,,10+,29.97,,,TRUE,TRUE,,,,,,,,,,,,,,,VFR,,,,,,,,,,,,METAR,52
KCKI 220415Z AUTO 10005KT 10SM CLR 11/10 A3018 RMK AO2,KCKI,2024-03-22T04:15:00Z,33.7187,-79.8567,11,10,100,5,,10+,30.18,,,TRUE,TRUE,,,,,,,CLR,,,,,,,,VFR,,,,,,,,,,,,METAR,19
KCKF 220415Z AUTO 14005KT 10SM SCT100 19/06 A3007 RMK AO2 T01860058,KCKF,2024-03-22T04:15:00Z,31.9889,-83.7739,18.6,5.8,140,5,,10+,30.07,,,TRUE,TRUE,,,,,,,SCT,10000,,,,,,,VFR,,,,,,,,,,,,METAR,92
KCKC 220415Z AUTO 00000KT 10SM CLR M11/M18 A3016 RMK AO2,KCKC,2024-03-22T04:15:00Z,47.8366,-90.3864,-11,-18,0,0,,10+,30.16,,,TRUE,TRUE,,,,,,,CLR,,,,,,,,VFR,,,,,,,,,,,,METAR,544
KCJR 220415Z AUTO 00000KT 10SM CLR M01/M06 A3032 RMK AO2 T10071065,KCJR,2024-03-22T04:15:00Z,38.5261,-77.8574,-0.7,-6.5,0,0,,10+,30.32,,,TRUE,TRUE,,,,,,,CLR,,,,,,,,VFR,,,,,,,,,,,,METAR,90
KCIR 220415Z AUTO 08004KT 10SM CLR 10/M02 A3006 RMK AO2 T00971025,KCIR,2024-03-22T04:15:00Z,37.0639,-89.2232,9.7,-2.5,80,4,,10+,30.06,,,TRUE,TRUE,,,,,,,CLR,,,,,,,,VFR,,,,,,,,,,,,METAR,96
KCIN 220415Z AUTO 11009KT 10SM OVC047 06/M08 A2996 RMK AO2,KCIN,2024-03-22T04:15:00Z,42.0444,-94.7888,6,-8,110,9,,10+,29.96,,,TRUE,TRUE,,,,,,,OVC,4700,,,,,,,VFR,,,,,,,,,,,,METAR,365
KCHK 220415Z AUTO 00000KT 10SM -DZ OVC008 13/13 A2985 RMK AO2 T01340129,KCHK,2024-03-22T04:15:00Z,35.0927,-97.9709,13.4,12.9,0,0,,10+,29.85,,,TRUE,TRUE,,,,,,-DZ,OVC,800,,,,,,,IFR,,,,,,,,,,,,METAR,346
KCGF 220415Z AUTO 09005KT 10SM CLR M05/M11 A3033 RMK AO2 T10521109,KCGF,2024-03-22T04:15:00Z,41.566,-81.4827,-5.2,-10.9,90,5,,10+,30.33,,,TRUE,TRUE,,,,,,,CLR,,,,,,,,VFR,,,,,,,,,,,,METAR,265
KCGC 220415Z AUTO 10004KT 10SM BKN090 21/16 A3004 RMK AO2,KCGC,2024-03-22T04:15:00Z,28.866,-82.5741,21,16,100,4,,10+,30.04,,,TRUE,TRUE,,,,,,,BKN,9000,,,,,,,VFR,,,,,,,,,,,,METAR,3
KCFS 220415Z AUTO 13005KT 10SM CLR M04/M10 A3029 RMK AO2 T10431102,KCFS,2024-03-22T04:15:00Z,43.4624,-83.4428,-4.3,-10.2,130,5,,10+,30.29,,,TRUE,TRUE,,,,,,,CLR,,,,,,,,VFR,,,,,,,,,,,,METAR,214
KCFO 220415Z AUTO 34008KT 10SM CLR 11/M02 A2996 RMK AO2 T01101020,KCFO,2024-03-22T04:15:00Z,39.7948,-104.54,11,-2,340,8,,10+,29.96,,,TRUE,TRUE,,,,,,,CLR,,,,,,,,VFR,,,,,,,,,,,,METAR,1672
KCFJ 220415Z AUTO 08006KT 10SM CLR 00/M12 A3017 RMK AO2 T10021121,KCFJ,2024-03-22T04:15:00Z,39.9767,-86.9148,-0.2,-12.1,80,6,,10+,30.17,,,TRUE,TRUE,,,,,,,CLR,,,,,,,,VFR,,,,,,,,,,,,METAR,243
KCFE 220415Z AUTO 04004KT 3/4SM -SN BR OVC003 M04/M04 A3020 RMK AO2,KCFE,2024-03-22T04:15:00Z,45.1601,-93.846,-4,-4,40,4,,0.75,30.20,,,TRUE,TRUE,,,,,,-SN BR,OVC,300,,,,,,,LIFR,,,,,,,,,,,,METAR,292
KCFD 220415Z AUTO 31011G29KT 1 1/2SM /VCTSRA BKN004 OVC010 14/14 A2996 RMK AO2 LTG DSNT ALQS P0036 T01420142,KCFD,2024-03-22T04:15:00Z,30.7171,-96.3347,14.2,14.2,310,11,29,1.5,29.96,,,TRUE,TRUE,,,,,,VCTS RA,BKN,400,OVC,1000,,,,,LIFR,,,,,,0.36,,,,,,METAR,106
KCEY 220415Z AUTO 07007KT 10SM FEW070 SCT120 12/M04 A3006 RMK A01,KCEY,2024-03-22T04:15:00Z,36.664,-88.372,12,-4,70,7,,10+,30.06,,,TRUE,TRUE,,,,,,,FEW,7000,SCT,12000,,,,,VFR,,,,,,,,,,,,METAR,172
KCDN 220415Z AUTO 00000KT 10SM CLR 13/08 A3017 RMK AO2,KCDN,2024-03-22T04:15:00Z,34.2815,-80.5636,13,8,0,0,,10+,30.17,,,TRUE,TRUE,,,,,,,CLR,,,,,,,,VFR,,,,,,,,,,,,METAR,90
KCDI 220415Z AUTO 00000KT 10SM CLR M03/M05 A3028 RMK AO2 T10291051,KCDI,2024-03-22T04:15:00Z,39.976,-81.577,-2.9,-5.1,0,0,,10+,30.28,,,TRUE,TRUE,,,,,,,CLR,,,,,,,,VFR,,,,,,,,,,,,METAR,241
KCDH 220415Z AUTO 00000KT 8SM OVC065 16/13 A2994 RMK AO2,KCDH,2024-03-22T04:15:00Z,33.619,-92.765,16,13,0,0,,8,29.94,,,TRUE,TRUE,,,,,,,OVC,6500,,,,,,,VFR,,,,,,,,,,,,METAR,38
KCDA 220415Z AUTO 26008KT 10SM CLR M08/M15 A3010 RMK AO2 T10821153,KCDA,2024-03-22T04:15:00Z,44.5677,-72.0191,-8.2,-15.3,260,8,,10+,30.10,,,TRUE,TRUE,,,,,,,CLR,,,,,,,,VFR,,,,,,,,,,,,METAR,357
KCCY 220415Z AUTO 06011KT 10SM OVC060 M02/M02 A3009 RMK AO2,KCCY,2024-03-22T04:15:00Z,43.073,-92.6132,-2,-2,60,11,,10+,30.09,,,TRUE,TRUE,,,,,,,OVC,6000,,,,,,,VFR,,,,,,,,,,,,METAR,340
KCCU 220415Z AUTO BKN003 BKN007 OVC017 M02/M05 A3019 RMK AO2 PWINO,KCCU,2024-03-22T04:15:00Z,39.475,-106.152,-2,-5,,,,,30.19,,,TRUE,TRUE,,,,,TRUE,,BKN,300,BKN,700,OVC,1700,,,LIFR,,,,,,,,,,,,METAR,3672
KCCO 220415Z AUTO 00000KT 10SM CLR 16/07 A3008 RMK AO2 T01580070,KCCO,2024-03-22T04:15:00Z,33.3107,-84.7713,15.8,7,0,0,,10+,30.08,,,TRUE,TRUE,,,,,,,CLR,,,,,,,,VFR,,,,,,,,,,,,METAR,290
KCCB 220415Z AUTO 27005KT 10SM CLR 15/12 A3009 RMK AO2,KCCB,2024-03-22T04:15:00Z,34.1118,-117.685,15,12,270,5,,10+,30.09,,,TRUE,TRUE,,,,,,,CLR,,,,,,,,VFR,,,,,,,,,,,,METAR,440
KCCA 220415Z AUTO 00000KT 10SM OVC070 12/09 A2999 RMK AO2 TSNO,KCCA,2024-03-22T04:15:00Z,35.5946,-92.4455,12,9,0,0,,10+,29.99,,,TRUE,TRUE,,,TRUE,,,,OVC,7000,,,,,,,VFR,,,,,,,,,,,,METAR,152
KCBK 220415Z AUTO 21007KT 10SM CLR 09/03 A2985 RMK AO2 T00880030,KCBK,2024-03-22T04:15:00Z,39.4301,-101.051,8.8,3,210,7,,10+,29.85,,,TRUE,TRUE,,,,,,,CLR,,,,,,,,VFR,,,,,,,,,,,,METAR,970
KCBG 220415Z AUTO 00000KT 3/4SM SN OVC001 M04/M07 A3022 RMK AO2,KCBG,2024-03-22T04:15:00Z,45.557,-93.264,-4,-7,0,0,,0.75,30.22,,,TRUE,TRUE,,,,,,SN,OVC,100,,,,,,,LIFR,,,,,,,,,,,,METAR,285
KCBF 220415Z AUTO 13008KT 10SM BKN050 05/M06 A2990 RMK AO2,KCBF,2024-03-22T04:15:00Z,41.2611,-95.7604,5,-6,130,8,,10+,29.90,,,TRUE,TRUE,,,,,,,BKN,5000,,,,,,,VFR,,,,,,,,,,,,METAR,379
KCAV 220415Z AUTO 08014KT 10SM OVC055 01/M09 A3004 RMK A01,KCAV,2024-03-22T04:15:00Z,42.743,-93.7592,1,-9,80,14,,10+,30.04,,,TRUE,TRUE,,,,,,,OVC,5500,,,,,,,VFR,,,,,,,,,,,,METAR,352
KCAD 220415Z AUTO 07004KT 10SM FEW120 M06/M13 A3023 RMK AO2,KCAD,2024-03-22T04:15:00Z,44.2785,-85.4207,-6,-13,70,4,,10+,30.23,,,TRUE,TRUE,,,,,,,FEW,12000,,,,,,,VFR,,,,,,,,,,,,METAR,397
KC99 220415Z AUTO 30017G24KT BKN013 BKN039 OVC090 M04/M06 A3013 RMK AO2,KC99,2024-03-22T04:15:00Z,39.869,-105.553,-4,-6,300,17,24,,30.13,,,TRUE,TRUE,,,,,,,BKN,1300,BKN,3900,OVC,9000,,,MVFR,,,,,,,,,,,,METAR,3334
KC83 220415Z AUTO 00000KT 10SM CLR 13/08 A3009 RMK AO2,KC83,2024-03-22T04:15:00Z,37.8276,-121.624,13,8,0,0,,10+,30.09,,,TRUE,TRUE,,,,,,,CLR,,,,,,,,VFR,,,,,,,,,,,,METAR,16
KC75 220415Z AUTO 13008KT 10SM SCT070 SCT120 03/M10 A3013 RMK AO2 T00281103,KC75,2024-03-22T04:15:00Z,41.0231,-89.3886,2.8,-10.3,130,8,,10+,30.13,,,TRUE,TRUE,,,,,,,SCT,7000,SCT,12000,,,,,VFR,,,,,,,,,,,,METAR,166
KC65 220415Z AUTO 12006KT 10SM BKN110 M00/M10 A3021 RMK A01,KC65,2024-03-22T04:15:00Z,41.3636,-86.2998,0,-10,120,6,,10+,30.21,,,TRUE,TRUE,,,,,,,BKN,11000,,,,,,,VFR,,,,,,,,,,,,METAR,241
KC35 220415Z AUTO 00000KT 10SM SCT034 SCT042 OVC055 M01/M07 A3017 RMK AO2 T10111066 PWINO,KC35,2024-03-22T04:15:00Z,43.5261,-89.9809,-1.1,-6.6,0,0,,10+,30.17,,,TRUE,TRUE,,,,,TRUE,,SCT,3400,SCT,4200,OVC,5500,,,VFR,,,,,,,,,,,,METAR,272
KC29 220415Z AUTO 10004KT 3/4SM SCT004 OVC008 00/00 A3019 RMK AO1 T10051005,KC29,2024-03-22T04:15:00Z,43.1153,-89.5312,-0.5,-0.5,100,4,,0.75,30.19,,,TRUE,TRUE,,,,,,,SCT,400,OVC,800,,,,,LIFR,,,,,,,,,,,,METAR,282
KC09 220415Z AUTO 11006KT 10SM SCT100 SCT120 02/M06 A3017 RMK AO2 T00201063,KC09,2024-03-22T04:15:00Z,41.4317,-88.4152,2,-6.3,110,6,,10+,30.17,,,TRUE,TRUE,,,,,,,SCT,10000,SCT,12000,,,,,VFR,,,,,,,,,,,,METAR,179
KC08 220415Z AUTO 00000KT 10SM CLR 00/M07 A3008 RMK AO2,KC08,2024-03-22T04:15:00Z,38.0138,-105.373,0,-7,0,0,,10+,30.08,,,TRUE,TRUE,,,,,,,CLR,,,,,,,,VFR,,,,,,,,,,,,METAR,2527
KC07 220415Z AUTO 29009G18KT 260V320 3/4SM BR OVC001 M02/M02 A3012 RMK AO2,KC07,2024-03-22T04:15:00Z,40.3544,-106.699,-2,-2,290,9,18,0.75,30.12,,,TRUE,TRUE,,,,,,BR,OVC,100,,,,,,,LIFR,,,,,,,,,,,,METAR,3224
KBYY 220415Z AUTO 15007KT 10SM BKN011 OVC044 17/16 A2985 RMK AO2 T01790165,KBYY,2024-03-22T04:15:00Z,28.9717,-95.8584,17.9,16.5,150,7,,10+,29.85,,,TRUE,TRUE,,,,,,,BKN,1100,OVC,4400,,,,,MVFR,,,,,,,,,,,,METAR,12
KBYL 220415Z AUTO 00000KT 10SM 08/M08 A3014 RMK AO1,KBYL,2024-03-22T04:15:00Z,36.7954,-84.2013,8,-8,0,0,,10+,30.14,,,TRUE,TRUE,,,,,,,,,,,,,,,VFR,,,,,,,,,,,,METAR,355
KBXK 220415Z AUTO 25007KT 10SM CLR 19/03 A3001 RMK A01,KBXK,2024-03-22T04:15:00Z,33.4178,-112.688,19,3,250,7,,10+,30.01,,,TRUE,TRUE,,,,,,,CLR,,,,,,,,VFR,,,,,,,,,,,,METAR,303
KBXA 220415Z AUTO 03003KT 10SM CLR A2997 RMK AO2,KBXA,2024-03-22T04:15:00Z,30.8104,-89.8627,,,30,3,,10+,29.97,,,TRUE,TRUE,,,,,,,CLR,,,,,,,,VFR,,,,,,,,,,,,METAR,35
KBWW 220415Z AUTO 09007KT 10SM FEW006 BKN018 OVC042 M07/M06 A3009 RMK AO2,KBWW,2024-03-22T04:15:00Z,46.1656,-103.296,-7,-6,90,7,,10+,30.09,,,TRUE,TRUE,,,,,,,FEW,600,BKN,1800,OVC,4200,,,MVFR,,,,,,,,,,,,METAR,911
KBWP 220415Z AUTO 03007KT 1SM -SN BR BKN006 BKN022 BKN034 M05/M05 A3020 RMK AO2,KBWP,2024-03-22T04:15:00Z,46.2444,-96.6046,-5,-5,30,7,,1,30.20,,,TRUE,TRUE,,,,,,-SN BR,BKN,600,BKN,2200,BKN,3400,,,IFR,,,,,,,,,,,,METAR,294
KBWD 220415Z AUTO 00000KT 8SM CLR 13/13 A2989 RMK AO1,KBWD,2024-03-22T04:15:00Z,31.7898,-98.9522,13,13,0,0,,8,29.89,,,TRUE,TRUE,,,,,,,CLR,,,,,,,,VFR,,,,,,,,,,,,METAR,420
KBVU 220415Z AUTO 27003KT 10SM CLR 18/M03 A3000 RMK AO2,KBVU,2024-03-22T04:15:00Z,35.9489,-114.863,18,-3,270,3,,10+,30.00,,,TRUE,TRUE,,,,,,,CLR,,,,,,,,VFR,,,,,,,,,,,,METAR,654
KBVS 220415Z AUTO 00000KT 10SM SCT060 BKN075 OVC085 10/10 A3007 RMK A01,KBVS,2024-03-22T04:15:00Z,48.4696,-122.419,10,10,0,0,,10+,30.07,,,TRUE,TRUE,,,,,,,SCT,6000,BKN,7500,OVC,8500,,,VFR,,,,,,,,,,,,METAR,31
KBVN 220415Z AUTO 12009KT 10SM CLR 06/M07 A2983 RMK AO2 LTG DSNT NW T00551071,KBVN,2024-03-22T04:15:00Z,41.7301,-98.0546,5.5,-7.1,120,9,,10+,29.83,,,TRUE,TRUE,,,,,,,CLR,,,,,,,,VFR,,,,,,,,,,,,METAR,547
KBUU 220415Z AUTO 10006KT 10SM SCT028 BKN050 OVC060 00/M04 A3021 RMK AO2 T00011041 PWINO,KBUU,2024-03-22T04:15:00Z,42.6908,-88.308,0.1,-4.1,100,6,,10+,30.21,,,TRUE,TRUE,,,,,TRUE,,SCT,2800,BKN,5000,OVC,6000,,,VFR,,,,,,,,,,,,METAR,238
KBTN 220415Z AUTO 04008KT 3/4SM -SN BR OVC003 M06/M06 A3015 RMK AO2,KBTN,2024-03-22T04:15:00Z,45.8186,-97.7457,-6,-6,40,8,,0.75,30.15,,,TRUE,TRUE,,,,,,-SN BR,OVC,300,,,,,,,LIFR,,,,,,,,,,,,METAR,400
KBTA 220415Z AUTO 11007KT 10SM SCT060 06/M05 A2991 RMK AO2 T00621055,KBTA,2024-03-22T04:15:00Z,41.415,-96.109,6.2,-5.5,110,7,,10+,29.91,,,TRUE,TRUE,,,,,,,SCT,6000,,,,,,,VFR,,,,,,,,,,,,METAR,400
KBRY 220415Z AUTO 07004KT 10SM CLR 06/M07 A3015 RMK AO2 T00581072 $,KBRY,2024-03-22T04:15:00Z,37.8079,-85.5011,5.8,-7.2,70,4,,10+,30.15,,,TRUE,TRUE,TRUE,,,,,,CLR,,,,,,,,VFR,,,,,,,,,,,,METAR,192
KBRG 220415Z AUTO 30008KT 10SM CLR 12/M02 A3006 RMK AO2 T01201016,KBRG,2024-03-22T04:15:00Z,34.6477,-106.833,12,-1.6,300,8,,10+,30.06,,,TRUE,TRUE,,,,,,,CLR,,,,,,,,VFR,,,,,,,,,,,,METAR,1585
KBQP 220415Z AUTO 00000KT 10SM OVC095 16/09 A2995 RMK AO2 T01550090,KBQP,2024-03-22T04:15:00Z,32.7583,-91.8793,15.5,9,0,0,,10+,29.95,,,TRUE,TRUE,,,,,,,OVC,9500,,,,,,,VFR,,,,,,,,,,,,METAR,50
KBQK 220415Z AUTO 07004KT 10SM CLR 14/13 A3010 RMK AO2 T01390127,KBQK,2024-03-22T04:15:00Z,31.2567,-81.4754,13.9,12.7,70,4,,10+,30.10,,,TRUE,TRUE,,,,,,,CLR,,,,,,,,VFR,,,,,,,,,,,,METAR,7
KBPG 220415Z AUTO 07012KT 10SM SCT120 16/06 A2991 RMK AO2 T01580061,KBPG,2024-03-22T04:15:00Z,32.2097,-101.525,15.8,6.1,70,12,,10+,29.91,,,TRUE,TRUE,,,,,,,SCT,12000,,,,,,,VFR,,,,,,,,,,,,METAR,782
KBPC 220415Z AUTO 00000KT 10SM CLR 12/07 A2991 RMK AO2,KBPC,2024-03-22T04:15:00Z,35.8913,-101.027,12,7,0,0,,10+,29.91,,,TRUE,TRUE,,,,,,,CLR,,,,,,,,VFR,,,,,,,,,,,,METAR,844
KBOW 220415Z AUTO 12008KT 10SM BKN043 OVC050 21/17 A3005 RMK AO2 PWINO,KBOW,2024-03-22T04:15:00Z,27.9471,-81.7811,21,17,120,8,,10+,30.05,,,TRUE,TRUE,,,,,TRUE,,BKN,4300,OVC,5000,,,,,VFR,,,,,,,,,,,,METAR,38
KBNW 220415Z AUTO 09010KT 10SM BKN060 OVC070 04/M08 A2998 RMK AO2,KBNW,2024-03-22T04:15:00Z,42.0486,-93.8486,4,-8,90,10,,10+,29.98,,,TRUE,TRUE,,,,,,,BKN,6000,OVC,7000,,,,,VFR,,,,,,,,,,,,METAR,350
KBNL 220415Z AUTO 00000KT 10SM FEW055 15/10 A3015 RMK AO2,KBNL,2024-03-22T04:15:00Z,33.2601,-81.387,15,10,0,0,,10+,30.15,,,TRUE,TRUE,,,,,,,FEW,5500,,,,,,,VFR,,,,,,,,,,,,METAR,76
KBMT 220415Z AUTO 31009G15KT 10SM -TSRA OVC008 16/15 A2987 RMK AO2 LTG DSNT ALQDS T01570145,KBMT,2024-03-22T04:15:00Z,30.0686,-94.2155,15.7,14.5,310,9,15,10+,29.87,,,TRUE,TRUE,,,,,,-TSRA,OVC,800,,,,,,,IFR,,,,,,,,,,,,METAR,8
KBKT 220415Z AUTO 11003KT 10SM CLR 05/00 A3025 RMK AO1 T00480000,KBKT,2024-03-22T04:15:00Z,37.082,-77.953,4.8,0,110,3,,10+,30.25,,,TRUE,TRUE,,,,,,,CLR,,,,,,,,VFR,,,,,,,,,,,,METAR,134
KBKS 220415Z AUTO 32003KT 10SM CLR 18/18 A2986 RMK AO2 SLP071 T01790179 $,KBKS,2024-03-22T04:15:00Z,27.2064,-98.1216,17.9,17.9,320,3,,10+,29.86,1007.1,,TRUE,TRUE,TRUE,,,,,,CLR,,,,,,,,VFR,,,,,,,,,,,,METAR,34
KBKN 220415Z AUTO 11004KT 10SM CLR 12/12 A2992 RMK AO2,KBKN,2024-03-22T04:15:00Z,36.7431,-97.3479,12,12,110,4,,10+,29.92,,,TRUE,TRUE,,,,,,,CLR,,,,,,,,VFR,,,,,,,,,,,,METAR,208
KBKD 220415Z AUTO 5SM BR BKN024 13/13 A2987 RMK AO2 LTG DSNT E T01310131,KBKD,2024-03-22T04:15:00Z,32.7206,-98.8931,13.1,13.1,,,,5,29.87,,,TRUE,TRUE,,,,,,BR,BKN,2400,,,,,,,MVFR,,,,,,,,,,,,METAR,383
KBJI 220415Z AUTO 00000KT 10SM OVC080 M06/M17 A3019 RMK AO2 T10581173,KBJI,2024-03-22T04:15:00Z,47.5076,-94.9279,-5.8,-17.3,0,0,,10+,30.19,,,TRUE,TRUE,,,,,,,OVC,8000,,,,,,,VFR,,,,,,,,,,,,METAR,422
KBJC 220415Z AUTO 27015G20KT 10SM SCT110 10/M01 A2997 RMK AO2,KBJC,2024-03-22T04:15:00Z,39.9008,-105.104,10,-1,270,15,20,10+,29.97,,,TRUE,TRUE,,,,,,,SCT,11000,,,,,,,VFR,,,,,,,,,,,,METAR,1694
KBIJ 220415Z AUTO 00000KT 10SM SCT095 15/12 A3006 RMK AO2 PNO,KBIJ,2024-03-22T04:15:00Z,31.4,-84.8939,15,12,0,0,,10+,30.06,,,TRUE,TRUE,,,,,,,SCT,9500,,,,,,,VFR,,,,,,,,,,,,METAR,63
KBIE 220415Z AUTO 15011G16KT 10SM CLR 09/M01 A2987 RMK AO2 T00861010,KBIE,2024-03-22T04:15:00Z,40.3005,-96.7517,8.6,-1,150,11,16,10+,29.87,,,TRUE,TRUE,,,,,,,CLR,,,,,,,,VFR,,,,,,,,,,,,METAR,398
KBHC 220415Z AUTO 11004KT 10SM CLR 15/10 A3010 RMK AO2,KBHC,2024-03-22T04:15:00Z,31.712,-82.3902,15,10,110,4,,10+,30.10,,,TRUE,TRUE,,,,,,,CLR,,,,,,,,VFR,,,,,,,,,,,,METAR,61
KBGE 220415Z AUTO 00000KT 5SM HZ OVC090 17/09 A3006 RMK AO2 T01740092,KBGE,2024-03-22T04:15:00Z,30.9709,-84.6344,17.4,9.2,0,0,,5,30.06,,,TRUE,TRUE,,,,,,HZ,OVC,9000,,,,,,,MVFR,,,,,,,,,,,,METAR,40
KBFR 220415Z AUTO 10006KT 10SM CLR 03/M10 A3015 RMK AO2,KBFR,2024-03-22T04:15:00Z,38.8383,-86.446,3,-10,100,6,,10+,30.15,,,TRUE,TRUE,,,,,,,CLR,,,,,,,,VFR,,,,,,,,,,,,METAR,223
KBFI 220415Z 00000KT 3SM -RA BR SCT008 OVC018 12/10 A3007 RMK AO2 RAB00 P0005 T01170100,KBFI,2024-03-22T04:15:00Z,47.5455,-122.315,11.7,10,0,0,,3,30.07,,,,TRUE,,,,,,-RA BR,SCT,800,OVC,1800,,,,,MVFR,,,,,,0.05,,,,,,SPECI,7
KBFA 220415Z AUTO 00000KT 9SM CLR M09/M11 A3029 RMK AO2,KBFA,2024-03-22T04:15:00Z,45.166,-84.924,-9,-11,0,0,,9,30.29,,,TRUE,TRUE,,,,,,,CLR,,,,,,,,VFR,,,,,,,,,,,,METAR,219
KBEC 220415Z AUTO 14004KT 10SM CLR 11/11 A2991 RMK AO2 T01080108 FZRANO,KBEC,2024-03-22T04:15:00Z,37.694,-97.215,10.8,10.8,140,4,,10+,29.91,,,TRUE,TRUE,,,,TRUE,,,CLR,,,,,,,,VFR,,,,,,,,,,,,METAR,421
KBEA 220415Z AUTO 21003KT 10SM OVC011 19/18 A2986 RMK AO2 T01920180,KBEA,2024-03-22T04:15:00Z,28.3692,-97.7953,19.2,18,210,3,,10+,29.86,,,TRUE,TRUE,,,,,,,OVC,1100,,,,,,,MVFR,,,,,,,,,,,,METAR,83
KBDU 220415Z AUTO 22005KT 10SM CLR 11/M01 A2996 RMK AO2,KBDU,2024-03-22T04:15:00Z,40.0377,-105.227,11,-1,220,5,,10+,29.96,,,TRUE,TRUE,,,,,,,CLR,,,,,,,,VFR,,,,,,,,,,,,METAR,1614
KBDN 220415Z AUTO 00000KT 10SM CLR 08/01 A3004 RMK AO2,KBDN,2024-03-22T04:15:00Z,44.1006,-121.198,8,1,0,0,,10+,30.04,,,TRUE,TRUE,,,,,,,CLR,,,,,,,,VFR,,,,,,,,,,,,METAR,1044
KBDH 220415Z AUTO 07008KT 2SM -SN BR BKN003 BKN027 M04/M05 A3018 RMK AO2,KBDH,2024-03-22T04:15:00Z,45.1111,-95.1258,-4,-5,70,8,,2,30.18,,,TRUE,TRUE,,,,,,-SN BR,BKN,300,BKN,2700,,,,,LIFR,,,,,,,,,,,,METAR,341
KBDG 220415Z AUTO 31008KT 10SM SCT130 11/M02 A3009 RMK AO2 T01051025,KBDG,2024-03-22T04:15:00Z,37.587,-109.481,10.5,-2.5,310,8,,10+,30.09,,,TRUE,TRUE,,,,,,,SCT,13000,,,,,,,VFR,,,,,,,,,,,,METAR,1778
KBCK 220415Z AUTO 00000KT 1 1/4SM -SN BKN017 OVC026 M02/M04 A3021 RMK AO2 T10201041,KBCK,2024-03-22T04:15:00Z,44.2499,-90.85,-2,-4.1,0,0,,1.25,30.21,,,TRUE,TRUE,,,,,,-SN,BKN,1700,OVC,2600,,,,,IFR,,,,,,,,,,,,METAR,256
KBCB 220415Z AUTO 00000KT 10SM OVC110 05/M04 A3023 RMK AO2 T00461040,KBCB,2024-03-22T04:15:00Z,37.208,-80.4127,4.6,-4,0,0,,10+,30.23,,,TRUE,TRUE,,,,,,,OVC,11000,,,,,,,VFR,,,,,,,,,,,,METAR,642
KBBP 220415Z AUTO 12003KT 10SM CLR 11/06 A3018 RMK AO2,KBBP,2024-03-22T04:15:00Z,34.6228,-79.7354,11,6,120,3,,10+,30.18,,,TRUE,TRUE,,,,,,,CLR,,,,,,,,VFR,,,,,,,,,,,,METAR,44
KBBG 220415Z AUTO 12005KT 8SM BKN047 OVC120 13/04 A2999 RMK AO2,KBBG,2024-03-22T04:15:00Z,36.5259,-93.1969,13,4,120,5,,8,29.99,,,TRUE,TRUE,,,,,,,BKN,4700,OVC,12000,,,,,VFR,,,,,,,,,,,,METAR,403
KBBD 220415Z AUTO 14004KT 10SM FEW050 SCT120 12/11 A2990 RMK AO2,KBBD,2024-03-22T04:15:00Z,31.1766,-99.3229,12,11,140,4,,10+,29.90,,,TRUE,TRUE,,,,,,,FEW,5000,SCT,12000,,,,,VFR,,,,,,,,,,,,METAR,554
KBBB 220415Z AUTO 08006KT 1SM SN OVC002 M05/M06 A3018 RMK AO2,KBBB,2024-03-22T04:15:00Z,45.331,-95.6469,-5,-6,80,6,,1,30.18,,,TRUE,TRUE,,,,,,SN,OVC,200,,,,,,,LIFR,,,,,,,,,,,,METAR,315
KBAX 220415Z AUTO 00000KT 10SM CLR M05/M10 A3031 RMK AO2 T10471097,KBAX,2024-03-22T04:15:00Z,43.7774,-82.9828,-4.7,-9.7,0,0,,10+,30.31,,,TRUE,TRUE,,,,,,,CLR,,,,,,,,VFR,,,,,,,,,,,,METAR,229
KBAC 220415Z AUTO 05008KT 4SM -SN BR OVC023 M07/M07 A3021 RMK AO2,KBAC,2024-03-22T04:15:00Z,46.9419,-98.0179,-7,-7,50,8,,4,30.21,,,TRUE,TRUE,,,,,,-SN BR,OVC,2300,,,,,,,MVFR,,,,,,,,,,,,METAR,423
KAZC 220415Z AUTO 11006KT 10SM CLR 06/M02 A3015 RMK AO2,KAZC,2024-03-22T04:15:00Z,36.959,-113.013,6,-2,110,6,,10+,30.15,,,TRUE,TRUE,,,,,,,CLR,,,,,,,,VFR,,,,,,,,,,,,METAR,1476
KAYS 220415Z AUTO 11005KT 10SM CLR 16/07 A3010 RMK AO2 T01600066,KAYS,2024-03-22T04:15:00Z,31.2466,-82.4014,16,6.6,110,5,,10+,30.10,,,TRUE,TRUE,,,,,,,CLR,,,,,,,,VFR,,,,,,,,,,,,METAR,42
KAXX 220415Z AUTO 00000KT 10SM CLR M02/M08 A3010 RMK AO2 T10191076,KAXX,2024-03-22T04:15:00Z,36.422,-105.29,-1.9,-7.6,0,0,,10+,30.10,,,TRUE,TRUE,,,,,,,CLR,,,,,,,,VFR,,,,,,,,,,,,METAR,2543
KAXV 220415Z AUTO 08003KT 10SM CLR M02/M09 A3024 RMK AO2,KAXV,2024-03-22T04:15:00Z,40.4959,-84.2929,-2,-9,80,3,,10+,30.24,,,TRUE,TRUE,,,,,,,CLR,,,,,,,,VFR,,,,,,,,,,,,METAR,278
KAXS 220415Z AUTO 35007KT 10SM CLR 10/09 A2988 RMK AO2,KAXS,2024-03-22T04:15:00Z,34.6963,-99.3402,10,9,350,7,,10+,29.88,,,TRUE,TRUE,,,,,,,CLR,,,,,,,,VFR,,,,,,,,,,,,METAR,433
KAXH 220415Z AUTO 16004KT 10SM OVC013 20/19 A2986 RMK AO2 LTG DSNT NE AND NW T01960186,KAXH,2024-03-22T04:15:00Z,29.505,-95.476,19.6,18.6,160,4,,10+,29.86,,,TRUE,TRUE,,,,,,,OVC,1300,,,,,,,MVFR,,,,,,,,,,,,METAR,18
KAXA 220415Z AUTO 07012G17KT 10SM OVC055 M01/M04 A3003 RMK A01,KAXA,2024-03-22T04:15:00Z,43.0796,-94.2723,-1,-4,70,12,17,10+,30.03,,,TRUE,TRUE,,,,,,,OVC,5500,,,,,,,VFR,,,,,,,,,,,,METAR,371
KAWG 220415Z AUTO 12011G16KT 10SM OVC060 06/M07 A3005 RMK AO2,KAWG,2024-03-22T04:15:00Z,41.2749,-91.6746,6,-7,120,11,16,10+,30.05,,,TRUE,TRUE,,,,,,,OVC,6000,,,,,,,VFR,,,,,,,,,,,,METAR,229
KAVQ 220415Z AUTO 10003KT 10SM 19/00 A3006 RMK AO2 T01860001,KAVQ,2024-03-22T04:15:00Z,32.4112,-111.216,18.6,0.1,100,3,,10+,30.06,,,TRUE,TRUE,,,,,,,,,,,,,,,VFR,,,,,,,,,,,,METAR,618
KAVK 220415Z AUTO 00000KT 9SM SCT017 10/10 A2991 RMK AO2,KAVK,2024-03-22T04:15:00Z,36.7765,-98.6724,10,10,0,0,,9,29.91,,,TRUE,TRUE,,,,,,,SCT,1700,,,,,,,VFR,,,,,,,,,,,,METAR,450
KAVC 220415Z AUTO 00000KT 10SM CLR 06/01 A3030 RMK AO2 T00560007,KAVC,2024-03-22T04:15:00Z,36.6854,-78.0523,5.6,0.7,0,0,,10+,30.30,,,TRUE,TRUE,,,,,,,CLR,,,,,,,,VFR,,,,,,,,,,,,METAR,119
KAUN 220415Z AUTO 13005KT 10SM CLR 14/07 A3010 RMK A01,KAUN,2024-03-22T04:15:00Z,38.9553,-121.087,14,7,130,5,,10+,30.10,,,TRUE,TRUE,,,,,,,CLR,,,,,,,,VFR,,,,,,,,,,,,METAR,453
KAUM 220415Z AUTO 06009KT 3SM UP SCT018 SCT026 OVC050 M03/M04 A3012 RMK AO2,KAUM,2024-03-22T04:15:00Z,43.6688,-92.9321,-3,-4,60,9,,3,30.12,,,TRUE,TRUE,,,,,,UP,SCT,1800,SCT,2600,OVC,5000,,,MVFR,,,,,,,,,,,,METAR,376
KATW 220415Z AUTO 18008KT 4SM -SN SCT014 BKN021 OVC060 M01/M05 A3023 RMK AO2,KATW,2024-03-22T04:15:00Z,44.2519,-88.526,-1,-5,180,8,,4,30.23,,,TRUE,TRUE,,,,,,-SN,SCT,1400,BKN,2100,OVC,6000,,,MVFR,,,,,,,,,,,,METAR,266
KATS 220415Z AUTO 34005KT 10SM CLR 16/M01 A2995 RMK AO2,KATS,2024-03-22T04:15:00Z,32.8524,-104.464,16,-1,340,5,,10+,29.95,,,TRUE,TRUE,,,,,,,CLR,,,,,,,,VFR,,,,,,,,,,,,METAR,1073
KATA 220415Z AUTO VRB04KT 10SM OVC025 14/13 A2992 RMK AO2 RAE0356 CIG 024V029 SLP029 P0000 T01380129,KATA,2024-03-22T04:15:00Z,33.1017,-94.1937,13.8,12.9,VRB,4,,10+,29.92,1002.9,,TRUE,TRUE,,,,,,,OVC,2500,,,,,,,MVFR,,,,,,0.005,,,,,,METAR,85
KASW 220415Z AUTO 11005KT 10SM CLR M01/M10 A3023 RMK AO2 T10161099,KASW,2024-03-22T04:15:00Z,41.274,-85.842,-1.6,-9.9,110,5,,10+,30.23,,,TRUE,TRUE,,,,,,,CLR,,,,,,,,VFR,,,,,,,,,,,,METAR,253
KASN 220415Z AUTO 04002KT 10SM FEW003 FEW055 OVC100 16/11 A3003 RMK AO2,KASN,2024-03-22T04:15:00Z,33.569,-86.0519,16,11,40,2,,10+,30.03,,,TRUE,TRUE,,,,,,,FEW,300,FEW,5500,OVC,10000,,,VFR,,,,,,,,,,,,METAR,159
KASL 220415Z AUTO 16003KT 10SM SCT014 BKN021 BKN037 13/13 A2991 RMK AO2 RAB0355E0411 P0000 T01250125 $,KASL,2024-03-22T04:15:00Z,32.5207,-94.3066,12.5,12.5,160,3,,10+,29.91,,,TRUE,TRUE,TRUE,,,,,,SCT,1400,BKN,2100,BKN,3700,,,MVFR,,,,,,0.005,,,,,,METAR,104
KARW 220415Z AUTO 08009KT 7SM BKN006 15/14 A3014 RMK AO2,KARW,2024-03-22T04:15:00Z,32.4104,-80.6335,15,14,80,9,,7,30.14,,,TRUE,TRUE,,,,,,,BKN,600,,,,,,,IFR,,,,,,,,,,,,METAR,2
KARM 220415Z AUTO 14005KT 10SM OVC011 A2986 RMK AO2 TSNO,KARM,2024-03-22T04:15:00Z,29.2515,-96.1508,,,140,5,,10+,29.86,,,TRUE,TRUE,,,TRUE,,,,OVC,1100,,,,,,,MVFR,,,,,,,,,,,,METAR,29
KARA 220415Z AUTO 07005KT 8SM BKN008 14/13 A2991 RMK AO2 PRESFR T01390133,KARA,2024-03-22T04:15:00Z,30.0292,-91.8845,13.9,13.3,70,5,,8,29.91,,,TRUE,TRUE,,,,,,,BKN,800,,,,,,,IFR,,,,,,,,,,,,SPECI,5
KAQX 220415Z AUTO 11003KT 9SM CLR 15/14 A3013 RMK AO2 TSNO,KAQX,2024-03-22T04:15:00Z,32.9941,-81.271,15,14,110,3,,9,30.13,,,TRUE,TRUE,,,TRUE,,,,CLR,,,,,,,,VFR,,,,,,,,,,,,METAR,48
KAQO 220415Z AUTO 36008KT 10SM BKN006 BKN043 12/11 A2990 RMK AO2 LTG DSNT NE,KAQO,2024-03-22T04:15:00Z,30.7873,-98.6608,12,11,360,8,,10+,29.90,,,TRUE,TRUE,,,,,,,BKN,600,BKN,4300,,,,,IFR,,,,,,,,,,,,METAR,334
KAPY 220415Z AUTO 00000KT 10SM CLR 19/17 A2989 RMK AO2 T01850174 TSNO,KAPY,2024-03-22T04:15:00Z,26.969,-99.249,18.5,17.4,0,0,,10+,29.89,,,TRUE,TRUE,,,TRUE,,,,CLR,,,,,,,,VFR,,,,,,,,,,,,METAR,129
KAPS 220415Z AUTO 11005KT 10SM SCT011 OVC050 14/14 A2995 RMK AO2 T01440141,KAPS,2024-03-22T04:15:00Z,30.086,-90.584,14.4,14.1,110,5,,10+,29.95,,,TRUE,TRUE,,,,,,,SCT,1100,OVC,5000,,,,,VFR,,,,,,,,,,,,METAR,1
KANW 220415Z AUTO 36017KT 10SM BKN060 OVC110 05/M05 A2992 RMK AO2 T00501054 TSNO,KANW,2024-03-22T04:15:00Z,42.5748,-99.9984,5,-5.4,360,17,,10+,29.92,,,TRUE,TRUE,,,TRUE,,,,BKN,6000,OVC,11000,,,,,VFR,,,,,,,,,,,,METAR,788
KANQ 220415Z AUTO 00000KT 10SM FEW065 BKN075 OVC095 M02/M09 A3024 RMK AO2,KANQ,2024-03-22T04:15:00Z,41.6404,-85.0852,-2,-9,0,0,,10+,30.24,,,TRUE,TRUE,,,,,,,FEW,6500,BKN,7500,OVC,9500,,,VFR,,,,,,,,,,,,METAR,299
KANK 220415Z AUTO 30003KT 10SM FEW230 07/M08 A3006 RMK AO2 T00651083,KANK,2024-03-22T04:15:00Z,38.538,-106.049,6.5,-8.3,300,3,,10+,30.06,,,TRUE,TRUE,,,,,,,FEW,23000,,,,,,,VFR,,,,,,,,,,,,METAR,2293
KANE 220415Z AUTO 00000KT 1 1/2SM SN OVC004 M03/M03 A3021 RMK AO2,KANE,2024-03-22T04:15:00Z,45.1426,-93.2127,-3,-3,0,0,,1.5,30.21,,,TRUE,TRUE,,,,,,SN,OVC,400,,,,,,,LIFR,,,,,,,,,,,,METAR,276
KAMN 220415Z AUTO 00000KT 10SM CLR M04/M11 A3028 RMK AO2 T10361109,KAMN,2024-03-22T04:15:00Z,43.3209,-84.6871,-3.6,-10.9,0,0,,10+,30.28,,,TRUE,TRUE,,,,,,,CLR,,,,,,,,VFR,,,,,,,,,,,,METAR,228
KALX 220415Z AUTO 00000KT 10SM SCT100 14/09 A3004 RMK AO2 T01430091,KALX,2024-03-22T04:15:00Z,32.916,-85.964,14.3,9.1,0,0,,10+,30.04,,,TRUE,TRUE,,,,,,,SCT,10000,,,,,,,VFR,,,,,,,,,,,,METAR,198
KALN 220415Z AUTO 00000KT 10SM CLR 05/M03 A3009 RMK AO2 T00481035,KALN,2024-03-22T04:15:00Z,38.8897,-90.0316,4.8,-3.5,0,0,,10+,30.09,,,TRUE,TRUE,,,,,,,CLR,,,,,,,,VFR,,,,,,,,,,,,METAR,159
KALM 220415Z AUTO 00000KT 10SM CLR 11/M04 A3002 RMK AO2,KALM,2024-03-22T04:15:00Z,32.8351,-105.994,11,-4,0,0,,10+,30.02,,,TRUE,TRUE,,,,,,,CLR,,,,,,,,VFR,,,,,,,,,,,,METAR,1267
KAJR 220415Z AUTO 14003KT 10SM CLR 17/03 A3010 RMK AO2 T01660033,KAJR,2024-03-22T04:15:00Z,34.5006,-83.5519,16.6,3.3,140,3,,10+,30.10,,,TRUE,TRUE,,,,,,,CLR,,,,,,,,VFR,,,,,,,,,,,,METAR,441
KAJG 220415Z AUTO 06009KT 10SM CLR 05/M05 A3013 RMK AO2 T00541052,KAJG,2024-03-22T04:15:00Z,38.6093,-87.7251,5.4,-5.2,60,9,,10+,30.13,,,TRUE,TRUE,,,,,,,CLR,,,,,,,,VFR,,,,,,,,,,,,METAR,130
KAIT 220415Z AUTO 00000KT 3SM -SN SCT009 M05/M07 A3021 RMK AO2,KAIT,2024-03-22T04:15:00Z,46.5483,-93.6754,-5,-7,0,0,,3,30.21,,,TRUE,TRUE,,,,,,-SN,SCT,900,,,,,,,MVFR,,,,,,,,,,,,METAR,367
KAIO 220415Z AUTO 11005KT 10SM OVC041 06/M08 A2994 RMK AO2,KAIO,2024-03-22T04:15:00Z,41.4059,-95.0465,6,-8,110,5,,10+,29.94,,,TRUE,TRUE,,,,,,,OVC,4100,,,,,,,VFR,,,,,,,,,,,,METAR,349
KAIK 220415Z AUTO 12007KT 10SM CLR 16/09 A3015 RMK AO2 T01570091,KAIK,2024-03-22T04:15:00Z,33.651,-81.6821,15.7,9.1,120,7,,10+,30.15,,,TRUE,TRUE,,,,,,,CLR,,,,,,,,VFR,,,,,,,,,,,,METAR,155
KAIG 220415Z AUTO 00000KT 10SM OVC070 M03/M09 A3017 RMK AO2 T10281094,KAIG,2024-03-22T04:15:00Z,45.1566,-89.1115,-2.8,-9.4,0,0,,10+,30.17,,,TRUE,TRUE,,,,,,,OVC,7000,,,,,,,VFR,,,,,,,,,,,,METAR,462
KAHQ 220415Z AUTO 12006KT 10SM CLR 04/M05 A2991 RMK AO2 T00401050,KAHQ,2024-03-22T04:15:00Z,41.241,-96.594,4,-5,120,6,,10+,29.91,,,TRUE,TRUE,,,,,,,CLR,,,,,,,,VFR,,,,,,,,,,,,METAR,372
KAGO 220415Z AUTO 31006KT 10SM BKN037 OVC055 14/12 A2993 RMK A01,KAGO,2024-03-22T04:15:00Z,33.2266,-93.2154,14,12,310,6,,10+,29.93,,,TRUE,TRUE,,,,,,,BKN,3700,OVC,5500,,,,,VFR,,,,,,,,,,,,METAR,91
KAGI 220415Z AUTO 11028KT 10SM CLR 20/18 A2983 RMK AO2 T02050180,KAGI,2024-03-22T04:15:00Z,27.5461,-92.4434,20.5,18,110,28,,10+,29.83,,,TRUE,TRUE,,,,,,,CLR,,,,,,,,VFR,,,,,,,,,,,,METAR,41
KAFK 220415Z AUTO 14011KT 10SM CLR 07/M04 A2992 RMK AO2 T00721045,KAFK,2024-03-22T04:15:00Z,40.6065,-95.8635,7.2,-4.5,140,11,,10+,29.92,,,TRUE,TRUE,,,,,,,CLR,,,,,,,,VFR,,,,,,,,,,,,METAR,353
KAEL 220415Z AUTO 08009KT 10SM UP OVC060 M03/M03 A3012 RMK AO2,KAEL,2024-03-22T04:15:00Z,43.6823,-93.3722,-3,-3,80,9,,10+,30.12,,,TRUE,TRUE,,,,,,UP,OVC,6000,,,,,,,VFR,,,,,,,,,,,,METAR,382
KAEJ 220415Z AUTO 32019G25KT 10SM CLR 04/M02 A3009 RMK AO2 T00401022,KAEJ,2024-03-22T04:15:00Z,38.8116,-106.121,4,-2.2,320,19,25,10+,30.09,,,TRUE,TRUE,,,,,,,CLR,,,,,,,,VFR,,,,,,,,,,,,METAR,2420
KADU 220415Z AUTO 12006KT 10SM SCT050 OVC065 06/M09 A2996 RMK AO2,KADU,2024-03-22T04:15:00Z,41.6993,-94.9204,6,-9,120,6,,10+,29.96,,,TRUE,TRUE,,,,,,,SCT,5000,OVC,6500,,,,,VFR,,,,,,,,,,,,METAR,391
KADS 220415Z AUTO 14005KT 10SM VCTS CLR 14/14 A2986 RMK AO2 LTG DSNT E T01350135 FZRANO,KADS,2024-03-22T04:15:00Z,32.9634,-96.8354,13.5,13.5,140,5,,10+,29.86,,,TRUE,TRUE,,,,TRUE,,VCTS,CLR,,,,,,,,VFR,,,,,,,,,,,,METAR,198
KADM 220415Z AUTO 10007KT 4SM -RA BR OVC009 15/14 A2987 RMK AO2,KADM,2024-03-22T04:15:00Z,34.3007,-97.0089,15,14,100,7,,4,29.87,,,TRUE,TRUE,,,,,,-RA BR,OVC,900,,,,,,,IFR,,,,,,,,,,,,METAR,223
KADH 220415Z AUTO 11013G17KT 10SM FEW006 OVC012 14/13 A2988 RMK AO2,KADH,2024-03-22T04:15:00Z,34.8021,-96.6701,14,13,110,13,17,10+,29.88,,,TRUE,TRUE,,,,,,,FEW,600,OVC,1200,,,,,MVFR,,,,,,,,,,,,METAR,301
KADC 220415Z AUTO 03003KT 2SM -SN OVC008 M06/M07 A3018 RMK AO2,KADC,2024-03-22T04:15:00Z,46.4502,-95.2135,-6,-7,30,3,,2,30.18,,,TRUE,TRUE,,,,,,-SN,OVC,800,,,,,,,IFR,,,,,,,,,,,,METAR,416
KACQ 220415Z AUTO 04009KT 10SM OVC048 M02/M05 A3017 RMK AO2,KACQ,2024-03-22T04:15:00Z,44.0702,-93.5535,-2,-5,40,9,,10+,30.17,,,TRUE,TRUE,,,,,,,OVC,4800,,,,,,,VFR,,,,,,,,,,,,METAR,339
KACP 220415Z AUTO 00000KT 4SM BR OVC004 13/11 A2993 RMK AO2,KACP,2024-03-22T04:15:00Z,30.7469,-92.687,13,11,0,0,,4,29.93,,,TRUE,TRUE,,,,,,BR,OVC,400,,,,,,,LIFR,,,,,,,,,,,,METAR,31
KACJ 220415Z AUTO 14006KT 8SM FEW100 18/08 A3005 RMK AO2 T01830081,KACJ,2024-03-22T04:15:00Z,32.1106,-84.1841,18.3,8.1,140,6,,8,30.05,,,TRUE,TRUE,,,,,,,FEW,10000,,,,,,,VFR,,,,,,,,,,,,METAR,140
KACB 220415Z AUTO 00000KT 10SM CLR M08/M11 A3030 RMK AO2 T10811111,KACB,2024-03-22T04:15:00Z,44.9867,-85.2022,-8.1,-11.1,0,0,,10+,30.30,,,TRUE,TRUE,,,,,,,CLR,,,,,,,,VFR,,,,,,,,,,,,METAR,189
KAAS 220415Z AUTO 11005KT 10SM CLR 06/M06 A3012 RMK AO1,KAAS,2024-03-22T04:15:00Z,37.3569,-85.3151,6,-6,110,5,,10+,30.12,,,TRUE,TRUE,,,,,,,CLR,,,,,,,,VFR,,,,,,,,,,,,METAR,270
KAAA 220415Z AUTO 11008KT 10SM SCT075 04/M06 A3012 RMK AO2 T00361062,KAAA,2024-03-22T04:15:00Z,40.1584,-89.339,3.6,-6.2,110,8,,10+,30.12,,,TRUE,TRUE,,,,,,,SCT,7500,,,,,,,VFR,,,,,,,,,,,,METAR,179
KA39 220415Z AUTO 00000KT 10SM CLR 15/06 A3006 RMK AO2,KA39,2024-03-22T04:15:00Z,32.9875,-111.922,15,6,0,0,,10+,30.06,,,TRUE,TRUE,,,,,,,CLR,,,,,,,,VFR,,,,,,,,,,,,METAR,391
K9V9 220415Z AUTO 06012G18KT 4SM -SN BKN018 OVC024 M01/M06 A3002 RMK AO2 T10101058,K9V9,2024-03-22T04:15:00Z,43.7653,-99.3163,-1,-5.8,60,12,18,4,30.02,,,TRUE,TRUE,,,,,,-SN,BKN,1800,OVC,2400,,,,,MVFR,,,,,,,,,,,,METAR,511
K9S9 220415Z AUTO 10006KT 10SM FEW065 09/05 A3008 RMK AO2,K9S9,2024-03-22T04:15:00Z,45.4551,-119.686,9,5,100,6,,10+,30.08,,,TRUE,TRUE,,,,,,,FEW,6500,,,,,,,VFR,,,,,,,,,,,,METAR,498
K9MN 220415Z AUTO 04003KT 4SM SCT011 SCT026 OVC046 M02/M06 A3017 RMK AO1 T10201056,K9MN,2024-03-22T04:15:00Z,44.0198,-92.4829,-2,-5.6,40,3,,4,30.17,,,TRUE,TRUE,,,,,,,SCT,1100,SCT,2600,OVC,4600,,,MVFR,,,,,,,,,,,,METAR,308
K9D7 220415Z AUTO 03007KT 7SM SCT032 BKN040 OVC070 M05/M11 A3024 RMK AO2,K9D7,2024-03-22T04:15:00Z,48.4816,-99.2346,-5,-11,30,7,,7,30.24,,,TRUE,TRUE,,,,,,,SCT,3200,BKN,4000,OVC,7000,,,VFR,,,,,,,,,,,,METAR,451
K9A5 220415Z AUTO 00000KT 10SM CLR 12/06 A3008 RMK AO2 T01200058,K9A5,2024-03-22T04:15:00Z,34.6846,-85.2899,12,5.8,0,0,,10+,30.08,,,TRUE,TRUE,,,,,,,CLR,,,,,,,,VFR,,,,,,,,,,,,METAR,234
K96D 220415Z AUTO 01012KT 10SM SCT080 OVC110 M06/M11 A3028 RMK AO2,K96D,2024-03-22T04:15:00Z,48.9402,-97.9053,-6,-11,10,12,,10+,30.28,,,TRUE,TRUE,,,,,,,SCT,8000,OVC,11000,,,,,VFR,,,,,,,,,,,,METAR,290
K8W2 220415Z AUTO 00000KT 10SM CLR 00/M07 A3027 RMK AO1 T10021070,K8W2,2024-03-22T04:15:00Z,38.6554,-78.7083,-0.2,-7,0,0,,10+,30.27,,,TRUE,TRUE,,,,,,,CLR,,,,,,,,VFR,,,,,,,,,,,,METAR,295
K8T6 220415Z AUTO 02006KT 10SM OVC010 20/20 A2990 RMK AO2,K8T6,2024-03-22T04:15:00Z,28.3656,-98.1174,20,20,20,6,,10+,29.90,,,TRUE,TRUE,,,,,,,OVC,1000,,,,,,,MVFR,,,,,,,,,,,,METAR,39
K8A3 220415Z AUTO 06006KT 10SM CLR 10/M06 A3009 RMK A01,K8A3,2024-03-22T04:15:00Z,36.4164,-85.3061,10,-6,60,6,,10+,30.09,,,TRUE,TRUE,,,,,,,CLR,,,,,,,,VFR,,,,,,,,,,,,METAR,413
K8A0 220415Z AUTO 12004KT 10SM CLR 16/04 A3003 RMK AO2,K8A0,2024-03-22T04:15:00Z,34.2316,-86.2481,16,4,120,4,,10+,30.03,,,TRUE,TRUE,,,,,,,CLR,,,,,,,,VFR,,,,,,,,,,,,METAR,313
K82V 220415Z AUTO 34015G20KT 10SM 03/M04 A3000 RMK AO2,K82V,2024-03-22T04:15:00Z,41.151,-104.129,3,-4,340,15,20,10+,30.00,,,TRUE,TRUE,,,,,,,,,,,,,,,VFR,,,,,,,,,,,,METAR,1563
K82C 220415Z AUTO 00000KT 7SM -SN SCT026 SCT033 OVC055 M02/M04 A3018 RMK AO2 T10211040,K82C,2024-03-22T04:15:00Z,43.8385,-90.1345,-2.1,-4,0,0,,7,30.18,,,TRUE,TRUE,,,,,,-SN,SCT,2600,SCT,3300,OVC,5500,,,VFR,,,,,,,,,,,,METAR,273
K81R 220415Z AUTO 20004KT 10SM SCT100 12/11 A2990 RMK AO2 T01180113,K81R,2024-03-22T04:15:00Z,31.2321,-98.7154,11.8,11.3,200,4,,10+,29.90,,,TRUE,TRUE,,,,,,,SCT,10000,,,,,,,VFR,,,,,,,,,,,,METAR,381
K7W4 220415Z AUTO 11003KT 10SM CLR 04/M04 A3030 RMK AO1 T00381038,K7W4,2024-03-22T04:15:00Z,37.9667,-77.7453,3.8,-3.8,110,3,,10+,30.30,,,TRUE,TRUE,,,,,,,CLR,,,,,,,,VFR,,,,,,,,,,,,METAR,115
K7L2 220415Z AUTO 07004KT 10SM BKN029 BKN037 OVC043 M09/M09 A3018 RMK AO2,K7L2,2024-03-22T04:15:00Z,46.219,-100.245,-9,-9,70,4,,10+,30.18,,,TRUE,TRUE,,,,,,,BKN,2900,BKN,3700,OVC,4300,,,MVFR,,,,,,,,,,,,METAR,541
K7BM 220415Z AUTO 27010G15KT 240V300 10SM CLR 02/M08 A3014 RMK AO2,K7BM,2024-03-22T04:15:00Z,38.799,-106.219,2,-8,270,10,15,10+,30.14,,,TRUE,TRUE,,,,,,,CLR,,,,,,,,VFR,,,,,,,,,,,,METAR,2996
K79S 220415Z AUTO 02007KT 10SM BKN016 BKN030 OVC065 M05/M07 A3022 RMK AO2 SNE0410 CIG 013V017 P0000 T10531071,K79S,2024-03-22T04:15:00Z,47.845,-110.636,-5.3,-7.1,20,7,,10+,30.22,,,TRUE,TRUE,,,,,,,BKN,1600,BKN,3000,OVC,6500,,,MVFR,,,,,,0.005,,,,,,METAR,874
K77S 220415Z AUTO 00000KT 10SM CLR 10/08 A3001 RMK A01,K77S,2024-03-22T04:15:00Z,43.9324,-123.006,10,8,0,0,,10+,30.01,,,TRUE,TRUE,,,,,,,CLR,,,,,,,,VFR,,,,,,,,,,,,METAR,161
K74V 220415Z AUTO 26015KT 10SM CLR 08/M07 A3004 RMK AO2,K74V,2024-03-22T04:15:00Z,40.2799,-110.05,8,-7,260,15,,10+,30.04,,,TRUE,TRUE,,,,,,,CLR,,,,,,,,VFR,,,,,,,,,,,,METAR,1567
K6S2 220415Z AUTO 00000KT 10SM CLR 10/10 A3003 RMK AO2,K6S2,2024-03-22T04:15:00Z,43.9838,-124.11,10,10,0,0,,10+,30.03,,,TRUE,TRUE,,,,,,,CLR,,,,,,,,VFR,,,,,,,,,,,,METAR,16
K6S0 220415Z AUTO 07007KT 10SM FEW055 SCT065 BKN075 M00/M04 A3005 RMK A01,K6S0,2024-03-22T04:15:00Z,45.8063,-109.974,0,-4,70,7,,10+,30.05,,,TRUE,TRUE,,,,,,,FEW,5500,SCT,6500,BKN,7500,,,VFR,,,,,,,,,,,,METAR,1364
K6R3 220415Z AUTO 14003KT 10SM -RA BKN004 BKN010 OVC075 16/15 A2988 RMK AO2 LTG DSNT E AND NW T01580151,K6R3,2024-03-22T04:15:00Z,30.358,-95.007,15.8,15.1,140,3,,10+,29.88,,,TRUE,TRUE,,,,,,-RA,BKN,400,BKN,1000,OVC,7500,,,LIFR,,,,,,,,,,,,METAR,44
K6P9 220415Z AUTO 25006KT 10SM CLR 11/08 A2987 RMK AO2 T01110079,K6P9,2024-03-22T04:15:00Z,32.4294,-98.5959,11.1,7.9,250,6,,10+,29.87,,,TRUE,TRUE,,,,,,,CLR,,,,,,,,VFR,,,,,,,,,,,,METAR,451
K6L4 220415Z AUTO 05005KT 10SM CLR 05/M12 A3019 RMK AO2,K6L4,2024-03-22T04:15:00Z,37.8553,-81.915,5,-12,50,5,,10+,30.19,,,TRUE,TRUE,,,,,,,CLR,,,,,,,,VFR,,,,,,,,,,,,METAR,504
K6I2 220415Z AUTO 07006KT 10SM CLR 05/M08 A3015 RMK AO2,K6I2,2024-03-22T04:15:00Z,37.6352,-85.2418,5,-8,70,6,,10+,30.15,,,TRUE,TRUE,,,,,,,CLR,,,,,,,,VFR,,,,,,,,,,,,METAR,258
K6B9 220415Z AUTO 28005KT 9SM -SN FEW024 BKN029 OVC041 M05/M09 A3030 RMK AO2,K6B9,2024-03-22T04:15:00Z,42.9141,-76.4428,-5,-9,280,5,,9,30.30,,,TRUE,TRUE,,,,,,-SN,FEW,2400,BKN,2900,OVC,4100,,,MVFR,,,,,,,,,,,,METAR,306
K6B0 220415Z AUTO 35010G14KT 10SM CLR M06/M20 A3022 RMK AO2 T10601196,K6B0,2024-03-22T04:15:00Z,43.9888,-73.0952,-6,-19.6,350,10,14,10+,30.22,,,TRUE,TRUE,,,,,,,CLR,,,,,,,,VFR,,,,,,,,,,,,METAR,149
K6A2 220415Z AUTO 00000KT 10SM CLR 12/07 A3007 RMK AO2,K6A2,2024-03-22T04:15:00Z,33.227,-84.275,12,7,0,0,,10+,30.07,,,TRUE,TRUE,,,,,,,CLR,,,,,,,,VFR,,,,,,,,,,,,METAR,290
K6A1 220415Z AUTO 02003KT 10SM CLR 18/06 A3007 RMK AO2 T01760064,K6A1,2024-03-22T04:15:00Z,32.5733,-84.247,17.6,6.4,20,3,,10+,30.07,,,TRUE,TRUE,,,,,,,CLR,,,,,,,,VFR,,,,,,,,,,,,METAR,198
K66R 220415Z AUTO 00000KT 10SM VCTS OVC010 A2988 RMK AO2 LTG DSNT W THRU N,K66R,2024-03-22T04:15:00Z,29.6382,-96.5137,,,0,0,,10+,29.88,,,TRUE,TRUE,,,,,,VCTS,OVC,1000,,,,,,,MVFR,,,,,,,,,,,,METAR,70
K65S 220415Z AUTO 24003KT 10SM OVC060 09/02 A3001 RMK AO2,K65S,2024-03-22T04:15:00Z,48.7255,-116.293,9,2,240,3,,10+,30.01,,,TRUE,TRUE,,,,,,,OVC,6000,,,,,,,VFR,,,,,,,,,,,,METAR,708
K63S 220415Z AUTO 00000KT 10SM FEW070 OVC090 06/02 A3002 RMK A01,K63S,2024-03-22T04:15:00Z,48.544,-117.884,6,2,0,0,,10+,30.02,,,TRUE,TRUE,,,,,,,FEW,7000,OVC,9000,,,,,VFR,,,,,,,,,,,,METAR,571
K60R 220415Z AUTO 09004KT 8SM TS BKN007 OVC029 17/17 A2985 RMK AO2 TSB0415 SLP026 P0000 T01700170 $,K60R,2024-03-22T04:15:00Z,30.368,-96.113,17,17,90,4,,8,29.85,1002.6,,TRUE,TRUE,TRUE,,,,,TS,BKN,700,OVC,2900,,,,,IFR,,,,,,0.005,,,,,,METAR,70
K5T9 220415Z AUTO 36007KT 10SM CLR A2986 RMK A01,K5T9,2024-03-22T04:15:00Z,28.8568,-100.516,,,360,7,,10+,29.86,,,TRUE,TRUE,,,,,,,CLR,,,,,,,,VFR,,,,,,,,,,,,METAR,269
K5SM 220415Z AUTO 28008G14KT 260V320 10SM SCT037 SCT110 M03/M05 A3023 RMK AO2,K5SM,2024-03-22T04:15:00Z,39.426,-107.38,-3,-5,280,8,14,10+,30.23,,,TRUE,TRUE,,,,,,,SCT,3700,SCT,11000,,,,,VFR,,,,,,,,,,,,METAR,3229
K5R8 220415Z AUTO 00000KT 10SM BKN013 OVC020 14/13 A2991 RMK AO2 T01380127,K5R8,2024-03-22T04:15:00Z,30.4368,-93.4696,13.8,12.7,0,0,,10+,29.91,,,TRUE,TRUE,,,,,,,BKN,1300,OVC,2000,,,,,MVFR,,,,,,,,,,,,METAR,26
K5H4 220415Z AUTO 00000KT 5SM HZ FEW003 OVC033 M07/M17 A3023 RMK AO2,K5H4,2024-03-22T04:15:00Z,47.7906,-99.9346,-7,-17,0,0,,5,30.23,,,TRUE,TRUE,,,,,,HZ,FEW,300,OVC,3300,,,,,MVFR,,,,,,,,,,,,METAR,490
K5C1 220415Z AUTO 00000KT 1/2SM OVC003 14/14 A2990 RMK AO1,K5C1,2024-03-22T04:15:00Z,29.7267,-98.6964,14,14,0,0,,0.5,29.90,,,TRUE,TRUE,,,,,,,OVC,300,,,,,,,LIFR,,,,,,,,,,,,METAR,422
K5A6 220415Z AUTO 00000KT 10SM BKN080 13/09 A2997 RMK AO2 T01320085,K5A6,2024-03-22T04:15:00Z,33.469,-89.727,13.2,8.5,0,0,,10+,29.97,,,TRUE,TRUE,,,,,,,BKN,8000,,,,,,,VFR,,,,,,,,,,,,METAR,109
K57C 220415Z AUTO 12006KT 10SM SCT037 BKN055 OVC070 M01/M05 A3020 RMK AO2 T10071046,K57C,2024-03-22T04:15:00Z,42.7971,-88.3655,-0.7,-4.6,120,6,,10+,30.20,,,TRUE,TRUE,,,,,,,SCT,3700,BKN,5500,OVC,7000,,,VFR,,,,,,,,,,,,METAR,454
K54J 220415Z AUTO 00000KT 4SM HZ SCT002 SCT085 SCT120 15/09 A3004 RMK AO2 T01460086,K54J,2024-03-22T04:15:00Z,30.7312,-86.1542,14.6,8.6,0,0,,4,30.04,,,TRUE,TRUE,,,,,,HZ,SCT,200,SCT,8500,SCT,12000,,,MVFR,,,,,,,,,,,,METAR,87
K54A 220415Z AUTO 11007KT 10SM SCT050 OVC070 21/20 A3002 RMK AO2,K54A,2024-03-22T04:15:00Z,26.8601,-82.2468,21,20,110,7,,10+,30.02,,,TRUE,TRUE,,,,,,,SCT,5000,OVC,7000,,,,,VFR,,,,,,,,,,,,METAR,2
K4V1 220415Z AUTO 27016KT 10SM OVC095 11/M06 A2997 RMK AO2,K4V1,2024-03-22T04:15:00Z,37.6941,-104.788,11,-6,270,16,,10+,29.97,,,TRUE,TRUE,,,,,,,OVC,9500,,,,,,,VFR,,,,,,,,,,,,METAR,1847
K4V0 220415Z AUTO 12007KT 10SM CLR 06/01 A3007 RMK AO2 T00600006,K4V0,2024-03-22T04:15:00Z,40.0956,-108.762,6,0.6,120,7,,10+,30.07,,,TRUE,TRUE,,,,,,,CLR,,,,,,,,VFR,,,,,,,,,,,,METAR,1602
K4S2 220415Z AUTO 20003KT 10SM CLR 10/06 A3006 RMK AO2,K4S2,2024-03-22T04:15:00Z,45.6746,-121.535,10,6,200,3,,10+,30.06,,,TRUE,TRUE,,,,,,,CLR,,,,,,,,VFR,,,,,,,,,,,,METAR,183
K4S1 220415Z AUTO 16006KT 7SM SCT039 BKN045 13/07 A3003 RMK AO2,K4S1,2024-03-22T04:15:00Z,42.4161,-124.426,13,7,160,6,,7,30.03,,,TRUE,TRUE,,,,,,,SCT,3900,BKN,4500,,,,,VFR,,,,,,,,,,,,METAR,7
K4R5 220415Z AUTO 09003KT 10SM BKN120 M04/M12 A3023 RMK AO2 T10401116,K4R5,2024-03-22T04:15:00Z,46.7887,-90.7559,-4,-11.6,90,3,,10+,30.23,,,TRUE,TRUE,,,,,,,BKN,12000,,,,,,,VFR,,,,,,,,,,,,METAR,195
K4O4 220415Z AUTO 09006KT 10SM UP BKN006 BKN010 OVC031 14/14 A2992 RMK AO2,K4O4,2024-03-22T04:15:00Z,33.9133,-94.8546,14,14,90,6,,10+,29.92,,,TRUE,TRUE,,,,,,UP,BKN,600,BKN,1000,OVC,3100,,,IFR,,,,,,,,,,,,METAR,148
K4M9 220415Z AUTO 05006KT 10SM FEW085 SCT120 13/04 A3002 RMK A01,K4M9,2024-03-22T04:15:00Z,36.404,-90.647,13,4,50,6,,10+,30.02,,,TRUE,TRUE,,,,,,,FEW,8500,SCT,12000,,,,,VFR,,,,,,,,,,,,METAR,86
K4I3 220415Z AUTO 03007KT 10SM SCT085 M03/M09 A3027 RMK AO2,K4I3,2024-03-22T04:15:00Z,40.3268,-82.5201,-3,-9,30,7,,10+,30.27,,,TRUE,TRUE,,,,,,,SCT,8500,,,,,,,VFR,,,,,,,,,,,,METAR,361
K4F2 220415Z AUTO 13003KT 7SM -RA BKN006 OVC012 13/12 A2992 RMK AO2 LTG DSNT NW P0001 T01270117,K4F2,2024-03-22T04:15:00Z,32.18,-94.2976,12.7,11.7,130,3,,7,29.92,,,TRUE,TRUE,,,,,,-RA,BKN,600,OVC,1200,,,,,IFR,,,,,,0.01,,,,,,METAR,76
K4BM 220415Z AUTO 24010G17KT 10SM CLR 00/M08 A3019 RMK AO2,K4BM,2024-03-22T04:15:00Z,39.05,-105.514,0,-8,240,10,17,10+,30.19,,,TRUE,TRUE,,,,,,,CLR,,,,,,,,VFR,,,,,,,,,,,,METAR,3432
K4B8 220415Z AUTO VRB04KT 10SM CLR M02/M15 A3027 RMK AO2 T10211145,K4B8,2024-03-22T04:15:00Z,41.69,-72.865,-2.1,-14.5,VRB,4,,10+,30.27,,,TRUE,TRUE,,,,,,,CLR,,,,,,,,VFR,,,,,,,,,,,,METAR,61
K4A9 220415Z AUTO 04005KT 10SM SCT120 17/03 A3004 RMK AO2 T01730025,K4A9,2024-03-22T04:15:00Z,34.4759,-85.717,17.3,2.5,40,5,,10+,30.04,,,TRUE,TRUE,,,,,,,SCT,12000,,,,,,,VFR,,,,,,,,,,,,METAR,273
K4A6 220415Z AUTO 04005KT 10SM BKN110 18/03 A3004 RMK AO2,K4A6,2024-03-22T04:15:00Z,34.688,-86.006,18,3,40,5,,10+,30.04,,,TRUE,TRUE,,,,,,,BKN,11000,,,,,,,VFR,,,,,,,,,,,,METAR,191
K49B 220415Z AUTO 00000KT 10SM BKN005 OVC009 M04/M05 A3004 RMK AO2,K49B,2024-03-22T04:15:00Z,44.4284,-103.38,-4,-5,0,0,,10+,30.04,,,TRUE,TRUE,,,,,,,BKN,500,OVC,900,,,,,IFR,,,,,,,,,,,,METAR,986
K49A 220415Z AUTO 03007KT 10SM 15/01 A3008 RMK AO2 LTG DSNT N,K49A,2024-03-22T04:15:00Z,34.6301,-84.5271,15,1,30,7,,10+,30.08,,,TRUE,TRUE,,,,,,,,,,,,,,,VFR,,,,,,,,,,,,METAR,449
K48I 220415Z AUTO 00000KT 10SM CLR M01/M08 A3024 RMK AO2,K48I,2024-03-22T04:15:00Z,38.684,-80.649,-1,-8,0,0,,10+,30.24,,,TRUE,TRUE,,,,,,,CLR,,,,,,,,VFR,,,,,,,,,,,,METAR,386
K48A 220415Z AUTO 12005KT 10SM CLR 17/08 A3009 RMK AO2 T01730080,K48A,2024-03-22T04:15:00Z,32.3993,-83.2785,17.3,8,120,5,,10+,30.09,,,TRUE,TRUE,,,,,,,CLR,,,,,,,,VFR,,,,,,,,,,,,METAR,115
K46U 220415Z AUTO 31003KT 10SM BKN050 OVC055 06/M02 A3010 RMK A01,K46U,2024-03-22T04:15:00Z,43.181,-111.037,6,-2,310,3,,10+,30.10,,,TRUE,TRUE,,,,,,,BKN,5000,OVC,5500,,,,,VFR,,,,,,,,,,,,METAR,1718
K46D 220415Z AUTO 13004KT 3SM BR BKN001 OVC017 M06/M06 A3020 RMK A01,K46D,2024-03-22T04:15:00Z,47.4509,-99.1479,-6,-6,130,4,,3,30.20,,,TRUE,TRUE,,,,,,BR,BKN,100,OVC,1700,,,,,LIFR,,,,,,,,,,,,METAR,488
K42J 220415Z AUTO 10008KT 10SM FEW027 BKN033 OVC039 18/15 A3006 RMK A01,K42J,2024-03-22T04:15:00Z,29.844,-82.05,18,15,100,8,,10+,30.06,,,TRUE,TRUE,,,,,,,FEW,2700,BKN,3300,OVC,3900,,,VFR,,,,,,,,,,,,METAR,57
K42A 220415Z AUTO 07003KT 10SM BKN075 OVC090 12/07 A3000 RMK AO2,K42A,2024-03-22T04:15:00Z,36.0713,-91.8287,12,7,70,3,,10+,30.00,,,TRUE,TRUE,,,,,,,BKN,7500,OVC,9000,,,,,VFR,,,,,,,,,,,,METAR,224
K41U 220415Z AUTO 11003KT 10SM CLR 05/M01 A3011 RMK AO1 T00471015,K41U,2024-03-22T04:15:00Z,39.3323,-111.614,4.7,-1.5,110,3,,10+,30.11,,,TRUE,TRUE,,,,,,,CLR,,,,,,,,VFR,,,,,,,,,,,,METAR,1676
K40U 220415Z AUTO 29012KT 10SM CLR 06/M06 A3010 RMK AO2 T00581059,K40U,2024-03-22T04:15:00Z,40.986,-109.678,5.8,-5.9,290,12,,10+,30.10,,,TRUE,TRUE,,,,,,,CLR,,,,,,,,VFR,,,,,,,,,,,,METAR,1882
K3T5 220415Z AUTO 11008KT 5SM -RA BR BKN070 BKN100 BKN120 14/14 A2981 RMK AO2 PRESFR P0006 T01390139,K3T5,2024-03-22T04:15:00Z,29.9064,-96.9478,13.9,13.9,110,8,,5,29.81,,,TRUE,TRUE,,,,,,-RA BR,BKN,7000,BKN,10000,BKN,12000,,,MVFR,,,,,,0.06,,,,,,METAR,96
K3S8 220415Z AUTO 00000KT 10SM CLR 12/06 A3002 RMK AO2,K3S8,2024-03-22T04:15:00Z,42.51,-123.388,12,6,0,0,,10+,30.02,,,TRUE,TRUE,,,,,,,CLR,,,,,,,,VFR,,,,,,,,,,,,METAR,339
K3R7 220415Z AUTO 07005KT 10SM OVC015 14/14 A2992 RMK AO2 T01350135,K3R7,2024-03-22T04:15:00Z,30.2426,-92.6759,13.5,13.5,70,5,,10+,29.92,,,TRUE,TRUE,,,,,,,OVC,1500,,,,,,,MVFR,,,,,,,,,,,,METAR,5
K3N8 220415Z AUTO 02006KT 10SM SCT037 BKN047 OVC050 M05/M13 A3022 RMK AO2 T10531133,K3N8,2024-03-22T04:15:00Z,47.26,-95.928,-5.3,-13.3,20,6,,10+,30.22,,,TRUE,TRUE,,,,,,,SCT,3700,BKN,4700,OVC,5000,,,VFR,,,,,,,,,,,,METAR,379
K3LF 220415Z AUTO 10006KT 10SM CLR 04/M06 A3011 RMK AO2 T00351058,K3LF,2024-03-22T04:15:00Z,39.1605,-89.6742,3.5,-5.8,100,6,,10+,30.11,,,TRUE,TRUE,,,,,,,CLR,,,,,,,,VFR,,,,,,,,,,,,METAR,207
K3L4 220415Z AUTO 11011KT 10SM OVC016 17/17 A2988 RMK A01,K3L4,2024-03-22T04:15:00Z,29.8,-92.804,17,17,110,11,,10+,29.88,,,TRUE,TRUE,,,,,,,OVC,1600,,,,,,,MVFR,,,,,,,,,,,,METAR,1
K3K3 220415Z AUTO 14008KT 10SM 08/03 A2988 RMK AO2,K3K3,2024-03-22T04:15:00Z,37.9988,-101.75,8,3,140,8,,10+,29.88,,,TRUE,TRUE,,,,,,,,,,,,,,,VFR,,,,,,,,,,,,METAR,1010
K3F3 220415Z AUTO 13007KT 10SM -DZ OVC018 13/12 A2997 RMK AO2 P0001 T01310122,K3F3,2024-03-22T04:15:00Z,32.0718,-93.7641,13.1,12.2,130,7,,10+,29.97,,,TRUE,TRUE,,,,,,-DZ,OVC,1800,,,,,,,MVFR,,,,,,0.01,,,,,,METAR,96
K3D2 220415Z AUTO 17004KT 10SM BKN120 M03/M10 A3023 RMK AO2 T10291096,K3D2,2024-03-22T04:15:00Z,45.1348,-87.1881,-2.9,-9.6,170,4,,10+,30.23,,,TRUE,TRUE,,,,,,,BKN,12000,,,,,,,VFR,,,,,,,,,,,,METAR,233
K36K 220415Z AUTO 18010KT 10SM OVC028 11/07 A2991 RMK AO2,K36K,2024-03-22T04:15:00Z,37.9707,-101.255,11,7,180,10,,10+,29.91,,,TRUE,TRUE,,,,,,,OVC,2800,,,,,,,MVFR,,,,,,,,,,,,METAR,938
K35A 220415Z AUTO 15004KT 10SM CLR 15/06 A3018 RMK A02 T01520058,K35A,2024-03-22T04:15:00Z,34.6849,-81.6421,15.2,5.8,150,4,,10+,30.18,,,TRUE,TRUE,,,,,,,CLR,,,,,,,,VFR,,,,,,,,,,,,METAR,186
K33N 220415Z AUTO 00000KT 10SM OVC065 M01/M06 A3032 RMK A01,K33N,2024-03-22T04:15:00Z,39.218,-75.597,-1,-6,0,0,,10+,30.32,,,TRUE,TRUE,,,,,,,OVC,6500,,,,,,,VFR,,,,,,,,,,,,METAR,17
K2V5 220415Z AUTO 29007KT 10SM BKN120 10/M06 A2986 RMK AO2,K2V5,2024-03-22T04:15:00Z,40.1,-102.241,10,-6,290,7,,10+,29.86,,,TRUE,TRUE,,,,,,,BKN,12000,,,,,,,VFR,,,,,,,,,,,,METAR,1117
K2R9 220415Z AUTO 06004KT 10SM SCT008 BKN018 19/18 A2989 RMK AO2 LTG DSNT NE T01890180,K2R9,2024-03-22T04:15:00Z,28.8267,-97.8676,18.9,18,60,4,,10+,29.89,,,TRUE,TRUE,,,,,,,SCT,800,BKN,1800,,,,,MVFR,,,,,,,,,,,,METAR,88
K2R2 220415Z AUTO 11004KT 10SM CLR 01/M10 A3017 RMK AO2 T00081096,K2R2,2024-03-22T04:15:00Z,39.7511,-86.4732,0.8,-9.6,110,4,,10+,30.17,,,TRUE,TRUE,,,,,,,CLR,,,,,,,,VFR,,,,,,,,,,,,METAR,273
K2P2 220415Z AUTO 19005KT 10SM SCT120 M02/M08 A3025 RMK AO2 T10201081,K2P2,2024-03-22T04:15:00Z,45.388,-86.924,-2,-8.1,190,5,,10+,30.25,,,TRUE,TRUE,,,,,,,SCT,12000,,,,,,,VFR,,,,,,,,,,,,METAR,182
K2M8 220415Z AUTO 00000KT 9SM OVC130 15/08 A2998 RMK AO2 T01480084 $,K2M8,2024-03-22T04:15:00Z,35.276,-89.931,14.8,8.4,0,0,,9,29.98,,,TRUE,TRUE,TRUE,,,,,,OVC,13000,,,,,,,VFR,,,,,,,,,,,,METAR,75
K2M2 220415Z AUTO 09005KT 10SM FEW048 FEW060 OVC070 15/02 A3003 RMK A01,K2M2,2024-03-22T04:15:00Z,35.2372,-87.2611,15,2,90,5,,10+,30.03,,,TRUE,TRUE,,,,,,,FEW,4800,FEW,6000,OVC,7000,,,VFR,,,,,,,,,,,,METAR,286
K2J9 220415Z AUTO 00000KT 10SM FEW034 FEW070 OVC085 15/10 A3007 RMK AO2,K2J9,2024-03-22T04:15:00Z,30.5987,-84.555,15,10,0,0,,10+,30.07,,,TRUE,TRUE,,,,,,,FEW,3400,FEW,7000,OVC,8500,,,VFR,,,,,,,,,,,,METAR,62
K2J5 220415Z AUTO 08005KT 10SM CLR 16/12 A3013 RMK AO2 T01570121,K2J5,2024-03-22T04:15:00Z,32.8913,-81.9664,15.7,12.1,80,5,,10+,30.13,,,TRUE,TRUE,,,,,,,CLR,,,,,,,,VFR,,,,,,,,,,,,METAR,72
K2I0 220415Z AUTO 07006KT 10SM CLR 07/M04 A3010 RMK AO2 T00671037,K2I0,2024-03-22T04:15:00Z,37.3582,-87.3977,6.7,-3.7,70,6,,10+,30.10,,,TRUE,TRUE,,,,,,,CLR,,,,,,,,VFR,,,,,,,,,,,,METAR,127
K2G9 220415Z AUTO 00000KT 10SM CLR M03/M12 A3024 RMK AO2,K2G9,2024-03-22T04:15:00Z,40.0401,-79.0158,-3,-12,0,0,,10+,30.24,,,TRUE,TRUE,,,,,,,CLR,,,,,,,,VFR,,,,,,,,,,,,METAR,677
K2G2 220415Z AUTO 06008KT 10SM CLR M02/M11 A3027 RMK A01,K2G2,2024-03-22T04:15:00Z,40.359,-80.7,-2,-11,60,8,,10+,30.27,,,TRUE,TRUE,,,,,,,CLR,,,,,,,,VFR,,,,,,,,,,,,METAR,365
K2D5 220415Z AUTO 05009KT 1 1/2SM -SN OVC003 M06/M06 A3018 RMK AO2,K2D5,2024-03-22T04:15:00Z,46.1739,-98.083,-6,-6,50,9,,1.5,30.18,,,TRUE,TRUE,,,,,,-SN,OVC,300,,,,,,,LIFR,,,,,,,,,,,,METAR,407
K2C8 220415Z AUTO 10SM OVC075 M05/M12 A3026 RMK AO2,K2C8,2024-03-22T04:15:00Z,48.7838,-97.6297,-5,-12,,,,10+,30.26,,,TRUE,TRUE,,,,,,,OVC,7500,,,,,,,VFR,,,,,,,,,,,,METAR,271
K2A0 220415Z AUTO 00000KT 10SM CLR 09/04 A3008 RMK A01,K2A0,2024-03-22T04:15:00Z,35.4817,-84.9322,9,4,0,0,,10+,30.08,,,TRUE,TRUE,,,,,,,CLR,,,,,,,,VFR,,,,,,,,,,,,METAR,219
K28J 220415Z AUTO 13007KT 10SM SCT032 OVC040 19/16 A3006 RMK AO2,K28J,2024-03-22T04:15:00Z,29.6602,-81.6918,19,16,130,7,,10+,30.06,,,TRUE,TRUE,,,,,,,SCT,3200,OVC,4000,,,,,VFR,,,,,,,,,,,,METAR,9
K24J 220415Z AUTO 08005KT 10SM FEW030 SCT045 OVC090 19/12 A3006 RMK A01,K24J,2024-03-22T04:15:00Z,30.299,-83.0226,19,12,80,5,,10+,30.06,,,TRUE,TRUE,,,,,,,FEW,3000,SCT,4500,OVC,9000,,,VFR,,,,,,,,,,,,METAR,30
K22N 220415Z AUTO 33006KT 10SM CLR M01/M12 A3033 RMK AO2,K22N,2024-03-22T04:15:00Z,40.8116,-75.7647,-1,-12,330,6,,10+,30.33,,,TRUE,TRUE,,,,,,,CLR,,,,,,,,VFR,,,,,,,,,,,,METAR,159
K21D 220415Z AUTO 08005KT 2SM -SN OVC018 M03/M04 A3022 RMK AO2,K21D,2024-03-22T04:15:00Z,45.0002,-92.8549,-3,-4,80,5,,2,30.22,,,TRUE,TRUE,,,,,,-SN,OVC,1800,,,,,,,IFR,,,,,,,,,,,,METAR,281
K20V 220415Z AUTO 00000KT 10SM BKN080 02/00 A3012 RMK AO2,K20V,2024-03-22T04:15:00Z,40.0563,-106.374,2,0,0,0,,10+,30.12,,,TRUE,TRUE,,,,,,,BKN,8000,,,,,,,VFR,,,,,,,,,,,,METAR,2259
K20U 220415Z AUTO 08008KT 10SM CLR M06/M07 A3013 RMK AO2,K20U,2024-03-22T04:15:00Z,46.9251,-103.985,-6,-7,80,8,,10+,30.13,,,TRUE,TRUE,,,,,,,CLR,,,,,,,,VFR,,,,,,,,,,,,METAR,839
K1V6 220415Z AUTO 31010KT 10SM CLR 10/M03 A2995 RMK AO2,K1V6,2024-03-22T04:15:00Z,38.4256,-105.105,10,-3,310,10,,10+,29.95,,,TRUE,TRUE,,,,,,,CLR,,,,,,,,VFR,,,,,,,,,,,,METAR,1658
K1U7 220415Z AUTO 36008KT 10SM CLR 02/M03 A3009 RMK A01,K1U7,2024-03-22T04:15:00Z,42.252,-111.337,2,-3,360,8,,10+,30.09,,,TRUE,TRUE,,,,,,,CLR,,,,,,,,VFR,,,,,,,,,,,,METAR,1808
K1S5 220415Z AUTO 00000KT 10SM CLR 10/05 A3003 RMK AO2 T00950051,K1S5,2024-03-22T04:15:00Z,46.3288,-119.974,9.5,5.1,0,0,,10+,30.03,,,TRUE,TRUE,,,,,,,CLR,,,,,,,,VFR,,,,,,,,,,,,METAR,228
K1R8 220415Z AUTO 00000KT 10SM SCT045 SCT060 OVC075 14/09 A2999 RMK AO2,K1R8,2024-03-22T04:15:00Z,30.8691,-87.8184,14,9,0,0,,10+,29.99,,,TRUE,TRUE,,,,,,,SCT,4500,SCT,6000,OVC,7500,,,VFR,,,,,,,,,,,,METAR,76
K1R7 220415Z AUTO 00000KT 10SM BKN110 14/11 A2998 RMK AO2 PWINO,K1R7,2024-03-22T04:15:00Z,31.6057,-90.4072,14,11,0,0,,10+,29.98,,,TRUE,TRUE,,,,,TRUE,,BKN,11000,,,,,,,VFR,,,,,,,,,,,,METAR,142
K1P1 220415Z AUTO 30013G21KT 10SM CLR M04/M14 A3010 RMK AO2 T10451138,K1P1,2024-03-22T04:15:00Z,43.7771,-71.756,-4.5,-13.8,300,13,21,10+,30.10,,,TRUE,TRUE,,,,,,,CLR,,,,,,,,VFR,,,,,,,,,,,,METAR,155
K1M5 220415Z AUTO 07004KT 10SM BKN070 10/M04 A3008 RMK A01,K1M5,2024-03-22T04:15:00Z,36.5956,-86.478,10,-4,70,4,,10+,30.08,,,TRUE,TRUE,,,,,,,BKN,7000,,,,,,,VFR,,,,,,,,,,,,METAR,239
K1K8 220415Z AUTO 00000KT 10SM OVC090 16/11 A2994 RMK AO2,K1K8,2024-03-22T04:15:00Z,36.543,-95.012,16,11,0,0,,10+,29.94,,,TRUE,TRUE,,,,,,,OVC,9000,,,,,,,VFR,,,,,,,,,,,,METAR,234
K1H2 220415Z AUTO 07005KT 10SM CLR 05/M05 A3013 RMK AO2 T00451053,K1H2,2024-03-22T04:15:00Z,39.0712,-88.5293,4.5,-5.3,70,5,,10+,30.13,,,TRUE,TRUE,,,,,,,CLR,,,,,,,,VFR,,,,,,,,,,,,METAR,174
K1GN 220415Z AUTO 05009KT 3SM -SN BR BKN014 BKN018 M06/M07 A3016 RMK AO2 BKN014 V SCT SLP262 $,K1GN,2024-03-22T04:15:00Z,48.12,-101.96,-6,-7,50,9,,3,30.16,1026.2,,TRUE,TRUE,TRUE,,,,,-SN BR,BKN,1400,BKN,1800,,,,,MVFR,,,,,,,,,,,,SPECI,644
K1F0 220415Z AUTO 11005KT 3 1/2SM -RA BR BKN008 OVC012 15/14 A2986 RMK AO2 P0001 T01450137,K1F0,2024-03-22T04:15:00Z,34.1508,-97.1242,14.5,13.7,110,5,,3.5,29.86,,,TRUE,TRUE,,,,,,-RA BR,BKN,800,OVC,1200,,,,,IFR,,,,,,0.01,,,,,,METAR,256
K1EN 220415Z AUTO 00000KT 3SM -SN BR BKN031 OVC070 M07/M09 M RMK AO2 SLPNO $,K1EN,2024-03-22T04:15:00Z,47.75,-101.67,-7,-9,0,0,,3,0.00,,,TRUE,TRUE,TRUE,,,,,-SN BR,BKN,3100,OVC,7000,,,,,MVFR,,,,,,,,,,,,SPECI,641
K1D8 220415Z AUTO 04008KT 10SM FEW042 SCT047 BKN055 M02/M03 A3011 RMK AO2,K1D8,2024-03-22T04:15:00Z,44.86,-98.529,-2,-3,40,8,,10+,30.11,,,TRUE,TRUE,,,,,,,FEW,4200,SCT,4700,BKN,5500,,,VFR,,,,,,,,,,,,METAR,398
K1D1 220415Z AUTO 07008KT 2 1/2SM -SN BR FEW004 SCT032 M04/M04 A3016 RMK AO2,K1D1,2024-03-22T04:15:00Z,45.231,-96.566,-4,-4,70,8,,2.5,30.16,,,TRUE,TRUE,,,,,,-SN BR,FEW,400,SCT,3200,,,,,IFR,,,,,,,,,,,,METAR,340
K1A9 220415Z AUTO 00000KT 10SM CLR 14/09 A3002 RMK AO2 T01400092,K1A9,2024-03-22T04:15:00Z,32.4374,-86.5098,14,9.2,0,0,,10+,30.02,,,TRUE,TRUE,,,,,,,CLR,,,,,,,,VFR,,,,,,,,,,,,METAR,65
K1A6 220415Z AUTO 00000KT 10SM CLR 06/M01 A3016 RMK AO2 T00551008,K1A6,2024-03-22T04:15:00Z,36.6087,-83.7369,5.5,-0.8,0,0,,10+,30.16,,,TRUE,TRUE,,,,,,,CLR,,,,,,,,VFR,,,,,,,,,,,,METAR,348
K19S 220415Z AUTO 16007KT 10SM CLR 08/04 A2990 RMK AO2 T00800044,K19S,2024-03-22T04:15:00Z,37.496,-100.834,8,4.4,160,7,,10+,29.90,,,TRUE,TRUE,,,,,,,CLR,,,,,,,,VFR,,,,,,,,,,,,METAR,886
K18H 220415Z AUTO VRB04G10KT 6SM BR SCT007 OVC015 24/22 A2985 RMK A01,K18H,2024-03-22T04:15:00Z,26.1283,-92.0333,24,22,VRB,4,10,6,29.85,,,TRUE,TRUE,,,,,,BR,SCT,700,OVC,1500,,,,,MVFR,,,,,,,,,,,,METAR,30
K18A 220415Z AUTO 12008KT 10SM CLR 17/04 A3010 RMK AO2 T01690045,K18A,2024-03-22T04:15:00Z,34.3418,-83.1316,16.9,4.5,120,8,,10+,30.10,,,TRUE,TRUE,,,,,,,CLR,,,,,,,,VFR,,,,,,,,,,,,METAR,260
K17J 220415Z AUTO 00000KT 7SM HZ OVC095 16/10 A3008 RMK AO2,K17J,2024-03-22T04:15:00Z,31.0038,-84.8794,16,10,0,0,,7,30.08,,,TRUE,TRUE,,,,,,HZ,OVC,9500,,,,,,,VFR,,,,,,,,,,,,METAR,42
K15M 220415Z AUTO 09004KT 7SM OVC140 17/07 A3000 RMK AO2 T01670069,K15M,2024-03-22T04:15:00Z,34.7745,-88.1676,16.7,6.9,90,4,,7,30.00,,,TRUE,TRUE,,,,,,,OVC,14000,,,,,,,VFR,,,,,,,,,,,,METAR,192
K14Y 220415Z AUTO 00000KT 2SM -SN BKN017 BKN026 OVC030 M05/M06 A3019 RMK AO2,K14Y,2024-03-22T04:15:00Z,45.9017,-94.8727,-5,-6,0,0,,2,30.19,,,TRUE,TRUE,,,,,,-SN,BKN,1700,BKN,2600,OVC,3000,,,IFR,,,,,,,,,,,,METAR,404
K13K 220415Z AUTO 17007KT 10SM CLR 13/12 A2993 RMK AO2 T01260115,K13K,2024-03-22T04:15:00Z,37.8519,-96.2929,12.6,11.5,170,7,,10+,29.93,,,TRUE,TRUE,,,,,,,CLR,,,,,,,,VFR,,,,,,,,,,,,METAR,367
K11R 220415Z AUTO 35003KT 10SM -VCTSRA BKN005 BKN010 OVC020 18/17 A2987 RMK AO2 LTG DSNT SW THRU N T01760170,K11R,2024-03-22T04:15:00Z,30.2232,-96.3734,17.6,17,350,3,,10+,29.87,,,TRUE,TRUE,,,,,,VCTS -RA,BKN,500,BKN,1000,OVC,2000,,,IFR,,,,,,,,,,,,METAR,87
K10U 220415Z AUTO 16007KT 10SM CLR 03/M02 A3010 RMK AO2,K10U,2024-03-22T04:15:00Z,41.953,-116.182,3,-2,160,7,,10+,30.10,,,TRUE,TRUE,,,,,,,CLR,,,,,,,,VFR,,,,,,,,,,,,METAR,1638
K10G 220415Z AUTO 00000KT 10SM SCT080 M02/M11 A3029 RMK AO2,K10G,2024-03-22T04:15:00Z,40.5357,-81.9531,-2,-11,0,0,,10+,30.29,,,TRUE,TRUE,,,,,,,SCT,8000,,,,,,,VFR,,,,,,,,,,,,METAR,371
K0VG 220415Z AUTO 00000KT 10SM CLR 05/M02 A3016 RMK AO2,K0VG,2024-03-22T04:15:00Z,36.6576,-83.2147,5,-2,0,0,,10+,30.16,,,TRUE,TRUE,,,,,,,CLR,,,,,,,,VFR,,,,,,,,,,,,METAR,426
K0V4 220415Z AUTO 09005KT 10SM CLR 05/M01 A3023 RMK AO1,K0V4,2024-03-22T04:15:00Z,37.1399,-79.0171,5,-1,90,5,,10+,30.23,,,TRUE,TRUE,,,,,,,CLR,,,,,,,,VFR,,,,,,,,,,,,METAR,186
K0S9 220415Z AUTO 00000KT 10SM SCT024 BKN030 OVC035 11/08 A3005 RMK AO2,K0S9,2024-03-22T04:15:00Z,48.0554,-122.812,11,8,0,0,,10+,30.05,,,TRUE,TRUE,,,,,,,SCT,2400,BKN,3000,OVC,3500,,,MVFR,,,,,,,,,,,,METAR,33
K0R4 220415Z AUTO 00000KT 10SM SCT026 OVC100 14/11 A3000 RMK AO2 T01380112,K0R4,2024-03-22T04:15:00Z,31.5637,-91.5098,13.8,11.2,0,0,,10+,30.00,,,TRUE,TRUE,,,,,,,SCT,2600,OVC,10000,,,,,VFR,,,,,,,,,,,,METAR,16
K0R0 220415Z AUTO 13005KT 10SM BKN030 14/07 A3000 RMK AO2 PWINO,K0R0,2024-03-22T04:15:00Z,31.2969,-89.8159,14,7,130,5,,10+,30.00,,,TRUE,TRUE,,,,,TRUE,,BKN,3000,,,,,,,MVFR,,,,,,,,,,,,METAR,76
K0F2 220415Z AUTO 00000KT 10SM SCT012 BKN050 OVC095 12/12 A2987 RMK AO2 T01220117,K0F2,2024-03-22T04:15:00Z,33.6011,-97.7735,12.2,11.7,0,0,,10+,29.87,,,TRUE,TRUE,,,,,,,SCT,1200,BKN,5000,OVC,9500,,,VFR,,,,,,,,,,,,METAR,330
K0E0 220415Z AUTO 29007KT 10SM CLR 06/M07 A3006 RMK AO2 T00621074,K0E0,2024-03-22T04:15:00Z,34.9837,-105.996,6.2,-7.4,290,7,,10+,30.06,,,TRUE,TRUE,,,,,,,CLR,,,,,,,,VFR,,,,,,,,,,,,METAR,1887
K0D8 220415Z AUTO 06013KT 2 1/2SM BR SCT008 BKN025 OVC047 M05/M05 A3008 RMK A01,K0D8,2024-03-22T04:15:00Z,44.989,-99.954,-5,-5,60,13,,2.5,30.08,,,TRUE,TRUE,,,,,,BR,SCT,800,BKN,2500,OVC,4700,,,IFR,,,,,,,,,,,,METAR,628
K0CO 220415Z AUTO 31025G35KT M07/M08 A3013 RMK AO2 PWINO,K0CO,2024-03-22T04:15:00Z,39.794,-105.764,-7,-8,310,25,35,,30.13,,,TRUE,TRUE,,,,,TRUE,,,,,,,,,,VFR,,,,,,,,,,,,METAR,3804
K0A9 220415Z AUTO 00000KT 10SM FEW037 FEW048 SCT060 08/M02 A3015 RMK AO2,K0A9,2024-03-22T04:15:00Z,36.3711,-82.1768,8,-2,0,0,,10+,30.15,,,TRUE,TRUE,,,,,,,FEW,3700,FEW,4800,SCT,6000,,,VFR,,,,,,,,,,,,METAR,479
K0A0 220415Z AUTO 36008KT 10SM CLR 09/M07 A3004 RMK AO2,K0A0,2024-03-22T04:15:00Z,32.99,-106.967,9,-7,360,8,,10+,30.04,,,TRUE,TRUE,,,,,,,CLR,,,,,,,,VFR,,,,,,,,,,,,METAR,1401
K08D 220415Z AUTO 05009KT 5SM -SN FEW004 SCT009 BKN031 M07/M07 A3019 RMK AO2,K08D,2024-03-22T04:15:00Z,48.3018,-102.404,-7,-7,50,9,,5,30.19,,,TRUE,TRUE,,,,,,-SN,FEW,400,SCT,900,BKN,3100,,,MVFR,,,,,,,,,,,,METAR,683
K06D 220415Z AUTO 01010KT 10SM FEW023 SCT027 OVC032 M07/M13 A3022 RMK AO2,K06D,2024-03-22T04:15:00Z,48.8821,-99.6217,-7,-13,10,10,,10+,30.22,,,TRUE,TRUE,,,,,,,FEW,2300,SCT,2700,OVC,3200,,,VFR,,,,,,,,,,,,METAR,554
K06C 220415Z AUTO 11008KT 10SM BKN065 BKN120 02/M06 A3018 RMK AO2 T00181062,K06C,2024-03-22T04:15:00Z,41.9924,-88.1091,1.8,-6.2,110,8,,10+,30.18,,,TRUE,TRUE,,,,,,,BKN,6500,BKN,12000,,,,,VFR,,,,,,,,,,,,METAR,243
K04W 220415Z AUTO 00000KT 1 3/4SM -SN OVC015 M04/M06 A3023 RMK AO2,K04W,2024-03-22T04:15:00Z,46.0244,-92.8991,-4,-6,0,0,,1.75,30.23,,,TRUE,TRUE,,,,,,-SN,OVC,1500,,,,,,,IFR,,,,,,,,,,,,METAR,310
K00U 220415Z AUTO 36011KT 10SM OVC016 M00/M02 A3011 RMK A01,K00U,2024-03-22T04:15:00Z,45.7453,-107.661,0,-2,360,11,,10+,30.11,,,TRUE,TRUE,,,,,,,OVC,1600,,,,,,,MVFR,,,,,,,,,,,,METAR,922
CYFB 220415Z 34002KT 15SM BKN007 OVC063 M16/M18 A3028 RMK ST6SC2 SLP260,CYFB,2024-03-22T04:15:00Z,63.75,-68.544,-16,-18,340,2,,15,30.28,1026,,,,,,,,,,BKN,700,OVC,6300,,,,,IFR,,,,,,,,,,,,SPECI,23
CWPF 220415Z AUTO 36005KT 10/06 RMK AO1 SLP176 T01040057 56003,CWPF,2024-03-22T04:15:00Z,48.432,-123.439,10.4,5.7,360,5,,,0.00,1017.6,,TRUE,TRUE,,,,,,,,,,,,,,,VFR,-0.03,,,,,,,,,,,METAR,5
KP33 220414Z AUTO 01006KT 10SM CLR 10/M01 A3014 RMK AO2,KP33,2024-03-22T04:14:00Z,32.245,-109.895,10,-1,10,6,,10+,30.14,,,TRUE,TRUE,,,,,,,CLR,,,,,,,,VFR,,,,,,,,,,,,METAR,1276
KMFI 220414Z AUTO 00000KT 3/4SM -SN BR VV012 M04/M06 A3019 RMK AO2 P0000 T10391061,KMFI,2024-03-22T04:14:00Z,44.6379,-90.1875,-3.9,-6.1,0,0,,0.75,30.19,,,TRUE,TRUE,,,,,,-SN BR,OVX,0,,,,,,,LIFR,,,,,,0.005,,,,,1200,SPECI,383
KLSE 220414Z AUTO 09003KT 2 1/2SM -SN BR OVC021 M02/M04 A3019 RMK AO2 P0001 T10171039,KLSE,2024-03-22T04:14:00Z,43.8792,-91.253,-1.7,-3.9,90,3,,2.5,30.19,,,TRUE,TRUE,,,,,,-SN BR,OVC,2100,,,,,,,IFR,,,,,,0.01,,,,,,SPECI,198
KFVE 220414Z AUTO 29022G35KT 3/4SM -SN VV014 M09/M13 A2957 RMK AO2 PK WND 28043/0357 P0000 T10941133 $,KFVE,2024-03-22T04:14:00Z,47.2852,-68.3072,-9.4,-13.3,290,22,35,0.75,29.57,,,TRUE,TRUE,TRUE,,,,,-SN,OVX,0,,,,,,,LIFR,,,,,,0.005,,,,,1400,SPECI,299
KXVG 220413Z AUTO 00000KT 10SM BKN048 OVC055 M05/M13 A3020 RMK AO2,KXVG,2024-03-22T04:13:00Z,46.9942,-94.206,-5,-13,0,0,,10+,30.20,,,TRUE,TRUE,,,,,,,BKN,4800,OVC,5500,,,,,VFR,,,,,,,,,,,,METAR,407
KOWA 220413Z AUTO 06006KT 4SM -SN SCT015 SCT020 OVC060 M03/M05 A3015 RMK AO2,KOWA,2024-03-22T04:13:00Z,44.1191,-93.2569,-3,-5,60,6,,4,30.15,,,TRUE,TRUE,,,,,,-SN,SCT,1500,SCT,2000,OVC,6000,,,MVFR,,,,,,,,,,,,METAR,345
KORB 220413Z AUTO 00000KT 10SM CLR M08/M19 A3020 RMK AO2,KORB,2024-03-22T04:13:00Z,48.0171,-92.8538,-8,-19,0,0,,10+,30.20,,,TRUE,TRUE,,,,,,,CLR,,,,,,,,VFR,,,,,,,,,,,,METAR,407
KHRL 220413Z 00000KT 4SM BR CLR 18/18 A2986 RMK AO2 T01830183,KHRL,2024-03-22T04:13:00Z,26.2303,-97.6556,18.3,18.3,0,0,,4,29.86,,,,TRUE,,,,,,BR,CLR,,,,,,,,MVFR,,,,,,,,,,,,SPECI,9
KFOZ 220413Z AUTO 02005KT 10SM SCT085 M05/M21 A3025 RMK AO2,KFOZ,2024-03-22T04:13:00Z,47.7832,-93.6533,-5,-21,20,5,,10+,30.25,,,TRUE,TRUE,,,,,,,SCT,8500,,,,,,,VFR,,,,,,,,,,,,METAR,412
KETH 220413Z AUTO 08005KT 2SM -SN OVC010 M05/M06 A3021 RMK AO2,KETH,2024-03-22T04:13:00Z,45.7828,-96.5461,-5,-6,80,5,,2,30.21,,,TRUE,TRUE,,,,,,-SN,OVC,1000,,,,,,,IFR,,,,,,,,,,,,METAR,309
KDVP 220413Z AUTO 07014G17KT 10SM OVC060 M02/M10 A3008 RMK AO2 T10251102,KDVP,2024-03-22T04:13:00Z,43.9906,-95.781,-2.5,-10.2,70,14,17,10+,30.08,,,TRUE,TRUE,,,,,,,OVC,6000,,,,,,,VFR,,,,,,,,,,,,METAR,493
KCDD 220413Z AUTO 00000KT 10SM CLR M09/M14 A3026 RMK AO2 TSNO,KCDD,2024-03-22T04:13:00Z,48.2601,-92.4748,-9,-14,0,0,,10+,30.26,,,TRUE,TRUE,,,TRUE,,,,CLR,,,,,,,,VFR,,,,,,,,,,,,METAR,344
KAXN 220413Z AUTO 10006KT 1 3/4SM -SN BR OVC022 M06/M07 A3017 RMK AO2 P0000 T10561067,KAXN,2024-03-22T04:13:00Z,45.868,-95.394,-5.6,-6.7,100,6,,1.75,30.17,,,TRUE,TRUE,,,,,,-SN BR,OVC,2200,,,,,,,IFR,,,,,,0.005,,,,,,SPECI,433
KAQP 220413Z AUTO 08008KT 2SM -SN OVC005 M03/M04 A3017 RMK AO2,KAQP,2024-03-22T04:13:00Z,45.2249,-96.0041,-3,-4,80,8,,2,30.17,,,TRUE,TRUE,,,,,,-SN,OVC,500,,,,,,,IFR,,,,,,,,,,,,METAR,312
RJFY 220412Z 13007G17KT 100V180 9999 FEW020 SCT045 19/03 Q1019 RMK 1CU020 3SC045 A3010,RJFY,2024-03-22T04:12:00Z,31.368,130.838,19,3,130,7,17,6+,30.09,,,,,,,,,,,FEW,2000,SCT,4500,,,,,VFR,,,,,,,,,,,,SPECI,59
KSHR 220412Z AUTO 31009KT 10SM SCT028 SCT034 BKN046 04/01 A3002 RMK AO2 RAE0359 P0000 T00390011,KSHR,2024-03-22T04:12:00Z,44.7603,-106.974,3.9,1.1,310,9,,10+,30.02,,,TRUE,TRUE,,,,,,,SCT,2800,SCT,3400,BKN,4600,,,VFR,,,,,,0.005,,,,,,SPECI,1212
KPTN 220412Z AUTO 12006KT 10SM BKN016 16/15 A2993 RMK AO2 $,KPTN,2024-03-22T04:12:00Z,29.71,-91.3381,16,15,120,6,,10+,29.93,,,TRUE,TRUE,TRUE,,,,,,BKN,1600,,,,,,,MVFR,,,,,,,,,,,,SPECI,2
KMSP 220412Z 06003KT 2SM -SN BR SCT006 OVC023 M03/M04 A3022 RMK AO2 P0001 T10281044,KMSP,2024-03-22T04:12:00Z,44.8852,-93.2313,-2.8,-4.4,60,3,,2,30.22,,,,TRUE,,,,,,-SN BR,SCT,600,OVC,2300,,,,,IFR,,,,,,0.01,,,,,,SPECI,255
KUTS 220411Z AUTO 04004KT 10SM OVC004 14/13 A2988 RMK AO2 T01390133,KUTS,2024-03-22T04:11:00Z,30.7443,-95.5866,13.9,13.3,40,4,,10+,29.88,,,TRUE,TRUE,,,,,,,OVC,400,,,,,,,LIFR,,,,,,,,,,,,SPECI,103
KSTC 220411Z 00000KT 1SM -SN BR VV011 M04/M06 A3020 RMK AO2 P0001 T10391061,KSTC,2024-03-22T04:11:00Z,45.5442,-94.0517,-3.9,-6.1,0,0,,1,30.20,,,,TRUE,,,,,,-SN BR,OVX,0,,,,,,,IFR,,,,,,0.01,,,,,1100,SPECI,302
YPJT 220410Z AUTO 09015G26KT 9999 // NCD 26/09 Q1024 RF00.0/000.0,YPJT,2024-03-22T04:10:00Z,-32.101,115.879,26,9,90,15,26,6+,30.24,,,TRUE,,,,,,,,CLR,,,,,,,,VFR,,,,,,,,,,,,SPECI,29
VCRI 220410Z 03009KT 9000 RERA BKN018 FEW020CB 26/26 Q1011 NOSIG RMK N/NE/NW,VCRI,2024-03-22T04:10:00Z,6.287,81.125,26,26,30,9,,5.59,29.85,,,,,,TRUE,,,,,BKN,1800,FEW,2000,,,,,MVFR,,,,,,,,,,,,METAR,50
VCBI 220410Z VRB03KT 9999 FEW017 32/25 Q1010 NOSIG,VCBI,2024-03-22T04:10:00Z,7.181,79.884,32,25,VRB,3,,6+,29.82,,,,,,TRUE,,,,,FEW,1700,,,,,,,VFR,,,,,,,,,,,,METAR,10
RCSS 220410Z VRB06KT 9999 FEW030 SCT100 BKN200 27/12 Q1014 NOSIG RMK 27008KT/R10 A2995,RCSS,2024-03-22T04:10:00Z,25.069,121.552,27,12,VRB,6,,6+,29.94,,,,,,TRUE,,,,,FEW,3000,SCT,10000,BKN,20000,,,VFR,,,,,,,,,,,,SPECI,8
PAKH 220410Z AUTO 12013KT 5SM -RA BR OVC006 03/03 A3002 RMK AO2 CIG 004V010 P0000,PAKH,2024-03-22T04:10:00Z,56.94,-154.181,3,3,120,13,,5,30.02,,,TRUE,TRUE,,,,,,-RA BR,OVC,600,,,,,,,IFR,,,,,,0.005,,,,,,SPECI,15
PAKF 220410Z AUTO 00000KT 9SM -RA SCT007 SCT014 OVC021 03/02 A2952 RMK AO2 P0000,PAKF,2024-03-22T04:10:00Z,54.85,-163.409,3,2,0,0,,9,29.52,,,TRUE,TRUE,,,,,,-RA,SCT,700,SCT,1400,OVC,2100,,,MVFR,,,,,,0.005,,,,,,SPECI,2
ORNI 220410Z 16011KT 7000 FEW025CB BKN040 17/10 Q1009,ORNI,2024-03-22T04:10:00Z,31.99,44.405,17,10,160,11,,4.35,29.79,,,,,,,,,,,FEW,2500,BKN,4000,,,,,MVFR,,,,,,,,,,,,SPECI,33
KXNX 220410Z AUTO 05004KT 10SM FEW039 SCT049 BKN060 12/M04 A3011 RMK A01,KXNX,2024-03-22T04:10:00Z,36.3745,-86.41,12,-4,50,4,,10+,30.11,,,TRUE,TRUE,,,,,,,FEW,3900,SCT,4900,BKN,6000,,,VFR,,,,,,,,,,,,METAR,178
KVOK 220410Z AUTO 00000KT 1 3/8SM -SN BR BKN005 OVC039 M02/M05 A3016 RMK AO2 VIS 1 1/4V3 SLP229 $,KVOK,2024-03-22T04:10:00Z,43.938,-90.253,-2,-5,0,0,,1.38,30.16,1022.9,,TRUE,TRUE,TRUE,,,,,-SN BR,BKN,500,OVC,3900,,,,,IFR,,,,,,,,,,,,SPECI,278
KVES 220410Z AUTO 09005KT 10SM CLR M01/M10 A3022 RMK AO2 PNO,KVES,2024-03-22T04:10:00Z,40.2056,-84.5346,-1,-10,90,5,,10+,30.22,,,TRUE,TRUE,,,,,,,CLR,,,,,,,,VFR,,,,,,,,,,,,METAR,308
KUWL 220410Z AUTO 07008KT 10SM OVC048 M02/M08 A3019 RMK A01,KUWL,2024-03-22T04:10:00Z,39.8752,-85.3313,-2,-8,70,8,,10+,30.19,,,TRUE,TRUE,,,,,,,OVC,4800,,,,,,,VFR,,,,,,,,,,,,METAR,332
KUNI 220410Z AUTO 10003KT 10SM CLR 00/M09 A3025 RMK AO2 T00011094,KUNI,2024-03-22T04:10:00Z,39.2129,-82.2204,0.1,-9.4,100,3,,10+,30.25,,,TRUE,TRUE,,,,,,,CLR,,,,,,,,VFR,,,,,,,,,,,,METAR,232
KSNH 220410Z AUTO 09005KT 10SM FEW075 OVC110 17/05 A2998 RMK A01,KSNH,2024-03-22T04:10:00Z,35.1731,-88.2146,17,5,90,5,,10+,29.98,,,TRUE,TRUE,,,,,,,FEW,7500,OVC,11000,,,,,VFR,,,,,,,,,,,,METAR,142
KRWV 220410Z AUTO 16007KT 7SM TSRA SCT022 BKN070 OVC090 14/12 A2990 RMK AO2 LTG DSNT ALQDS P0003 T01390121,KRWV,2024-03-22T04:10:00Z,30.5161,-96.7051,13.9,12.1,160,7,,7,29.90,,,TRUE,TRUE,,,,,,TSRA,SCT,2200,BKN,7000,OVC,9000,,,VFR,,,,,,0.03,,,,,,METAR,116
KRWF 220410Z AUTO 07010KT 1 1/4SM -SN BR BKN006 OVC018 M04/M04 A3015 RMK AO2 P0001 T10391044,KRWF,2024-03-22T04:10:00Z,44.5483,-95.0804,-3.9,-4.4,70,10,,1.25,30.15,,,TRUE,TRUE,,,,,,-SN BR,BKN,600,OVC,1800,,,,,IFR,,,,,,0.01,,,,,,SPECI,312
KRQO 220410Z AUTO 07010KT 7SM SCT005 BKN015 OVC090 13/ A2990 RMK AO2 T0131////,KRQO,2024-03-22T04:10:00Z,35.4709,-98.0061,13.1,,70,10,,7,29.90,,,TRUE,TRUE,,,,,,,SCT,500,BKN,1500,OVC,9000,,,MVFR,,,,,,,,,,,,METAR,431
KQEY 220410Z AUTO 18011G17KT 9999 BKN150 15/M04 A2964 RMK A02 TSNO,KQEY,2024-03-22T04:10:00Z,-99.99,-99.99,15,-4,180,11,17,6+,29.64,,,TRUE,TRUE,,,TRUE,,,,BKN,15000,,,,,,,VFR,,,,,,,,,,,,METAR,9999
KQES 220410Z AUTO 19023G36KT / // CLR 15/00 A2986 RMK A02 TSNO,KQES,2024-03-22T04:10:00Z,-99.99,-99.99,15,0,190,23,36,,29.86,,,TRUE,TRUE,,,TRUE,,,,CLR,,,,,,,,VFR,,,,,,,,,,,,METAR,9999
KQER 220410Z AUTO 20007G13KT 9999 CLR 13/M05 A2983 RMK A02 TSNO,KQER,2024-03-22T04:10:00Z,-99.99,-99.99,13,-5,200,7,13,6+,29.83,,,TRUE,TRUE,,,TRUE,,,,CLR,,,,,,,,VFR,,,,,,,,,,,,METAR,9999
KPWA 220410Z AUTO 07008KT 10SM OVC009 13/13 A2989 RMK AO2 CIG 006V013 T01330128,KPWA,2024-03-22T04:10:00Z,35.5411,-97.6472,13.3,12.8,70,8,,10+,29.89,,,TRUE,TRUE,,,,,,,OVC,900,,,,,,,IFR,,,,,,,,,,,,SPECI,390
KPTT 220410Z AUTO 18008KT 10SM CLR 11/11 A2991 RMK AO2 T01090106,KPTT,2024-03-22T04:10:00Z,37.7069,-98.7453,10.9,10.6,180,8,,10+,29.91,,,TRUE,TRUE,,,,,,,CLR,,,,,,,,VFR,,,,,,,,,,,,METAR,594
KOPL 220410Z AUTO 06004KT 3SM BR SCT008 OVC014 13/12 A2994 RMK AO2 T01280120,KOPL,2024-03-22T04:10:00Z,30.5643,-92.1021,12.8,12,60,4,,3,29.94,,,TRUE,TRUE,,,,,,BR,SCT,800,OVC,1400,,,,,MVFR,,,,,,,,,,,,METAR,22
KMRC 220410Z AUTO 05005KT 10SM FEW080 BKN110 15/M01 A3002 RMK A01,KMRC,2024-03-22T04:10:00Z,35.5579,-87.1778,15,-1,50,5,,10+,30.02,,,TRUE,TRUE,,,,,,,FEW,8000,BKN,11000,,,,,VFR,,,,,,,,,,,,METAR,205
KM54 220410Z AUTO 00000KT 10SM BKN050 OVC060 13/M04 A3005 RMK A01,KM54,2024-03-22T04:10:00Z,36.1932,-86.3139,13,-4,0,0,,10+,30.05,,,TRUE,TRUE,,,,,,,BKN,5000,OVC,6000,,,,,VFR,,,,,,,,,,,,METAR,168
KM04 220410Z AUTO 07004KT 10SM FEW120 14/05 A2999 RMK A01,KM04,2024-03-22T04:10:00Z,35.5819,-89.5858,14,5,70,4,,10+,29.99,,,TRUE,TRUE,,,,,,,FEW,12000,,,,,,,VFR,,,,,,,,,,,,METAR,83
KJAU 220410Z AUTO 00000KT 10SM FEW021 OVC026 07/M01 A3017 RMK A01,KJAU,2024-03-22T04:10:00Z,36.3351,-84.1635,7,-1,0,0,,10+,30.17,,,TRUE,TRUE,,,,,,,FEW,2100,OVC,2600,,,,,MVFR,,,,,,,,,,,,METAR,350
KHVE 220410Z AUTO 28006KT 10SM CLR 12/00 A3007 RMK AO2,KHVE,2024-03-22T04:10:00Z,38.418,-110.704,12,0,280,6,,10+,30.07,,,TRUE,TRUE,,,,,,,CLR,,,,,,,,VFR,,,,,,,,,,,,METAR,1351
KHUM 220410Z AUTO 09006KT 7SM SCT019 SCT044 15/15 A2993 RMK AO2 T01520146,KHUM,2024-03-22T04:10:00Z,29.5634,-90.6629,15.2,14.6,90,6,,7,29.93,,,TRUE,TRUE,,,,,,,SCT,1900,SCT,4400,,,,,VFR,,,,,,,,,,,,METAR,1
KHBV 220410Z AUTO 00000KT 7SM CLR 17/16 A2990 RMK AO2 T01700158,KHBV,2024-03-22T04:10:00Z,27.3516,-98.7415,17,15.8,0,0,,7,29.90,,,TRUE,TRUE,,,,,,,CLR,,,,,,,,VFR,,,,,,,,,,,,METAR,200
KGLX 220410Z AUTO 09030G35KT 6SM HZ SCT018 BKN065 OVC075 19/17 A2992 RMK A01,KGLX,2024-03-22T04:10:00Z,28.2347,-88.9843,19,17,90,30,35,6,29.92,,,TRUE,TRUE,,,,,,HZ,SCT,1800,BKN,6500,OVC,7500,,,VFR,,,,,,,,,,,,METAR,32
KF45 220410Z AUTO 12006KT 10SM OVC025 22/15 A3007 RMK AO2 TSNO,KF45,2024-03-22T04:10:00Z,26.8419,-80.224,22,15,120,6,,10+,30.07,,,TRUE,TRUE,,,TRUE,,,,OVC,2500,,,,,,,MVFR,,,,,,,,,,,,METAR,6
KEZP 220410Z AUTO 14033KT 10SM CLR 21/19 A2984 RMK A01,KEZP,2024-03-22T04:10:00Z,28.2198,-92.7944,21,19,140,33,,10+,29.84,,,TRUE,TRUE,,,,,,,CLR,,,,,,,,VFR,,,,,,,,,,,,METAR,30
KEKS 220410Z AUTO 00000KT 10SM BKN060 OVC070 05/M03 A3007 RMK AO2,KEKS,2024-03-22T04:10:00Z,45.276,-111.65,5,-3,0,0,,10+,30.07,,,TRUE,TRUE,,,,,,,BKN,6000,OVC,7000,,,,,VFR,,,,,,,,,,,,METAR,1636
KEKE 220410Z AUTO 11025KT 9SM SCT120 20/17 A2980 RMK A01,KEKE,2024-03-22T04:10:00Z,28.4971,-91.5702,20,17,110,25,,9,29.80,,,TRUE,TRUE,,,,,,,SCT,12000,,,,,,,VFR,,,,,,,,,,,,METAR,31
KDKR 220410Z AUTO 00000KT 10SM VCTS BKN005 OVC075 13/13 A2988 RMK AO2 LTG DSNT SW-NW,KDKR,2024-03-22T04:10:00Z,31.3097,-95.4039,13,13,0,0,,10+,29.88,,,TRUE,TRUE,,,,,,VCTS,BKN,500,OVC,7500,,,,,IFR,,,,,,,,,,,,METAR,105
KCXO 220410Z AUTO 10003KT 10SM BKN005 OVC060 16/16 A2987 RMK AO2 T01610156,KCXO,2024-03-22T04:10:00Z,30.3611,-95.4176,16.1,15.6,100,3,,10+,29.87,,,TRUE,TRUE,,,,,,,BKN,500,OVC,6000,,,,,IFR,,,,,,,,,,,,SPECI,69
KCQB 220410Z AUTO 08007KT 5SM -RA BR BKN008 BKN029 OVC110 13/13 A2991 RMK AO2 T01280126,KCQB,2024-03-22T04:10:00Z,35.7223,-96.8187,12.8,12.6,80,7,,5,29.91,,,TRUE,TRUE,,,,,,-RA BR,BKN,800,BKN,2900,OVC,11000,,,IFR,,,,,,,,,,,,METAR,298
KBMC 220410Z AUTO 30004KT 10SM CLR A3008 RMK AO1,KBMC,2024-03-22T04:10:00Z,41.5463,-112.06,,,300,4,,10+,30.08,,,TRUE,TRUE,,,,,,,CLR,,,,,,,,VFR,,,,,,,,,,,,METAR,1289
KAZE 220410Z AUTO 12005KT 10SM CLR 16/09 A3009 RMK AO2 T01620094,KAZE,2024-03-22T04:10:00Z,31.8792,-82.6454,16.2,9.4,120,5,,10+,30.09,,,TRUE,TRUE,,,,,,,CLR,,,,,,,,VFR,,,,,,,,,,,,METAR,78
KATP 220410Z AUTO 10SM FEW017 BKN027 BKN070 21/19 A2993 RMK A01,KATP,2024-03-22T04:10:00Z,27.1956,-90.0269,21,19,,,,10+,29.93,,,TRUE,TRUE,,,,,,,FEW,1700,BKN,2700,BKN,7000,,,MVFR,,,,,,,,,,,,METAR,50
KAFO 220410Z AUTO 00000KT 10SM OVC065 02/M02 A3010 RMK AO2,KAFO,2024-03-22T04:10:00Z,42.7139,-110.944,2,-2,0,0,,10+,30.10,,,TRUE,TRUE,,,,,,,OVC,6500,,,,,,,VFR,,,,,,,,,,,,METAR,1881
K1FN 220410Z AUTO 00000KT M M OVC030 M M RMK AO2 SLPNO RVRNO PWINO $,K1FN,2024-03-22T04:10:00Z,47.9,-101.67,,,0,0,,,0.00,,,TRUE,TRUE,TRUE,,,,TRUE,,OVC,3000,,,,,,,MVFR,,,,,,,,,,,,SPECI,619
K1AN 220410Z AUTO 00000KT 2 1/4SM -SN BR OVC028 M06/M07 M RMK AO2 VIS 2 1/4V3 SLPNO $,K1AN,2024-03-22T04:10:00Z,47.97,-100.58,-6,-7,0,0,,2.25,0.00,,,TRUE,TRUE,TRUE,,,,,-SN BR,OVC,2800,,,,,,,IFR,,,,,,,,,,,,SPECI,483
SBTU 220409Z AUTO 25005KT 210V280 //// // FEW002/// BKN010/// OVC014/// 23/23 Q1014,SBTU,2024-03-22T04:09:00Z,-3.786,-49.72,23,23,250,5,,,29.94,,,TRUE,,,,,,,,FEW,200,BKN,1000,OVC,1400,,,MVFR,,,,,,,,,,,,SPECI,250
PAPM 220409Z AUTO 13026G34KT 10SM SCT016 OVC033 02/01 A2950 RMK AO2 PK WND 12034/0403 FZRANO,PAPM,2024-03-22T04:09:00Z,59.011,-161.82,2,1,130,26,34,10+,29.50,,,TRUE,TRUE,,,,TRUE,,,SCT,1600,OVC,3300,,,,,VFR,,,,,,,,,,,,SPECI,4
KOKC 220409Z 08010KT 10SM -RA FEW010 BKN016 OVC055 13/12 A2988 RMK AO2 P0000 T01330122,KOKC,2024-03-22T04:09:00Z,35.3843,-97.6003,13.3,12.2,80,10,,10+,29.88,,,,TRUE,,,,,,-RA,FEW,1000,BKN,1600,OVC,5500,,,MVFR,,,,,,0.005,,,,,,SPECI,391
CYEN 220409Z AUTO 12003KT 9SM -SN BKN032 OVC071 M06/M09 A3023 RMK SLP277,CYEN,2024-03-22T04:09:00Z,49.207,-102.963,-6,-9,120,3,,9,30.23,1027.7,,TRUE,,,,,,,-SN,BKN,3200,OVC,7100,,,,,VFR,,,,,,,,,,,,SPECI,580
RJSS 220408Z 31018G28KT 9999 FEW030 SCT050 10/M06 Q1017 RMK 1CU030 4CU050 A3004,RJSS,2024-03-22T04:08:00Z,38.14,140.917,10,-6,310,18,28,6+,30.03,,,,,,,,,,,FEW,3000,SCT,5000,,,,,VFR,,,,,,,,,,,,SPECI,5
PACZ 220408Z AUTO 16029G36KT 1/2SM SN FG OVC014 00/M01 A2940 RMK AO2 SLP964,PACZ,2024-03-22T04:08:00Z,61.776,-166.043,0,-1,160,29,36,0.5,29.40,996.4,,TRUE,TRUE,,,,,,SN FG,OVC,1400,,,,,,,LIFR,,,,,,,,,,,,SPECI,129
KTIW 220408Z AUTO 00000KT 5SM -RA BR SCT023 BKN033 OVC042 11/09 A3008 RMK AO2 P0002 T01060094,KTIW,2024-03-22T04:08:00Z,47.2674,-122.576,10.6,9.4,0,0,,5,30.08,,,TRUE,TRUE,,,,,,-RA BR,SCT,2300,BKN,3300,OVC,4200,,,MVFR,,,,,,0.02,,,,,,SPECI,89
KOCH 220407Z AUTO 11008KT 10SM BKN005 BKN042 OVC055 13/ A2992 RMK AO2 $,KOCH,2024-03-22T04:07:00Z,31.5809,-94.7081,13,,110,8,,10+,29.92,,,TRUE,TRUE,TRUE,,,,,,BKN,500,BKN,4200,OVC,5500,,,IFR,,,,,,,,,,,,SPECI,105
KABR 220407Z AUTO 04010KT 1 1/2SM -SN BR OVC022 M04/M06 A3015 RMK AO2 P0001 T10441061,KABR,2024-03-22T04:07:00Z,45.4436,-98.4138,-4.4,-6.1,40,10,,1.5,30.15,,,TRUE,TRUE,,,,,,-SN BR,OVC,2200,,,,,,,IFR,,,,,,0.01,,,,,,SPECI,397
OEPS 220406Z 10007KT 9999 SCT075 SCTBKN120 17/10 A2998 RMK LTG DSNT S SHRAB0301E0310SHRAB0335E0352 SLP142 WND DATA ESTMD T01740099,OEPS,2024-03-22T04:06:00Z,24.063,47.581,17.4,9.9,100,7,,6+,29.98,1014.2,,,,,,,,,,SCT,7500,BKN,12000,,,,,VFR,,,,,,,,,,,,METAR,503
KPKD 220406Z AUTO 10003KT 2SM -SN BR OVC030 M06/M08 A3018 RMK AO2 P0000 T10561078,KPKD,2024-03-22T04:06:00Z,46.8971,-95.0695,-5.6,-7.8,100,3,,2,30.18,,,TRUE,TRUE,,,,,,-SN BR,OVC,3000,,,,,,,IFR,,,,,,0.005,,,,,,SPECI,439
K1IN 220406Z AUTO 06010KT 8SM -SN OVC046 M08/M08 A3017 RMK AO2 SNE02PLB02E06SNB06 SLP263 $,K1IN,2024-03-22T04:06:00Z,48.34,-102.3,-8,-8,60,10,,8,30.17,1026.3,,TRUE,TRUE,TRUE,,,,,-SN,OVC,4600,,,,,,,VFR,,,,,,,,,,,,SPECI,678
FACT 220406Z 31004KT 8000 SCT002 13/13 Q1011,FACT,2024-03-22T04:06:00Z,-33.965,18.602,13,13,310,4,,4.97,29.85,,,,,,,,,,,SCT,200,,,,,,,MVFR,,,,,,,,,,,,SPECI,48
PAGH 220405Z AUTO 11024G34KT 3SM -SN BR SCT027 BKN043 OVC055 M01/M02 A2984 RMK AO2 PK WND 10033/0400 P0000 FZRANO,PAGH,2024-03-22T04:05:00Z,66.886,-157.159,-1,-2,110,24,34,3,29.84,,,TRUE,TRUE,,,,TRUE,,-SN BR,SCT,2700,BKN,4300,OVC,5500,,,MVFR,,,,,,0.005,,,,,,SPECI,56
KLXV 220405Z AUTO 03005KT 10SM FEW010 BKN070 OVC100 M02/M04 A3015 RMK AO2 SNE0358 P0000 T10221039,KLXV,2024-03-22T04:05:00Z,39.228,-106.316,-2.2,-3.9,30,5,,10+,30.15,,,TRUE,TRUE,,,,,,,FEW,1000,BKN,7000,OVC,10000,,,VFR,,,,,,0.005,,,,,,SPECI,3027
KJAC 220405Z AUTO 28012KT 10SM -RA OVC035 03/M02 A3006 RMK AO2 WSHFT 0345 PNO $,KJAC,2024-03-22T04:05:00Z,43.6129,-110.737,3,-2,280,12,,10+,30.06,,,TRUE,TRUE,TRUE,,,,,-RA,OVC,3500,,,,,,,VFR,,,,,,,,,,,,SPECI,1967
KHOU 220405Z 06004KT 10SM BKN013 BKN020 OVC060 20/17 A2985 RMK AO2 T02000167 $,KHOU,2024-03-22T04:05:00Z,29.6458,-95.2821,20,16.7,60,4,,10+,29.85,,,,TRUE,TRUE,,,,,,BKN,1300,BKN,2000,OVC,6000,,,MVFR,,,,,,,,,,,,SPECI,13
KFAR 220405Z 02007KT 2 1/2SM -SN OVC030 M04/M07 A3023 RMK AO2 P0000 T10441072,KFAR,2024-03-22T04:05:00Z,46.9242,-96.8119,-4.4,-7.2,20,7,,2.5,30.23,,,,TRUE,,,,,,-SN,OVC,3000,,,,,,,IFR,,,,,,0.005,,,,,,SPECI,276
CYJT 220405Z 19019KT 8SM -SN OVC025 00/M02 A2955 RMK SC8 SLP011,CYJT,2024-03-22T04:05:00Z,48.545,-58.564,0,-2,190,19,,8,29.55,1001.1,,,,,,,,,-SN,OVC,2500,,,,,,,MVFR,,,,,,,,,,,,SPECI,7
LTBI 220404Z 26003KT 6000 -SHSN BKN020 BKN100 00/M00 Q1013 NOSIG RMK RWY08 26005KT,LTBI,2024-03-22T04:04:00Z,39.781,30.58,0,0,260,3,,3.73,29.91,,,,,,TRUE,,,,-SHSN,BKN,2000,BKN,10000,,,,,MVFR,,,,,,,,,,,,SPECI,785
CYYN 220404Z AUTO 06009KT 9SM -SN OVC047 M08/M14 A3020 RMK SLP280,CYYN,2024-03-22T04:04:00Z,50.292,-107.691,-8,-14,60,9,,9,30.20,1028,,TRUE,,,,,,,-SN,OVC,4700,,,,,,,VFR,,,,,,,,,,,,SPECI,814
RKSO 220403Z AUTO 14013KT 10SM OVC065 16/M02 A2989 RMK AO2 WSHFT 0354 SLP126 $,RKSO,2024-03-22T04:03:00Z,37.091,127.03,16,-2,140,13,,10+,29.89,1012.6,,TRUE,TRUE,TRUE,,,,,,OVC,6500,,,,,,,VFR,,,,,,,,,,,,SPECI,10
PAFM 220403Z AUTO 12009G16KT 7SM -SN OVC019 M01/M01 A2984 RMK AO2 P0000 FZRANO,PAFM,2024-03-22T04:03:00Z,67.106,-157.858,-1,-1,120,9,16,7,29.84,,,TRUE,TRUE,,,,TRUE,,-SN,OVC,1900,,,,,,,MVFR,,,,,,0.005,,,,,,SPECI,79
PAHX 220402Z AUTO 14010KT 10SM CLR 04/M02 A2970 RMK AO2 SLP057 T00441022,PAHX,2024-03-22T04:02:00Z,62.688,-159.566,4.4,-2.2,140,10,,10+,29.70,1005.7,,TRUE,TRUE,,,,,,,CLR,,,,,,,,VFR,,,,,,,,,,,,METAR,20
KOXD 220402Z AUTO 09005KT 10SM CLR 02/M13 A3020 RMK AO2,KOXD,2024-03-22T04:02:00Z,39.5047,-84.7838,2,-13,90,5,,10+,30.20,,,TRUE,TRUE,,,,,,,CLR,,,,,,,,VFR,,,,,,,,,,,,METAR,317
PAFS 220401Z AUTO 06003KT 10SM CLR 04/M05 A2985 RMK AO2 SLP116 T00441050,PAFS,2024-03-22T04:01:00Z,63.015,-154.367,4.4,-5,60,3,,10+,29.85,1011.6,,TRUE,TRUE,,,,,,,CLR,,,,,,,,VFR,,,,,,,,,,,,METAR,131
KLVJ 220401Z AUTO 15006KT 8SM OVC014 19/17 A2986 RMK AO2 T01940172,KLVJ,2024-03-22T04:01:00Z,29.5192,-95.2423,19.4,17.2,150,6,,8,29.86,,,TRUE,TRUE,,,,,,,OVC,1400,,,,,,,MVFR,,,,,,,,,,,,SPECI,11
KEAU 220401Z AUTO 36004KT 3/4SM -SN BR BKN008 OVC012 M03/M05 A3021 RMK AO2 P0000 T10281050,KEAU,2024-03-22T04:01:00Z,44.8665,-91.4881,-2.8,-5,360,4,,0.75,30.21,,,TRUE,TRUE,,,,,,-SN BR,BKN,800,OVC,1200,,,,,LIFR,,,,,,0.005,,,,,,SPECI,271
CYXC 220401Z 13007KT 25SM FEW050 BKN240 03/00 A2999 RMK SC1CI5 SLP181,CYXC,2024-03-22T04:01:00Z,49.614,-115.784,3,0,130,7,,25,29.99,1018.1,,,,,,,,,,FEW,5000,BKN,24000,,,,,VFR,,,,,,,,,,,,SPECI,928
CYHK 220401Z AUTO 34013KT 6SM HZ CLR M33/M36 A3036 RMK SLP294,CYHK,2024-03-22T04:01:00Z,68.633,-95.851,-33,-36,340,13,,6,30.36,1029.4,,TRUE,,,,,,,HZ,CLR,,,,,,,,VFR,,,,,,,,,,,,SPECI,36
ZYTX 220400Z 16003MPS 9999 OVC030 05/01 Q1005 NOSIG,ZYTX,2024-03-22T04:00:00Z,41.639,123.485,5,1,160,6,,6+,29.68,,,,,,TRUE,,,,,OVC,3000,,,,,,,MVFR,,,,,,,,,,,,METAR,56
ZYTL 220400Z 14003MPS 090V170 7000 SCT020 SCT040 11/06 Q1003 NOSIG,ZYTL,2024-03-22T04:00:00Z,38.961,121.556,11,6,140,6,,4.35,29.62,,,,,,TRUE,,,,,SCT,2000,SCT,4000,,,,,MVFR,,,,,,,,,,,,METAR,33
ZYHB 220400Z 14005MPS 110V180 CAVOK 07/M07 Q1008 NOSIG,ZYHB,2024-03-22T04:00:00Z,45.628,126.259,7,-7,140,10,,6+,29.76,,,,,,TRUE,,,,,CAVOK,,,,,,,,VFR,,,,,,,,,,,,METAR,134
ZYCC 220400Z 19008MPS 9999 SCT033 08/M06 Q1007 NOSIG,ZYCC,2024-03-22T04:00:00Z,43.993,125.682,8,-6,190,16,,6+,29.73,,,,,,TRUE,,,,,SCT,3300,,,,,,,VFR,,,,,,,,,,,,METAR,211
ZWWW 220400Z VRB01MPS 2500 BR BKN006 06/04 Q1013 BECMG TL0430 3000,ZWWW,2024-03-22T04:00:00Z,43.907,87.474,6,4,VRB,2,,1.55,29.91,,,,,,,,,,BR,BKN,600,,,,,,,IFR,,,,,,,,,,,,METAR,654
ZWSH 220400Z 25005MPS 9999 SCT040 14/M08 Q1009 NOSIG,ZWSH,2024-03-22T04:00:00Z,39.542,76.019,14,-8,250,10,,6+,29.79,,,,,,TRUE,,,,,SCT,4000,,,,,,,VFR,,,,,,,,,,,,METAR,1374
ZUUU 220400Z VRB02MPS CAVOK 23/09 Q1003 NOSIG,ZUUU,2024-03-22T04:00:00Z,30.576,103.95,23,9,VRB,4,,6+,29.62,,,,,,TRUE,,,,,CAVOK,,,,,,,,VFR,,,,,,,,,,,,METAR,494
ZUTF 220400Z 35003MPS 320V020 CAVOK 24/09 Q1003 NOSIG,ZUTF,2024-03-22T04:00:00Z,30.304,104.436,24,9,350,6,,6+,29.62,,,,,,TRUE,,,,,CAVOK,,,,,,,,VFR,,,,,,,,,,,,METAR,443
ZUGY 220400Z 21008MPS 9999 FEW026 OVC036 20/14 Q1008 NOSIG,ZUGY,2024-03-22T04:00:00Z,26.538,106.801,20,14,210,16,,6+,29.76,,,,,,TRUE,,,,,FEW,2600,OVC,3600,,,,,VFR,,,,,,,,,,,,METAR,1130
ZUCK 220400Z VRB02MPS CAVOK 23/10 Q1002 NOSIG,ZUCK,2024-03-22T04:00:00Z,29.718,106.639,23,10,VRB,4,,6+,29.59,,,,,,TRUE,,,,,CAVOK,,,,,,,,VFR,,,,,,,,,,,,METAR,416
ZSSS 220400Z 19006MPS 140V210 CAVOK 23/11 Q1010 NOSIG,ZSSS,2024-03-22T04:00:00Z,31.209,121.337,23,11,190,12,,6+,29.82,,,,,,TRUE,,,,,CAVOK,,,,,,,,VFR,,,,,,,,,,,,METAR,2
ZSQD 220400Z 14005MPS 8000 NSC 17/07 Q1005 BECMG TL0430 33005MPS,ZSQD,2024-03-22T04:00:00Z,36.362,120.087,17,7,140,10,,4.97,29.68,,,,,,,,,,,CLR,,,,,,,,MVFR,,,,,,,,,,,,METAR,2
ZSPD 220400Z 20010MPS CAVOK 21/12 Q1010 NOSIG,ZSPD,2024-03-22T04:00:00Z,31.146,121.8,21,12,200,19,,6+,29.82,,,,,,TRUE,,,,,CAVOK,,,,,,,,VFR,,,,,,,,,,,,METAR,4
ZSOF 220400Z 23003MPS 180V280 CAVOK 24/11 Q1006 NOSIG,ZSOF,2024-03-22T04:00:00Z,31.99,116.965,24,11,230,6,,6+,29.70,,,,,,TRUE,,,,,CAVOK,,,,,,,,VFR,,,,,,,,,,,,METAR,64
ZSNJ 220400Z 25008MPS CAVOK 25/11 Q1007 NOSIG,ZSNJ,2024-03-22T04:00:00Z,31.739,118.863,25,11,250,16,,6+,29.73,,,,,,TRUE,,,,,CAVOK,,,,,,,,VFR,,,,,,,,,,,,METAR,27
ZSNB 220400Z 16005MPS CAVOK 20/12 Q1010 NOSIG,ZSNB,2024-03-22T04:00:00Z,29.827,121.462,20,12,160,10,,6+,29.82,,,,,,TRUE,,,,,CAVOK,,,,,,,,VFR,,,,,,,,,,,,METAR,5
ZSHC 220400Z 19005MPS 150V240 CAVOK 26/10 Q1009 NOSIG,ZSHC,2024-03-22T04:00:00Z,30.229,120.434,26,10,190,10,,6+,29.79,,,,,,TRUE,,,,,CAVOK,,,,,,,,VFR,,,,,,,,,,,,METAR,8
ZSFZ 220400Z 18006MPS 9999 FEW040 21/12 Q1014 NOSIG,ZSFZ,2024-03-22T04:00:00Z,25.936,119.666,21,12,180,12,,6+,29.94,,,,,,TRUE,,,,,FEW,4000,,,,,,,VFR,,,,,,,,,,,,METAR,14
ZSAM 220400Z 29002MPS 240V340 9999 BKN050 20/13 Q1015 NOSIG,ZSAM,2024-03-22T04:00:00Z,24.546,118.131,20,13,290,4,,6+,29.97,,,,,,TRUE,,,,,BKN,5000,,,,,,,VFR,,,,,,,,,,,,METAR,13
ZPPP 220400Z 21007MPS 9999 FEW026TCU SCT026 BKN046 14/11 Q1019 NOSIG,ZPPP,2024-03-22T04:00:00Z,25.107,102.934,14,11,210,14,,6+,30.09,,,,,,TRUE,,,,,FEW,2600,SCT,2600,BKN,4600,,,VFR,,,,,,,,,,,,METAR,2104
ZMUB 220400Z 22004MPS CAVOK M01/M08 Q1005 NOSIG RMK QFE648.0 56,ZMUB,2024-03-22T04:00:00Z,47.843,106.766,-1,-8,220,8,,6+,29.68,,,,,,TRUE,,,,,CAVOK,,,,,,,,VFR,,,,,,,,,,,,METAR,1300
ZLXY 220400Z 07004MPS 030V100 8000 NSC 23/02 Q1005 NOSIG,ZLXY,2024-03-22T04:00:00Z,34.449,108.752,23,2,70,8,,4.97,29.68,,,,,,TRUE,,,,,CLR,,,,,,,,MVFR,,,,,,,,,,,,METAR,478
ZLLL 220400Z 13003MPS 100V160 CAVOK 14/M18 Q1009 NOSIG,ZLLL,2024-03-22T04:00:00Z,36.513,103.623,14,-18,130,6,,6+,29.79,,,,,,TRUE,,,,,CAVOK,,,,,,,,VFR,,,,,,,,,,,,METAR,1939
ZJSY 220400Z 15005MPS 090V190 9999 SCT023 29/22 Q1012 NOSIG,ZJSY,2024-03-22T04:00:00Z,18.303,109.412,29,22,150,10,,6+,29.88,,,,,,TRUE,,,,,SCT,2300,,,,,,,VFR,,,,,,,,,,,,METAR,27
ZJHK 220400Z 17004MPS 120V210 9999 BKN030 28/21 Q1011 NOSIG,ZJHK,2024-03-22T04:00:00Z,19.934,110.445,28,21,170,8,,6+,29.85,,,,,,TRUE,,,,,BKN,3000,,,,,,,MVFR,,,,,,,,,,,,METAR,21
ZHHH 220400Z 19004MPS 160V220 CAVOK 24/15 Q1006 NOSIG,ZHHH,2024-03-22T04:00:00Z,30.783,114.205,24,15,190,8,,6+,29.70,,,,,,TRUE,,,,,CAVOK,,,,,,,,VFR,,,,,,,,,,,,METAR,33
ZHCC 220400Z 01005MPS 340V050 5000 HZ NSC 17/05 Q1007 NOSIG,ZHCC,2024-03-22T04:00:00Z,34.52,113.834,17,5,10,10,,3.11,29.73,,,,,,TRUE,,,,HZ,CLR,,,,,,,,MVFR,,,,,,,,,,,,METAR,149
ZGSZ 220400Z 18007MPS 9999 FEW030 25/19 Q1013 NOSIG,ZGSZ,2024-03-22T04:00:00Z,22.639,113.803,25,19,180,14,,6+,29.91,,,,,,TRUE,,,,,FEW,3000,,,,,,,VFR,,,,,,,,,,,,METAR,18
ZGOW 220400Z VRB01MPS 9999 BKN030 22/09 Q1015 NOSIG,ZGOW,2024-03-22T04:00:00Z,23.55,116.505,22,9,VRB,2,,6+,29.97,,,,,,TRUE,,,,,BKN,3000,,,,,,,MVFR,,,,,,,,,,,,METAR,4
ZGNN 220400Z 15004MPS 100V190 9999 SCT011 OVC030 22/19 Q1010 NOSIG,ZGNN,2024-03-22T04:00:00Z,22.609,108.173,22,19,150,8,,6+,29.82,,,,,,TRUE,,,,,SCT,1100,OVC,3000,,,,,MVFR,,,,,,,,,,,,METAR,128
ZGKL 220400Z 36001MPS 1300 R01/1500N -RA BR FEW002 SCT006 OVC026 17/17 Q1011 BECMG FM0530 1500,ZGKL,2024-03-22T04:00:00Z,25.22,110.04,17,17,360,2,,0.81,29.85,,,,,,,,,,-RA BR,FEW,200,SCT,600,OVC,2600,,,LIFR,,,,,,,,,,,,METAR,151
ZGHA 220400Z 20006MPS CAVOK 26/15 Q1006 NOSIG,ZGHA,2024-03-22T04:00:00Z,28.18,113.219,26,15,200,12,,6+,29.70,,,,,,TRUE,,,,,CAVOK,,,,,,,,VFR,,,,,,,,,,,,METAR,61
ZGGG 220400Z 13002MPS 090V160 9999 OVC026 24/19 Q1013 NOSIG,ZGGG,2024-03-22T04:00:00Z,23.392,113.307,24,19,130,4,,6+,29.91,,,,,,TRUE,,,,,OVC,2600,,,,,,,MVFR,,,,,,,,,,,,METAR,11
ZBYN 220400Z 03004MPS 350V070 CAVOK 20/M14 Q1007 NOSIG,ZBYN,2024-03-22T04:00:00Z,37.747,112.628,20,-14,30,8,,6+,29.73,,,,,,TRUE,,,,,CAVOK,,,,,,,,VFR,,,,,,,,,,,,METAR,778
ZBTJ 220400Z 31005MPS CAVOK 19/M02 Q1005 NOSIG,ZBTJ,2024-03-22T04:00:00Z,39.124,117.346,19,-2,310,10,,6+,29.68,,,,,,TRUE,,,,,CAVOK,,,,,,,,VFR,,,,,,,,,,,,METAR,4
ZBSJ 220400Z 18002MPS 120V220 5000 HZ NSC 19/01 Q1006 NOSIG,ZBSJ,2024-03-22T04:00:00Z,38.281,114.697,19,1,180,4,,3.11,29.70,,,,,,TRUE,,,,HZ,CLR,,,,,,,,MVFR,,,,,,,,,,,,METAR,70
ZBHH 220400Z VRB03MPS CAVOK 13/M12 Q1008 NOSIG,ZBHH,2024-03-22T04:00:00Z,40.854,111.827,13,-12,VRB,6,,6+,29.76,,,,,,TRUE,,,,,CAVOK,,,,,,,,VFR,,,,,,,,,,,,METAR,1081
ZBAD 220400Z 29003MPS 240V330 CAVOK 20/M02 Q1005 NOSIG,ZBAD,2024-03-22T04:00:00Z,39.501,116.412,20,-2,290,6,,6+,29.68,,,,,,TRUE,,,,,CAVOK,,,,,,,,VFR,,,,,,,,,,,,METAR,25
ZBAA 220400Z 28005MPS 240V310 CAVOK 20/M06 Q1005 NOSIG,ZBAA,2024-03-22T04:00:00Z,40.082,116.603,20,-6,280,10,,6+,29.68,,,,,,TRUE,,,,,CAVOK,,,,,,,,VFR,,,,,,,,,,,,METAR,31
YWLM 220400Z AUTO 13010KT 9999 // SCT024 SCT030 SCT035 22/16 Q1023,YWLM,2024-03-22T04:00:00Z,-32.794,151.836,22,16,130,10,,6+,30.21,,,TRUE,,,,,,,,SCT,2400,SCT,3000,SCT,3500,,,VFR,,,,,,,,,,,,METAR,7
YSTW 220400Z AUTO 16007KT 9999 // SCT060 27/12 Q1021 RF00.0/000.0,YSTW,2024-03-22T04:00:00Z,-31.084,150.847,27,12,160,7,,6+,30.15,,,TRUE,,,,,,,,SCT,6000,,,,,,,VFR,,,,,,,,,,,,METAR,404
YSSY 220400Z 13007KT 9999 BKN025 BKN050 23/16 Q1023 RF00.0/000.0,YSSY,2024-03-22T04:00:00Z,-33.946,151.173,23,16,130,7,,6+,30.21,,,,,,,,,,,BKN,2500,BKN,5000,,,,,MVFR,,,,,,,,,,,,METAR,3
YSRI 220400Z AUTO 04004KT 360V070 9999 // BKN034 OVC060 23/16 Q1023,YSRI,2024-03-22T04:00:00Z,-33.601,150.777,23,16,40,4,,6+,30.21,,,TRUE,,,,,,,,BKN,3400,OVC,6000,,,,,VFR,,,,,,,,,,,,METAR,19
YSNF 220400Z 07008KT 010V100 9999 SCT033 23/16 Q1018 RF00.0/000.2,YSNF,2024-03-22T04:00:00Z,-29.039,167.941,23,16,70,8,,6+,30.06,,,,,,,,,,,SCT,3300,,,,,,,VFR,,,,,,,,,,,,METAR,113
YSDU 220400Z AUTO 02005KT 350V070 9999 // NCD 26/13 Q1021 RF00.0/000.0,YSDU,2024-03-22T04:00:00Z,-32.221,148.575,26,13,20,5,,6+,30.15,,,TRUE,,,,,,,,CLR,,,,,,,,VFR,,,,,,,,,,,,METAR,285
YSCB 220400Z AUTO 31006KT 280V350 9999 // NCD 23/08 Q1023 RF00.0/000.0,YSCB,2024-03-22T04:00:00Z,-35.309,149.2,23,8,310,6,,6+,30.21,,,TRUE,,,,,,,,CLR,,,,,,,,VFR,,,,,,,,,,,,METAR,577
YPXM 220400Z AUTO 01006KT 9999 // BKN011 BKN025 28/24 Q1011,YPXM,2024-03-22T04:00:00Z,-10.453,105.688,28,24,10,6,,6+,29.85,,,TRUE,,,,,,,,BKN,1100,BKN,2500,,,,,MVFR,,,,,,,,,,,,SPECI,262
YPWR 220400Z AUTO 15014KT 9999 // NCD 27/M03 Q1020 RF00.0/000.0,YPWR,2024-03-22T04:00:00Z,-31.156,136.805,27,-3,150,14,,6+,30.12,,,TRUE,,,,,,,,CLR,,,,,,,,VFR,,,,,,,,,,,,METAR,169
YPTN 220400Z 06009KT 9999 VCSH SCT028 31/24 Q1006 RF00.0/000.6,YPTN,2024-03-22T04:00:00Z,-14.523,132.383,31,24,60,9,,6+,29.70,,,,,,,,,,VCSH,SCT,2800,,,,,,,VFR,,,,,,,,,,,,METAR,135
YPPH 220400Z 10017G27KT CAVOK 27/09 Q1024,YPPH,2024-03-22T04:00:00Z,-31.927,115.976,27,9,100,17,27,6+,30.24,,,,,,,,,,,CAVOK,,,,,,,,VFR,,,,,,,,,,,,SPECI,16
YPPD 220400Z AUTO 01014KT 9999 // NCD 37/21 Q1009 RF00.0/000.0,YPPD,2024-03-22T04:00:00Z,-20.372,118.632,37,21,10,14,,6+,29.79,,,TRUE,,,,,,,,CLR,,,,,,,,VFR,,,,,,,,,,,,METAR,6
YPLM 220400Z AUTO 11009KT 9999 // NCD 37/17 Q1010 RF00.0/000.0,YPLM,2024-03-22T04:00:00Z,-22.241,114.097,37,17,110,9,,6+,29.82,,,TRUE,,,,,,,,CLR,,,,,,,,VFR,,,,,,,,,,,,METAR,5
YPKU 220400Z AUTO 03005KT 350V080 9999 // SCT049 33/24 Q1004,YPKU,2024-03-22T04:00:00Z,-15.781,128.71,33,24,30,5,,6+,29.65,,,TRUE,,,,,,,,SCT,4900,,,,,,,VFR,,,,,,,,,,,,METAR,42
YPKG 220400Z AUTO 12013KT 9999 // SCT046 22/09 Q1025 RF00.0/000.0,YPKG,2024-03-22T04:00:00Z,-30.785,121.453,22,9,120,13,,6+,30.27,,,TRUE,,,,,,,,SCT,4600,,,,,,,VFR,,,,,,,,,,,,METAR,372
YPGV 220400Z AUTO 24005KT 9999 // SCT039 SCT055 SCT089 29/26 Q1008 RESHRA,YPGV,2024-03-22T04:00:00Z,-12.274,136.82,29,26,240,5,,6+,29.76,,,TRUE,,,,,,,,SCT,3900,SCT,5500,SCT,8900,,,VFR,,,,,,,,,,,,METAR,53
YPEA 220400Z 09015KT CAVOK 27/08 Q1023,YPEA,2024-03-22T04:00:00Z,-31.667,116.019,27,8,90,15,,6+,30.21,,,,,,,,,,,CAVOK,,,,,,,,VFR,,,,,,,,,,,,METAR,38
YPDN 220400Z 33011KT 9999 FEW015 SCT110 BKN340 30/26 Q1007 RF00.0/010.6,YPDN,2024-03-22T04:00:00Z,-12.424,130.893,30,26,330,11,,6+,29.73,,,,,,,,,,,FEW,1500,SCT,11000,BKN,34000,,,VFR,,,,,,,,,,,,METAR,32
YPCC 220400Z AUTO 25005KT 210V280 9999 // NCD 30/23 Q1009 RF00.0/000.0,YPCC,2024-03-22T04:00:00Z,-12.189,96.834,30,23,250,5,,6+,29.79,,,TRUE,,,,,,,,CLR,,,,,,,,VFR,,,,,,,,,,,,METAR,3
YPAD 220400Z 15012KT 9999 FEW034 24/08 Q1022,YPAD,2024-03-22T04:00:00Z,-34.952,138.52,24,8,150,12,,6+,30.18,,,,,,,,,,,FEW,3400,,,,,,,VFR,,,,,,,,,,,,METAR,2
YMML 220400Z 18016KT CAVOK 21/08 Q1022,YMML,2024-03-22T04:00:00Z,-37.666,144.832,21,8,180,16,,6+,30.18,,,,,,,,,,,CAVOK,,,,,,,,VFR,,,,,,,,,,,,METAR,115
YMLT 220400Z AUTO 35011KT 9999 // BKN046 20/09 Q1020 RF00.0////./,YMLT,2024-03-22T04:00:00Z,-41.544,147.213,20,9,350,11,,6+,30.12,,,TRUE,,,,,,,,BKN,4600,,,,,,,VFR,,,,,,,,,,,,METAR,167
YMAV 220400Z AUTO 19013KT 9999 // NCD 21/09 Q1023 RF00.0/000.0,YMAV,2024-03-22T04:00:00Z,-38.029,144.478,21,9,190,13,,6+,30.21,,,TRUE,,,,,,,,CLR,,,,,,,,VFR,,,,,,,,,,,,METAR,11
YLHI 220400Z 09014KT 9999 FEW048 24/13 Q1021,YLHI,2024-03-22T04:00:00Z,-31.538,159.077,24,13,90,14,,6+,30.15,,,,,,,,,,,FEW,4800,,,,,,,VFR,,,,,,,,,,,,METAR,2
YHID 220400Z AUTO 13003KT 9999 // BKN018 BKN044 BKN067 29/25 Q1009,YHID,2024-03-22T04:00:00Z,-10.584,142.29,29,25,130,3,,6+,29.79,,,TRUE,,,,,,,,BKN,1800,BKN,4400,BKN,6700,,,MVFR,,,,,,,,,,,,METAR,5
YGLA 220400Z AUTO 13010KT 9999 -RA BKN027 BKN035 OVC044 26/22 Q1016,YGLA,2024-03-22T04:00:00Z,-23.87,151.221,26,22,130,10,,6+,30.00,,,TRUE,,,,,,,-RA,BKN,2700,BKN,3500,OVC,4400,,,MVFR,,,,,,,,,,,,METAR,17
YGEL 220400Z AUTO 11019KT 9999 // NCD 32/09 Q1017 RF00.0/000.0,YGEL,2024-03-22T04:00:00Z,-28.805,114.699,32,9,110,19,,6+,30.03,,,TRUE,,,,,,,,CLR,,,,,,,,VFR,,,,,,,,,,,,METAR,32
YFRT 220400Z AUTO 15014KT 9999 // NCD 23/10 Q1024 RF00.0/000.0,YFRT,2024-03-22T04:00:00Z,-30.848,128.114,23,10,150,14,,6+,30.24,,,TRUE,,,,,,,,CLR,,,,,,,,VFR,,,,,,,,,,,,METAR,159
YCIN 220400Z AUTO 14013KT 9999 // BKN041 OVC049 33/23 Q1006,YCIN,2024-03-22T04:00:00Z,-17.574,123.831,33,23,140,13,,6+,29.70,,,TRUE,,,,,,,,BKN,4100,OVC,4900,,,,,VFR,,,,,,,,,,,,METAR,83
YCFS 220400Z AUTO 18007KT 9999 // SCT052 OVC065 24/15 Q1022,YCFS,2024-03-22T04:00:00Z,-30.317,153.119,24,15,180,7,,6+,30.18,,,TRUE,,,,,,,,SCT,5200,OVC,6500,,,,,VFR,,,,,,,,,,,,METAR,2
YBWW 220400Z AUTO 08015KT 9999 // BKN040 26/15 Q1020 RF00.0/000.0,YBWW,2024-03-22T04:00:00Z,-27.558,151.793,26,15,80,15,,6+,30.12,,,TRUE,,,,,,,,BKN,4000,,,,,,,VFR,,,,,,,,,,,,METAR,460
YBRM 220400Z AUTO 16007KT 9999 // NCD 34/22 Q1006 RF00.0/000.0,YBRM,2024-03-22T04:00:00Z,-17.948,122.235,34,22,160,7,,6+,29.70,,,TRUE,,,,,,,,CLR,,,,,,,,VFR,,,,,,,,,,,,METAR,11
YBRK 220400Z AUTO 10010KT 9999 // SCT036 BKN048 BKN057 30/19 Q1015,YBRK,2024-03-22T04:00:00Z,-23.375,150.477,30,19,100,10,,6+,29.97,,,TRUE,,,,,,,,SCT,3600,BKN,4800,BKN,5700,,,VFR,,,,,,,,,,,,METAR,10
YBMA 220400Z AUTO 05011KT 9999 // BKN037 BKN041 OVC051 31/22 Q1011,YBMA,2024-03-22T04:00:00Z,-20.678,139.488,31,22,50,11,,6+,29.85,,,TRUE,,,,,,,,BKN,3700,BKN,4100,OVC,5100,,,VFR,,,,,,,,,,,,METAR,346
YBLN 220400Z AUTO 11017KT 9999 // NCD 26/09 Q1026 RF00.0////./,YBLN,2024-03-22T04:00:00Z,-33.688,115.402,26,9,110,17,,6+,30.30,,,TRUE,,,,,,,,CLR,,,,,,,,VFR,,,,,,,,,,,,METAR,17
YBHM 220400Z AUTO 12023KT 9999 // SCT030 28/23 Q1013 RF00.0/000.0,YBHM,2024-03-22T04:00:00Z,-20.357,148.949,28,23,120,23,,6+,29.91,,,TRUE,,,,,,,,SCT,3000,,,,,,,VFR,,,,,,,,,,,,METAR,4
YBCS 220400Z AUTO 18007KT 9999 // SCT023 SCT048 BKN073 29/26 Q1010,YBCS,2024-03-22T04:00:00Z,-16.874,145.745,29,26,180,7,,6+,29.82,,,TRUE,,,,,,,,SCT,2300,SCT,4800,BKN,7300,,,VFR,,,,,,,,,,,,METAR,2
YBCG 220400Z AUTO 15015G25KT 9999 // SCT046 BKN059 25/16 Q1020,YBCG,2024-03-22T04:00:00Z,-28.168,153.505,25,16,150,15,25,6+,30.12,,,TRUE,,,,,,,,SCT,4600,BKN,5900,,,,,VFR,,,,,,,,,,,,METAR,5
YBBN 220400Z 13012G22KT 9999 SCT039 BKN047 26/17 Q1020 RF00/0/000/0,YBBN,2024-03-22T04:00:00Z,-27.391,153.13,26,17,130,12,22,6+,30.12,,,,,,,,,,,SCT,3900,BKN,4700,,,,,VFR,,,,,,,,,,,,METAR,3
YBAS 220400Z AUTO 13009KT 9999 -RA OVC012 17/16 Q1018 RF00/0/000/6,YBAS,2024-03-22T04:00:00Z,-23.795,133.889,17,16,130,9,,6+,30.06,,,TRUE,,,,,,,-RA,OVC,1200,,,,,,,MVFR,,,,,,,,,,,,SPECI,549
YAMB 220400Z 09011KT 9999 VCSH SCT039 BKN051 BKN140 27/19 Q1019,YAMB,2024-03-22T04:00:00Z,-27.63,152.711,27,19,90,11,,6+,30.09,,,,,,,,,,VCSH,SCT,3900,BKN,5100,BKN,14000,,,VFR,,,,,,,,,,,,METAR,26
WSSS 220400Z 36010KT 9999 SCT020 BKN300 32/23 Q1010 NOSIG,WSSS,2024-03-22T04:00:00Z,1.368,103.982,32,23,360,10,,6+,29.82,,,,,,TRUE,,,,,SCT,2000,BKN,30000,,,,,VFR,,,,,,,,,,,,METAR,17
WSSL 220400Z 03007KT 360V060 9999 SCT020 BKN300 31/22 Q1009,WSSL,2024-03-22T04:00:00Z,1.417,103.866,31,22,30,7,,6+,29.79,,,,,,,,,,,SCT,2000,BKN,30000,,,,,VFR,,,,,,,,,,,,METAR,11
WSAP 220400Z 03009KT 9999 FEW018 SCT160 BKN300 33/22 Q1010,WSAP,2024-03-22T04:00:00Z,1.36,103.909,33,22,30,9,,6+,29.82,,,,,,,,,,,FEW,1800,SCT,16000,BKN,30000,,,VFR,,,,,,,,,,,,METAR,20
WMSA 220400Z VRB02KT 9999 FEW018 33/24 Q1009,WMSA,2024-03-22T04:00:00Z,3.13,101.552,33,24,VRB,2,,6+,29.79,,,,,,,,,,,FEW,1800,,,,,,,VFR,,,,,,,,,,,,METAR,19
WMKP 220400Z 13005KT 070V200 7000 FEW020 33/25 Q1009 NOSIG,WMKP,2024-03-22T04:00:00Z,5.297,100.277,33,25,130,5,,4.35,29.79,,,,,,TRUE,,,,,FEW,2000,,,,,,,MVFR,,,,,,,,,,,,METAR,4
WMKN 220400Z VRB03KT 9999 FEW020 31/25 Q1010,WMKN,2024-03-22T04:00:00Z,5.383,103.103,31,25,VRB,3,,6+,29.82,,,,,,,,,,,FEW,2000,,,,,,,VFR,,,,,,,,,,,,METAR,12
WMKM 220400Z 05011KT 360V100 9999 FEW020 32/22 Q1010,WMKM,2024-03-22T04:00:00Z,2.263,102.252,32,22,50,11,,6+,29.82,,,,,,,,,,,FEW,2000,,,,,,,VFR,,,,,,,,,,,,METAR,9
WMKL 220400Z 09007KT 020V150 9999 FEW020 36/17 Q1009,WMKL,2024-03-22T04:00:00Z,6.33,99.729,36,17,90,7,,6+,29.79,,,,,,,,,,,FEW,2000,,,,,,,VFR,,,,,,,,,,,,METAR,4
WMKK 220400Z VRB04KT 9000 FEW018 34/23 Q1009 NOSIG,WMKK,2024-03-22T04:00:00Z,2.747,101.714,34,23,VRB,4,,5.59,29.79,,,,,,TRUE,,,,,FEW,1800,,,,,,,VFR,,,,,,,,,,,,METAR,21
WMKJ 220400Z VRB05KT 9999 SCT018 32/24 Q1009,WMKJ,2024-03-22T04:00:00Z,1.641,103.67,32,24,VRB,5,,6+,29.79,,,,,,,,,,,SCT,1800,,,,,,,VFR,,,,,,,,,,,,METAR,38
WMKI 220400Z VRB03KT 9000 FEW020 32/24 Q1009,WMKI,2024-03-22T04:00:00Z,4.568,101.092,32,24,VRB,3,,5.59,29.79,,,,,,,,,,,FEW,2000,,,,,,,VFR,,,,,,,,,,,,METAR,37
WMKE 220400Z 05004KT 330V110 9999 SCT017 30/23 Q1010,WMKE,2024-03-22T04:00:00Z,4.537,103.427,30,23,50,4,,6+,29.82,,,,,,,,,,,SCT,1700,,,,,,,VFR,,,,,,,,,,,,METAR,5
WMKD 220400Z 03006KT 320V110 9999 FEW020 31/23 Q1010 NOSIG,WMKD,2024-03-22T04:00:00Z,3.775,103.209,31,23,30,6,,6+,29.82,,,,,,TRUE,,,,,FEW,2000,,,,,,,VFR,,,,,,,,,,,,METAR,18
WMKC 220400Z 09009KT 020V140 9999 FEW018 31/23 Q1010,WMKC,2024-03-22T04:00:00Z,6.167,102.293,31,23,90,9,,6+,29.82,,,,,,,,,,,FEW,1800,,,,,,,VFR,,,,,,,,,,,,METAR,7
WMKB 220400Z 27004KT 200V350 8000 FEW020 32/22 Q1008 NOSIG,WMKB,2024-03-22T04:00:00Z,5.466,100.391,32,22,270,4,,4.97,29.76,,,,,,TRUE,,,,,FEW,2000,,,,,,,MVFR,,,,,,,,,,,,METAR,4
WMKA 220400Z 09006KT 020V170 9999 FEW020 34/16 Q1008,WMKA,2024-03-22T04:00:00Z,6.19,100.398,34,16,90,6,,6+,29.76,,,,,,,,,,,FEW,2000,,,,,,,VFR,,,,,,,,,,,,METAR,5
WMBA 220400Z VRB04KT 9999 FEW021 33/24 Q1009,WMBA,2024-03-22T04:00:00Z,4.221,100.701,33,24,VRB,4,,6+,29.79,,,,,,,,,,,FEW,2100,,,,,,,VFR,,,,,,,,,,,,METAR,9
WMAU 220400Z VRB08KT 9999 SCT020 31/25 Q1010,WMAU,2024-03-22T04:00:00Z,2.387,103.876,31,25,VRB,8,,6+,29.82,,,,,,,,,,,SCT,2000,,,,,,,VFR,,,,,,,,,,,,METAR,5
WIPP 220400Z 03007KT 9999 FEW010CB SCT010 32/25 Q1009 NOSIG,WIPP,2024-03-22T04:00:00Z,-2.898,104.7,32,25,30,7,,6+,29.79,,,,,,TRUE,,,,,FEW,1000,SCT,1000,,,,,VFR,,,,,,,,,,,,METAR,7
WIOO 220400Z 02005KT 9999 SCT012 32/25 Q1009 NOSIG,WIOO,2024-03-22T04:00:00Z,-0.151,109.404,32,25,20,5,,6+,29.79,,,,,,TRUE,,,,,SCT,1200,,,,,,,VFR,,,,,,,,,,,,METAR,4
WIMM 220400Z 36006KT 7000 -RA SCT018 31/25 Q1009 NOSIG,WIMM,2024-03-22T04:00:00Z,3.636,98.874,31,25,360,6,,4.35,29.79,,,,,,TRUE,,,,-RA,SCT,1800,,,,,,,MVFR,,,,,,,,,,,,METAR,7
WILL 220400Z 31004KT 9000 SCT015 30/25 Q1009 NOSIG,WILL,2024-03-22T04:00:00Z,-5.242,105.179,30,25,310,4,,5.59,29.79,,,,,,TRUE,,,,,SCT,1500,,,,,,,VFR,,,,,,,,,,,,METAR,83
WIHH 220400Z 33003KT 5000 HZ SCT015 27/25 Q1010 RMK RA TO N METAR ,WIHH,2024-03-22T04:00:00Z,-6.267,106.891,27,25,330,3,,3.11,29.82,,,,,,,,,,HZ,SCT,1500,,,,,,,MVFR,,,,,,,,,,,,METAR,26
WIEE 220400Z 21004KT 9999 FEW020 32/24 Q1009 NOSIG,WIEE,2024-03-22T04:00:00Z,-0.783,100.283,32,24,210,4,,6+,29.79,,,,,,TRUE,,,,,FEW,2000,,,,,,,VFR,,,,,,,,,,,,METAR,5
WIDN 220400Z 01014KT 9999 BKN017 32/24 Q1010 NOSIG,WIDN,2024-03-22T04:00:00Z,0.923,104.532,32,24,10,14,,6+,29.82,,,,,,TRUE,,,,,BKN,1700,,,,,,,MVFR,,,,,,,,,,,,METAR,18
WIBB 220400Z 07007KT 9000 SCT013 30/25 Q1008 NOSIG,WIBB,2024-03-22T04:00:00Z,0.461,101.445,30,25,70,7,,5.59,29.76,,,,,,TRUE,,,,,SCT,1300,,,,,,,VFR,,,,,,,,,,,,METAR,41
WBSB 220400Z 33008KT 9000 FEW016 BKN300 32/27 Q1009 NOSIG,WBSB,2024-03-22T04:00:00Z,4.944,114.928,32,27,330,8,,5.59,29.79,,,,,,TRUE,,,,,FEW,1600,BKN,30000,,,,,VFR,,,,,,,,,,,,METAR,15
WBKW 220400Z 14009KT 100V190 9999 FEW017 33/24 Q1010,WBKW,2024-03-22T04:00:00Z,4.316,118.119,33,24,140,9,,6+,29.82,,,,,,,,,,,FEW,1700,,,,,,,VFR,,,,,,,,,,,,METAR,17
WBKT 220400Z 07007KT 010V140 9999 FEW015 32/25 Q1010,WBKT,2024-03-22T04:00:00Z,6.922,116.837,32,25,70,7,,6+,29.82,,,,,,,,,,,FEW,1500,,,,,,,VFR,,,,,,,,,,,,METAR,11
WBKS 220400Z 04009KT 350V100 9999 FEW016 31/25 Q1011,WBKS,2024-03-22T04:00:00Z,5.901,118.059,31,25,40,9,,6+,29.85,,,,,,,,,,,FEW,1600,,,,,,,VFR,,,,,,,,,,,,METAR,13
WBKL 220400Z VRB04KT 9999 FEW015 34/22 Q1009,WBKL,2024-03-22T04:00:00Z,5.301,115.25,34,22,VRB,4,,6+,29.79,,,,,,,,,,,FEW,1500,,,,,,,VFR,,,,,,,,,,,,METAR,29
WBKK 220400Z VRB05KT 9999 FEW015 33/27 Q1009 NOSIG,WBKK,2024-03-22T04:00:00Z,5.937,116.051,33,27,VRB,5,,6+,29.79,,,,,,TRUE,,,,,FEW,1500,,,,,,,VFR,,,,,,,,,,,,METAR,9
WBGY 220400Z 00000KT 9999 SCT018 32/25 Q1010,WBGY,2024-03-22T04:00:00Z,1.222,111.466,32,25,0,0,,6+,29.82,,,,,,,,,,,SCT,1800,,,,,,,VFR,,,,,,,,,,,,METAR,13
WBGS 220400Z VRB03KT 9999 SCT016 30/25 Q1010,WBGS,2024-03-22T04:00:00Z,2.264,111.983,30,25,VRB,3,,6+,29.82,,,,,,,,,,,SCT,1600,,,,,,,VFR,,,,,,,,,,,,METAR,26
WBGR 220400Z 26006KT 9999 SCT016 31/25 Q1009,WBGR,2024-03-22T04:00:00Z,4.322,113.987,31,25,260,6,,6+,29.79,,,,,,,,,,,SCT,1600,,,,,,,VFR,,,,,,,,,,,,METAR,18
WBGG 220400Z VRB06KT 9999 SCT018 31/26 Q1010 NOSIG,WBGG,2024-03-22T04:00:00Z,1.484,110.34,31,26,VRB,6,,6+,29.82,,,,,,TRUE,,,,,SCT,1800,,,,,,,VFR,,,,,,,,,,,,METAR,26
WBGB 220400Z VRB03KT 9999 SCT016 32/26 Q1009,WBGB,2024-03-22T04:00:00Z,3.12,113.025,32,26,VRB,3,,6+,29.79,,,,,,,,,,,SCT,1600,,,,,,,VFR,,,,,,,,,,,,METAR,34
WAYY 220400Z 22004KT 9999 SCT015 33/25 Q1010 NOSIG ,WAYY,2024-03-22T04:00:00Z,-4.528,136.887,33,25,220,4,,6+,29.82,,,,,,TRUE,,,,,SCT,1500,,,,,,,VFR,,,,,,,,,,,,METAR,32
WATT 220400Z 21004KT 2000 +RA BKN009 28/28 Q1009 TEMPO TL0500 RA,WATT,2024-03-22T04:00:00Z,-10.172,123.671,28,28,210,4,,1.24,29.79,,,,,,,,,,+RA,BKN,900,,,,,,,IFR,,,,,,,,,,,,METAR,104
WARR 220400Z 06005KT 8000 FEW020 31/27 Q1010 NOSIG,WARR,2024-03-22T04:00:00Z,-7.38,112.787,31,27,60,5,,4.97,29.82,,,,,,TRUE,,,,,FEW,2000,,,,,,,MVFR,,,,,,,,,,,,METAR,3
WAQQ 220400Z 30006KT 1500 +RA BKN013 26/25 Q1011 TEMPO TL0410 NOSIG,WAQQ,2024-03-22T04:00:00Z,3.327,117.568,26,25,300,6,,0.93,29.85,,,,,,,,,,+RA,BKN,1300,,,,,,,LIFR,,,,,,,,,,,,METAR,6
WAPP 220400Z 34008KT 300V020 9999 FEW018 33/24 Q1008 NOSIG,WAPP,2024-03-22T04:00:00Z,-3.71,128.089,33,24,340,8,,6+,29.76,,,,,,TRUE,,,,,FEW,1800,,,,,,,VFR,,,,,,,,,,,,METAR,20
WAOO 220400Z 19006KT 9999 SCT020 32/24 Q1009 NOSIG,WAOO,2024-03-22T04:00:00Z,-3.44,114.759,32,24,190,6,,6+,29.79,,,,,,TRUE,,,,,SCT,2000,,,,,,,VFR,,,,,,,,,,,,METAR,23
WAMM 220400Z 35007KT 310V030 9999 FEW020 31/25 Q1011 NOSIG,WAMM,2024-03-22T04:00:00Z,1.541,124.926,31,25,350,7,,6+,29.85,,,,,,TRUE,,,,,FEW,2000,,,,,,,VFR,,,,,,,,,,,,METAR,86
WALL 220400Z 08002KT 9999 SCT018 27/25 Q1011 NOSIG,WALL,2024-03-22T04:00:00Z,-1.268,116.894,27,25,80,2,,6+,29.85,,,,,,TRUE,,,,,SCT,1800,,,,,,,VFR,,,,,,,,,,,,METAR,3
WAKK 220400Z 25008KT 9000 FEW013TCU BKN015 30/26 Q1009 NOSIG,WAKK,2024-03-22T04:00:00Z,-8.52,140.417,30,26,250,8,,5.59,29.79,,,,,,TRUE,,,,,FEW,1300,BKN,1500,,,,,MVFR,,,,,,,,,,,,METAR,5
WAHS 220400Z 33007KT 7000 FEW014 32/25 Q1009 NOSIG,WAHS,2024-03-22T04:00:00Z,-6.973,110.375,32,25,330,7,,4.35,29.79,,,,,,TRUE,,,,,FEW,1400,,,,,,,MVFR,,,,,,,,,,,,METAR,3
WADD 220400Z 26007KT 210V290 9999 SCT017 31/26 Q1009 NOSIG,WADD,2024-03-22T04:00:00Z,-8.748,115.167,31,26,260,7,,6+,29.79,,,,,,TRUE,,,,,SCT,1700,,,,,,,VFR,,,,,,,,,,,,METAR,3
WABB 220400Z 24005KT 060V240 9999 SCT015 SCT100 29/26 Q1010 NOSIG,WABB,2024-03-22T04:00:00Z,-1.19,136.108,29,26,240,5,,6+,29.82,,,,,,TRUE,,,,,SCT,1500,SCT,10000,,,,,VFR,,,,,,,,,,,,METAR,12
WAAA 220400Z 07002KT 9999 FEW018 29/25 Q1011 NOSIG,WAAA,2024-03-22T04:00:00Z,-5.062,119.554,29,25,70,2,,6+,29.85,,,,,,TRUE,,,,,FEW,1800,,,,,,,VFR,,,,,,,,,,,,METAR,13
VYYY 220400Z 06005KT 7000 FEW020 30/24 Q1011 NOSIG,VYYY,2024-03-22T04:00:00Z,16.906,96.137,30,24,60,5,,4.35,29.85,,,,,,TRUE,,,,,FEW,2000,,,,,,,MVFR,,,,,,,,,,,,METAR,31
VYNT 220400Z 34004KT 7000 FEW025 FEW130 27/19 Q1013 NOSIG,VYNT,2024-03-22T04:00:00Z,19.623,96.201,27,19,340,4,,4.35,29.91,,,,,,TRUE,,,,,FEW,2500,FEW,13000,,,,,MVFR,,,,,,,,,,,,METAR,610
VVVD 220400Z VRB02KT 4200 BR SCT006 BKN011 21/21 Q1012 NOSIG,VVVD,2024-03-22T04:00:00Z,21.118,107.414,21,21,VRB,2,,2.61,29.88,,,,,,TRUE,,,,BR,SCT,600,BKN,1100,,,,,IFR,,,,,,,,,,,,METAR,8
VVTS 220400Z 14010KT 100V190 9999 FEW023 34/18 Q1010 NOSIG,VVTS,2024-03-22T04:00:00Z,10.817,106.667,34,18,140,10,,6+,29.82,,,,,,TRUE,,,,,FEW,2300,,,,,,,VFR,,,,,,,,,,,,METAR,10
VVPQ 220400Z 10010KT 070V140 9999 SCT015 30/24 Q1010 NOSIG,VVPQ,2024-03-22T04:00:00Z,10.169,103.995,30,24,100,10,,6+,29.82,,,,,,TRUE,,,,,SCT,1500,,,,,,,VFR,,,,,,,,,,,,METAR,8
VVPB 220400Z 02003KT 9999 FEW016 28/22 Q1010 NOSIG,VVPB,2024-03-22T04:00:00Z,16.399,107.699,28,22,20,3,,6+,29.82,,,,,,TRUE,,,,,FEW,1600,,,,,,,VFR,,,,,,,,,,,,METAR,15
VVNB 220400Z 13004KT 080V180 2400 -DZ BR SCT005 OVC008 21/20 Q1011 NOSIG,VVNB,2024-03-22T04:00:00Z,21.218,105.805,21,20,130,4,,1.49,29.85,,,,,,TRUE,,,,-DZ BR,SCT,500,OVC,800,,,,,IFR,,,,,,,,,,,,METAR,6
VVDN 220400Z 11006KT 070V150 9999 FEW017 29/21 Q1011 NOSIG,VVDN,2024-03-22T04:00:00Z,16.044,108.199,29,21,110,6,,6+,29.85,,,,,,TRUE,,,,,FEW,1700,,,,,,,VFR,,,,,,,,,,,,METAR,7
VVCT 220400Z 09014KT 9999 FEW015 33/24 Q1010 NOSIG,VVCT,2024-03-22T04:00:00Z,10.085,105.712,33,24,90,14,,6+,29.82,,,,,,TRUE,,,,,FEW,1500,,,,,,,VFR,,,,,,,,,,,,METAR,6
VVCR 220400Z 07007KT CAVOK 29/22 Q1012 NOSIG,VVCR,2024-03-22T04:00:00Z,11.998,109.219,29,22,70,7,,6+,29.88,,,,,,TRUE,,,,,CAVOK,,,,,,,,VFR,,,,,,,,,,,,METAR,12
VVCI 220400Z 12005KT 090V160 9999 OVC011 23/20 Q1011 NOSIG,VVCI,2024-03-22T04:00:00Z,20.823,106.727,23,20,120,5,,6+,29.85,,,,,,TRUE,,,,,OVC,1100,,,,,,,MVFR,,,,,,,,,,,,METAR,6
VTUW 220400Z 32005KT 250V010 9999 FEW035 SCT080 32/18 Q1011 NOSIG,VTUW,2024-03-22T04:00:00Z,17.384,104.643,32,18,320,5,,6+,29.85,,,,,,TRUE,,,,,FEW,3500,SCT,8000,,,,,VFR,,,,,,,,,,,,METAR,167
VTUV 220400Z 12004KT 060V200 8000 FEW035 BKN080 30/20 Q1011 NOSIG,VTUV,2024-03-22T04:00:00Z,16.117,103.772,30,20,120,4,,4.97,29.85,,,,,,TRUE,,,,,FEW,3500,BKN,8000,,,,,MVFR,,,,,,,,,,,,METAR,136
VTUU 220400Z VRB04KT 9999 FEW035 33/20 Q1011 NOSIG,VTUU,2024-03-22T04:00:00Z,15.251,104.87,33,20,VRB,4,,6+,29.85,,,,,,TRUE,,,,,FEW,3500,,,,,,,VFR,,,,,,,,,,,,METAR,119
VTUQ 220400Z VRB04KT 9000 FEW030 31/21 Q1011 NOSIG,VTUQ,2024-03-22T04:00:00Z,14.95,102.313,31,21,VRB,4,,5.59,29.85,,,,,,TRUE,,,,,FEW,3000,,,,,,,VFR,,,,,,,,,,,,METAR,225
VTUO 220400Z VRB02KT 7000 NSC 32/19 Q1012 NOSIG,VTUO,2024-03-22T04:00:00Z,15.227,103.244,32,19,VRB,2,,4.35,29.88,,,,,,TRUE,,,,,CLR,,,,,,,,MVFR,,,,,,,,,,,,METAR,182
VTUL 220400Z VRB03KT 8000 NSC 31/22 Q1011 NOSIG,VTUL,2024-03-22T04:00:00Z,17.445,101.725,31,22,VRB,3,,4.97,29.85,,,,,,TRUE,,,,,CLR,,,,,,,,MVFR,,,,,,,,,,,,METAR,257
VTUK 220400Z 07003KT 330V130 9999 FEW030 SCT100 32/19 Q1012 NOSIG,VTUK,2024-03-22T04:00:00Z,16.462,102.786,32,19,70,3,,6+,29.88,,,,,,TRUE,,,,,FEW,3000,SCT,10000,,,,,VFR,,,,,,,,,,,,METAR,190
VTUI 220400Z 00000KT CAVOK 32/19 Q1011 NOSIG,VTUI,2024-03-22T04:00:00Z,17.195,104.119,32,19,0,0,,6+,29.85,,,,,,TRUE,,,,,CAVOK,,,,,,,,VFR,,,,,,,,,,,,METAR,162
VTUD 220400Z 17003KT 100V240 9999 FEW040 31/21 Q1011 NOSIG,VTUD,2024-03-22T04:00:00Z,17.382,102.799,31,21,170,3,,6+,29.85,,,,,,TRUE,,,,,FEW,4000,,,,,,,VFR,,,,,,,,,,,,METAR,177
VTSY 220400Z VRB04KT 9999 FEW035 33/18 Q1011 NOSIG,VTSY,2024-03-22T04:00:00Z,5.788,101.147,33,18,VRB,4,,6+,29.85,,,,,,TRUE,,,,,FEW,3500,,,,,,,VFR,,,,,,,,,,,,METAR,225
VTST 220400Z 04006KT 320V090 9999 FEW030 34/21 Q1009 NOSIG,VTST,2024-03-22T04:00:00Z,7.512,99.621,34,21,40,6,,6+,29.79,,,,,,TRUE,,,,,FEW,3000,,,,,,,VFR,,,,,,,,,,,,METAR,17
VTSS 220400Z 07008G19KT 040V110 9999 FEW020 33/23 Q1010 NOSIG,VTSS,2024-03-22T04:00:00Z,6.933,100.393,33,23,70,8,19,6+,29.82,,,,,,TRUE,,,,,FEW,2000,,,,,,,VFR,,,,,,,,,,,,METAR,28
VTSR 220400Z 06006KT 360V130 9999 FEW025 33/22 Q1010 NOSIG,VTSR,2024-03-22T04:00:00Z,9.773,98.587,33,22,60,6,,6+,29.82,,,,,,TRUE,,,,,FEW,2500,,,,,,,VFR,,,,,,,,,,,,METAR,23
VTSP 220400Z 07008KT 300V110 9999 FEW020 32/22 Q1010 NOSIG,VTSP,2024-03-22T04:00:00Z,8.105,98.308,32,22,70,8,,6+,29.82,,,,,,TRUE,,,,,FEW,2000,,,,,,,VFR,,,,,,,,,,,,METAR,12
VTSM 220400Z 13009KT 100V180 9999 FEW020 31/24 Q1011 NOSIG,VTSM,2024-03-22T04:00:00Z,9.548,100.062,31,24,130,9,,6+,29.85,,,,,,TRUE,,,,,FEW,2000,,,,,,,VFR,,,,,,,,,,,,METAR,12
VTSG 220400Z 10008KT 050V140 9999 SCT030 34/22 Q1010 NOSIG,VTSG,2024-03-22T04:00:00Z,8.099,98.986,34,22,100,8,,6+,29.82,,,,,,TRUE,,,,,SCT,3000,,,,,,,VFR,,,,,,,,,,,,METAR,32
VTSF 220400Z 10007KT 040V160 9999 SCT020 32/23 Q1010 NOSIG,VTSF,2024-03-22T04:00:00Z,8.546,99.94,32,23,100,7,,6+,29.82,,,,,,TRUE,,,,,SCT,2000,,,,,,,VFR,,,,,,,,,,,,METAR,6
VTSE 220400Z 14004KT 100V210 9999 SCT020 32/24 Q1010 NOSIG,VTSE,2024-03-22T04:00:00Z,10.711,99.362,32,24,140,4,,6+,29.82,,,,,,TRUE,,,,,SCT,2000,,,,,,,VFR,,,,,,,,,,,,METAR,8
VTSC 220400Z 10010KT 070V140 9999 FEW022 31/23 Q1010 NOSIG,VTSC,2024-03-22T04:00:00Z,6.52,101.743,31,23,100,10,,6+,29.82,,,,,,TRUE,,,,,FEW,2200,,,,,,,VFR,,,,,,,,,,,,METAR,5
VTSB 220400Z VRB04KT 9999 FEW020 33/21 Q1010 NOSIG,VTSB,2024-03-22T04:00:00Z,9.133,99.152,33,21,VRB,4,,6+,29.82,,,,,,TRUE,,,,,FEW,2000,,,,,,,VFR,,,,,,,,,,,,METAR,10
VTPT 220400Z /////KT 9999 SCT026 32/22 Q1011 NOSIG,VTPT,2024-03-22T04:00:00Z,16.897,99.254,32,22,,,,6+,29.85,,,,,,TRUE,,,,,SCT,2600,,,,,,,VFR,,,,,,,,,,,,METAR,148
VTPP 220400Z VRB03KT 7000 NSC 33/23 Q1010 NOSIG,VTPP,2024-03-22T04:00:00Z,16.792,100.274,33,23,VRB,3,,4.35,29.82,,,,,,TRUE,,,,,CLR,,,,,,,,MVFR,,,,,,,,,,,,METAR,45
VTPO 220400Z 24006KT 9000 FEW022 32/24 Q1010 NOSIG,VTPO,2024-03-22T04:00:00Z,17.238,99.818,32,24,240,6,,5.59,29.82,,,,,,TRUE,,,,,FEW,2200,,,,,,,VFR,,,,,,,,,,,,METAR,58
VTPM 220400Z 25005KT 190V310 7000 FEW045 32/20 Q1012 NOSIG,VTPM,2024-03-22T04:00:00Z,16.703,98.542,32,20,250,5,,4.35,29.88,,,,,,TRUE,,,,,FEW,4500,,,,,,,MVFR,,,,,,,,,,,,METAR,211
VTPH 220400Z 13009KT 110V180 8000 FEW030 35/24 Q1010 NOSIG,VTPH,2024-03-22T04:00:00Z,12.633,99.951,35,24,130,9,,4.97,29.82,,,,,,TRUE,,,,,FEW,3000,,,,,,,MVFR,,,,,,,,,,,,METAR,12
VTPB 220400Z 14005KT 080V180 8000 FEW030 33/20 Q1010 NOSIG,VTPB,2024-03-22T04:00:00Z,16.676,101.195,33,20,140,5,,4.97,29.82,,,,,,TRUE,,,,,FEW,3000,,,,,,,MVFR,,,,,,,,,,,,METAR,134
VTCT 220400Z 04006KT 010V090 9999 FEW025 SCT090 26/20 Q1013 NOSIG,VTCT,2024-03-22T04:00:00Z,19.961,99.881,26,20,40,6,,6+,29.91,,,,,,TRUE,,,,,FEW,2500,SCT,9000,,,,,VFR,,,,,,,,,,,,METAR,389
VTCP 220400Z 19007KT 140V230 CAVOK 32/22 Q1011 NOSIG,VTCP,2024-03-22T04:00:00Z,18.129,100.162,32,22,190,7,,6+,29.85,,,,,,TRUE,,,,,CAVOK,,,,,,,,VFR,,,,,,,,,,,,METAR,166
VTCN 220400Z 21004KT 120V270 9999 FEW025 31/21 Q1011 NOSIG,VTCN,2024-03-22T04:00:00Z,18.807,100.787,31,21,210,4,,6+,29.85,,,,,,TRUE,,,,,FEW,2500,,,,,,,VFR,,,,,,,,,,,,METAR,211
VTCL 220400Z 27006KT 220V330 9999 SCT030 31/21 Q1011 NOSIG,VTCL,2024-03-22T04:00:00Z,18.277,99.502,31,21,270,6,,6+,29.85,,,,,,TRUE,,,,,SCT,3000,,,,,,,VFR,,,,,,,,,,,,METAR,240
VTCH 220400Z VRB03KT 9999 FEW025 28/19 Q1013 NOSIG,VTCH,2024-03-22T04:00:00Z,19.302,97.972,28,19,VRB,3,,6+,29.91,,,,,,TRUE,,,,,FEW,2500,,,,,,,VFR,,,,,,,,,,,,METAR,266
VTCC 220400Z 05004KT 330V120 8000 FEW032 31/20 Q1012 NOSIG,VTCC,2024-03-22T04:00:00Z,18.771,98.963,31,20,50,4,,4.97,29.88,,,,,,TRUE,,,,,FEW,3200,,,,,,,MVFR,,,,,,,,,,,,METAR,308
VTBU 220400Z 24004KT 5000 HZ FEW020 SCT100 32/24 Q1011 NOSIG,VTBU,2024-03-22T04:00:00Z,12.68,101.001,32,24,240,4,,3.11,29.85,,,,,,TRUE,,,,HZ,FEW,2000,SCT,10000,,,,,MVFR,,,,,,,,,,,,METAR,12
VTBS 220400Z VRB03KT 9000 FEW020 33/22 Q1010 NOSIG,VTBS,2024-03-22T04:00:00Z,13.686,100.767,33,22,VRB,3,,5.59,29.82,,,,,,TRUE,,,,,FEW,2000,,,,,,,VFR,,,,,,,,,,,,METAR,1
VTBO 220400Z 27003KT 7000 SCT020 BKN100 29/26 Q1011,VTBO,2024-03-22T04:00:00Z,12.275,102.319,29,26,270,3,,4.35,29.85,,,,,,,,,,,SCT,2000,BKN,10000,,,,,MVFR,,,,,,,,,,,,METAR,25
VTBD 220400Z VRB03KT 9000 FEW020 32/22 Q1010 NOSIG,VTBD,2024-03-22T04:00:00Z,13.913,100.607,32,22,VRB,3,,5.59,29.82,,,,,,TRUE,,,,,FEW,2000,,,,,,,VFR,,,,,,,,,,,,METAR,6
VRMM 220400Z 07008KT 9999 FEW020 32/26 Q1010 NOSIG,VRMM,2024-03-22T04:00:00Z,4.192,73.529,32,26,70,8,,6+,29.82,,,,,,TRUE,,,,,FEW,2000,,,,,,,VFR,,,,,,,,,,,,METAR,2
VRMH 220400Z VRB02KT 9999 FEW018 31/26 Q1010,VRMH,2024-03-22T04:00:00Z,6.744,73.171,31,26,VRB,2,,6+,29.82,,,,,,,,,,,FEW,1800,,,,,,,VFR,,,,,,,,,,,,METAR,1
VRMG 220400Z 17004KT 9999 SCT018TCU SCT120 31/26 Q1010 TEMPO FEW018CB,VRMG,2024-03-22T04:00:00Z,-0.693,73.156,31,26,170,4,,6+,29.82,,,,,,,,,,,SCT,1800,SCT,12000,,,,,VFR,,,,,,,,,,,,METAR,2
VQPR 220400Z VRB02KT 6000 FEW008 SCT020 15/06 Q1020,VQPR,2024-03-22T04:00:00Z,27.403,89.425,15,6,VRB,2,,3.73,30.12,,,,,,,,,,,FEW,800,SCT,2000,,,,,MVFR,,,,,,,,,,,,METAR,2227
VOVZ 220400Z 23005KT 4000 HZ SCT018 29/22 Q1013 NOSIG,VOVZ,2024-03-22T04:00:00Z,17.722,83.228,29,22,230,5,,2.49,29.91,,,,,,TRUE,,,,HZ,SCT,1800,,,,,,,IFR,,,,,,,,,,,,METAR,4
VOTV 220400Z 00000KT 5000 HZ FEW015 SCT080 33/24 Q1010 NOSIG,VOTV,2024-03-22T04:00:00Z,8.484,76.919,33,24,0,0,,3.11,29.82,,,,,,TRUE,,,,HZ,FEW,1500,SCT,8000,,,,,MVFR,,,,,,,,,,,,METAR,9
VOTR 220400Z 07006KT 4000 HZ FEW016 SCT020 32/25 Q1012 NOSIG,VOTR,2024-03-22T04:00:00Z,10.765,78.71,32,25,70,6,,2.49,29.88,,,,,,TRUE,,,,HZ,FEW,1600,SCT,2000,,,,,IFR,,,,,,,,,,,,METAR,90
VOTP 220400Z 19003KT 5000 HZ FEW020 31/22 Q1013 NOSIG,VOTP,2024-03-22T04:00:00Z,13.633,79.543,31,22,190,3,,3.11,29.91,,,,,,TRUE,,,,HZ,FEW,2000,,,,,,,MVFR,,,,,,,,,,,,METAR,103
VOTK 220400Z 06003KT 4000 HZ SCT016 FEW030CB BKN090 28/24 Q1012 NOSIG,VOTK,2024-03-22T04:00:00Z,8.722,78.028,28,24,60,3,,2.49,29.88,,,,,,TRUE,,,,HZ,SCT,1600,FEW,3000,BKN,9000,,,IFR,,,,,,,,,,,,METAR,25
VOSR 220400Z 12005KT 4500 HZ FEW020 SCT080 29/23 Q1012 BECMG 5000 HZ,VOSR,2024-03-22T04:00:00Z,16.001,73.534,29,23,120,5,,2.8,29.88,,,,,,,,,,HZ,FEW,2000,SCT,8000,,,,,IFR,,,,,,,,,,,,METAR,62
VOSM 220400Z 16003KT 5000 HZ SCT020 28/21 Q1013 NOSIG,VOSM,2024-03-22T04:00:00Z,11.783,78.066,28,21,160,3,,3.11,29.91,,,,,,TRUE,,,,HZ,SCT,2000,,,,,,,MVFR,,,,,,,,,,,,METAR,301
VOSH 220400Z 32003KT 3500 BR SCT012 26/22 Q1016,VOSH,2024-03-22T04:00:00Z,13.857,75.615,26,22,320,3,,2.17,30.00,,,,,,,,,,BR,SCT,1200,,,,,,,IFR,,,,,,,,,,,,METAR,654
VORY 220400Z 09004KT 6000 FEW020 30/23 Q1012 NOSIG,VORY,2024-03-22T04:00:00Z,17.11,81.818,30,23,90,4,,3.73,29.88,,,,,,TRUE,,,,,FEW,2000,,,,,,,MVFR,,,,,,,,,,,,METAR,47
VOPC 220400Z 16005KT 6000 SCT020 30/24 Q1013 NOSIG,VOPC,2024-03-22T04:00:00Z,11.969,79.81,30,24,160,5,,3.73,29.91,,,,,,TRUE,,,,,SCT,2000,,,,,,,MVFR,,,,,,,,,,,,METAR,43
VOPB 220400Z 04010KT 6000 SCT016 31/24 Q1011 NOSIG,VOPB,2024-03-22T04:00:00Z,11.641,92.73,31,24,40,10,,3.73,29.85,,,,,,TRUE,,,,,SCT,1600,,,,,,,MVFR,,,,,,,,,,,,METAR,1
VOMY 220400Z 12004KT 5000 HZ SCT015 27/18 Q1016,VOMY,2024-03-22T04:00:00Z,12.229,76.652,27,18,120,4,,3.11,30.00,,,,,,,,,,HZ,SCT,1500,,,,,,,MVFR,,,,,,,,,,,,METAR,727
VOMM 220400Z VRB02KT 5000 HZ SCT020 BKN100 31/26 Q1012 NOSIG,VOMM,2024-03-22T04:00:00Z,12.994,80.18,31,26,VRB,2,,3.11,29.88,,,,,,TRUE,,,,HZ,SCT,2000,BKN,10000,,,,,MVFR,,,,,,,,,,,,METAR,7
VOML 220400Z 26005KT 5000 TS BR SCT012 FEW025CB BKN080 27/24 Q1012 NOSIG,VOML,2024-03-22T04:00:00Z,12.961,74.89,27,24,260,5,,3.11,29.88,,,,,,TRUE,,,,TS BR,SCT,1200,FEW,2500,BKN,8000,,,MVFR,,,,,,,,,,,,METAR,100
VOMD 220400Z 04008KT 5000 HZ FEW020 31/23 Q1012 NOSIG,VOMD,2024-03-22T04:00:00Z,9.835,78.093,31,23,40,8,,3.11,29.88,,,,,,TRUE,,,,HZ,FEW,2000,,,,,,,MVFR,,,,,,,,,,,,METAR,135
VOKU 220400Z 12006KT 5000 HZ NSC 30/18 Q1014 NOSIG,VOKU,2024-03-22T04:00:00Z,15.716,78.169,30,18,120,6,,3.11,29.94,,,,,,TRUE,,,,HZ,CLR,,,,,,,,MVFR,,,,,,,,,,,,METAR,280
VOKN 220400Z 09003KT 5000 HZ FEW012 30/25 Q1011 NOSIG,VOKN,2024-03-22T04:00:00Z,11.917,75.547,30,25,90,3,,3.11,29.85,,,,,,TRUE,,,,HZ,FEW,1200,,,,,,,MVFR,,,,,,,,,,,,METAR,105
VOJV 220400Z 00000KT 6000 FEW015 SCT090 29/18 Q1015,VOJV,2024-03-22T04:00:00Z,15.174,76.635,29,18,0,0,,3.73,29.97,,,,,,,,,,,FEW,1500,SCT,9000,,,,,MVFR,,,,,,,,,,,,METAR,508
VOHY 220400Z 11007KT 5000 HZ NSC 28/17 Q1016 NOSIG,VOHY,2024-03-22T04:00:00Z,17.453,78.468,28,17,110,7,,3.11,30.00,,,,,,TRUE,,,,HZ,CLR,,,,,,,,MVFR,,,,,,,,,,,,METAR,540
VOHS 220400Z 12005KT 6000 NSC 28/17 Q1016 NOSIG,VOHS,2024-03-22T04:00:00Z,17.233,78.429,28,17,120,5,,3.73,30.00,,,,,,TRUE,,,,,CLR,,,,,,,,MVFR,,,,,,,,,,,,METAR,607
VOHB 220400Z VRB02KT 6000 NSC 27/22 Q1015,VOHB,2024-03-22T04:00:00Z,15.362,75.085,27,22,VRB,2,,3.73,29.97,,,,,,,,,,,CLR,,,,,,,,MVFR,,,,,,,,,,,,METAR,661
VOGO 220400Z 14006KT 4500 HZ SCT030 30/25 Q1011 NOSIG,VOGO,2024-03-22T04:00:00Z,15.378,73.828,30,25,140,6,,2.8,29.85,,,,,,TRUE,,,,HZ,SCT,3000,,,,,,,IFR,,,,,,,,,,,,METAR,56
VOGB 220400Z 19008KT 6000 NSC 30/22 Q1015,VOGB,2024-03-22T04:00:00Z,17.309,76.957,30,22,190,8,,3.73,29.97,,,,,,,,,,,CLR,,,,,,,,MVFR,,,,,,,,,,,,METAR,477
VOGA 220400Z 08005KT 2500 BR VCFG FEW080 28/27 Q1012 NOSIG,VOGA,2024-03-22T04:00:00Z,15.7426,73.8631,28,27,80,5,,1.55,29.88,,,,,,TRUE,,,,BR VCFG,FEW,8000,,,,,,,IFR,,,,,,,,,,,,METAR,168
VOCP 220400Z 09006KT 3000 HZ FEW020 30/20 Q1013 NOSIG,VOCP,2024-03-22T04:00:00Z,14.513,78.771,30,20,90,6,,1.86,29.91,,,,,,TRUE,,,,HZ,FEW,2000,,,,,,,IFR,,,,,,,,,,,,METAR,134
VOCL 220400Z 08004KT 6000 SCT012 30/22 Q1011 NOSIG,VOCL,2024-03-22T04:00:00Z,11.137,75.955,30,22,80,4,,3.73,29.85,,,,,,TRUE,,,,,SCT,1200,,,,,,,MVFR,,,,,,,,,,,,METAR,104
VOCI 220400Z VRB02KT 4000 HZ SCT020 31/24 Q1011 NOSIG,VOCI,2024-03-22T04:00:00Z,10.152,76.402,31,24,VRB,2,,2.49,29.85,,,,,,TRUE,,,,HZ,SCT,2000,,,,,,,IFR,,,,,,,,,,,,METAR,8
VOCB 220400Z 07005KT 4000 HZ SCT015 28/23 Q1015 BECMG 5000 HZ,VOCB,2024-03-22T04:00:00Z,11.03,77.043,28,23,70,5,,2.49,29.97,,,,,,,,,,HZ,SCT,1500,,,,,,,IFR,,,,,,,,,,,,METAR,394
VOBZ 220400Z 16004KT 6000 SCT018 SCT025 30/22 Q1012 NOSIG,VOBZ,2024-03-22T04:00:00Z,16.53,80.797,30,22,160,4,,3.73,29.88,,,,,,TRUE,,,,,SCT,1800,SCT,2500,,,,,MVFR,,,,,,,,,,,,METAR,26
VOBM 220400Z 30004KT 6000 NSC 28/21 Q1017,VOBM,2024-03-22T04:00:00Z,15.861,74.617,28,21,300,4,,3.73,30.03,,,,,,,,,,,CLR,,,,,,,,MVFR,,,,,,,,,,,,METAR,758
VOBL 220400Z 16006KT 6000 FEW015 25/18 Q1017 NOSIG,VOBL,2024-03-22T04:00:00Z,13.205,77.704,25,18,160,6,,3.73,30.03,,,,,,TRUE,,,,,FEW,1500,,,,,,,MVFR,,,,,,,,,,,,METAR,908
VOBG 220400Z 12005KT 6000 FEW012 28/21 Q1018,VOBG,2024-03-22T04:00:00Z,12.949,77.663,28,21,120,5,,3.73,30.06,,,,,,,,,,,FEW,1200,,,,,,,MVFR,,,,,,,,,,,,METAR,884
VOAT 220400Z 33005KT 5000 HZ FEW015 30/24 Q1011 NOSIG,VOAT,2024-03-22T04:00:00Z,10.824,72.176,30,24,330,5,,3.11,29.85,,,,,,TRUE,,,,HZ,FEW,1500,,,,,,,MVFR,,,,,,,,,,,,METAR,5
VMMC 220400Z 09003KT 060V170 9999 FEW011 SCT025 24/20 Q1014 NOSIG,VMMC,2024-03-22T04:00:00Z,22.141,113.596,24,20,90,3,,6+,29.94,,,,,,TRUE,,,,,FEW,1100,SCT,2500,,,,,VFR,,,,,,,,,,,,METAR,1
VLVT 220400Z 18002KT 8000 FEW020 31/26 Q1011 NOSIG,VLVT,2024-03-22T04:00:00Z,17.987,102.564,31,26,180,2,,4.97,29.85,,,,,,TRUE,,,,,FEW,2000,,,,,,,MVFR,,,,,,,,,,,,METAR,171
VLSK 220400Z 22002KT 9999 SCT020 SCT100 32/19 Q1013 NOSIG,VLSK,2024-03-22T04:00:00Z,16.557,104.76,32,19,220,2,,6+,29.91,,,,,,TRUE,,,,,SCT,2000,SCT,10000,,,,,VFR,,,,,,,,,,,,METAR,148
VLLB 220400Z 27002KT 9999 SCT020 BKN080 29/18 Q1010 NOSIG,VLLB,2024-03-22T04:00:00Z,19.897,102.161,29,18,270,2,,6+,29.82,,,,,,TRUE,,,,,SCT,2000,BKN,8000,,,,,VFR,,,,,,,,,,,,METAR,297
VIUT 220400Z 14003KT 6000 SKC 29/01 Q1010 NOSIG,VIUT,2024-03-22T04:00:00Z,25.813,71.482,29,1,140,3,,3.73,29.82,,,,,,TRUE,,,,,SKC,,,,,,,,MVFR,,,,,,,,,,,,METAR,152
VISR 220400Z 11005KT 5000 -RABR FEW010 SCT012 OVC080 10/09 Q1021 NOSIG,VISR,2024-03-22T04:00:00Z,33.987,74.774,10,9,110,5,,3.11,30.15,,,,,,TRUE,,,,-RA BR,FEW,1000,SCT,1200,OVC,8000,,,MVFR,,,,,,,,,,,,METAR,1655
VISP 220400Z 10005KT 3000 BR FEW100 24/19 Q1013 NOSIG,VISP,2024-03-22T04:00:00Z,29.994,77.425,24,19,100,5,,1.86,29.91,,,,,,TRUE,,,,BR,FEW,10000,,,,,,,IFR,,,,,,,,,,,,METAR,272
VISM 220400Z 05004KT 5000 HZ FEW040 SCT050 19/11 Q1019,VISM,2024-03-22T04:00:00Z,31.082,77.068,19,11,50,4,,3.11,30.09,,,,,,,,,,HZ,FEW,4000,SCT,5000,,,,,MVFR,,,,,,,,,,,,METAR,1537
VILK 220400Z 16004KT 5000 HZ NSC 24/15 Q1012 NOSIG,VILK,2024-03-22T04:00:00Z,26.761,80.889,24,15,160,4,,3.11,29.88,,,,,,TRUE,,,,HZ,CLR,,,,,,,,MVFR,,,,,,,,,,,,METAR,121
VILH 220400Z VRB02KT 6000 SOCC SCT060 BKN120 10/M06 Q1020 NOSIG,VILH,2024-03-22T04:00:00Z,34.136,77.546,10,-6,VRB,2,,3.73,30.12,,,,,,TRUE,,,,,SCT,6000,BKN,12000,,,,,MVFR,,,,,,,,,,,,METAR,3256
VIJU 220400Z VRB02KT 6000 FEW025 BKN090 24/16 Q1014 NOSIG,VIJU,2024-03-22T04:00:00Z,32.689,74.837,24,16,VRB,2,,3.73,29.94,,,,,,TRUE,,,,,FEW,2500,BKN,9000,,,,,MVFR,,,,,,,,,,,,METAR,285
VIJR 220400Z 20005KT 6000 SKC 27/07 Q1010 NOSIG,VIJR,2024-03-22T04:00:00Z,26.889,70.865,27,7,200,5,,3.73,29.82,,,,,,TRUE,,,,,SKC,,,,,,,,MVFR,,,,,,,,,,,,METAR,229
VIJP 220400Z VRB02KT 3500 HZ NSC 26/14 Q1014 NOSIG,VIJP,2024-03-22T04:00:00Z,26.824,75.812,26,14,VRB,2,,2.17,29.94,,,,,,TRUE,,,,HZ,CLR,,,,,,,,IFR,,,,,,,,,,,,METAR,383
VIJO 220400Z 18004KT 6000 SKC 27/02 Q1012 NOSIG,VIJO,2024-03-22T04:00:00Z,26.243,73.039,27,2,180,4,,3.73,29.88,,,,,,TRUE,,,,,SKC,,,,,,,,MVFR,,,,,,,,,,,,METAR,215
VIGR 220400Z 16005KT 6000 FEW250 27/17 Q1013 NOSIG,VIGR,2024-03-22T04:00:00Z,26.293,78.228,27,17,160,5,,3.73,29.91,,,,,,TRUE,,,,,FEW,25000,,,,,,,MVFR,,,,,,,,,,,,METAR,187
VIGG 220400Z 00000KT 6000 FEW035 19/13 Q1016,VIGG,2024-03-22T04:00:00Z,32.165,76.263,19,13,0,0,,3.73,30.00,,,,,,,,,,,FEW,3500,,,,,,,MVFR,,,,,,,,,,,,METAR,760
VIDP 220400Z 14009KT 3000 HZ NSC 25/17 Q1013 NOSIG,VIDP,2024-03-22T04:00:00Z,28.567,77.117,25,17,140,9,,1.86,29.91,,,,,,TRUE,,,,HZ,CLR,,,,,,,,IFR,,,,,,,,,,,,METAR,236
VIDN 220400Z 29003KT 4000 BR SCT030 BKN080 21/16 Q1015 NOSIG,VIDN,2024-03-22T04:00:00Z,30.19,78.18,21,16,290,3,,2.49,29.97,,,,,,TRUE,,,,BR,SCT,3000,BKN,8000,,,,,IFR,,,,,,,,,,,,METAR,550
VICG 220400Z 16008KT 4500 HZ SCT025 SCT090 24/17 Q1013 NOSIG,VICG,2024-03-22T04:00:00Z,30.677,76.789,24,17,160,8,,2.8,29.91,,,,,,TRUE,,,,HZ,SCT,2500,SCT,9000,,,,,IFR,,,,,,,,,,,,METAR,316
VIBY 220400Z 16005KT 3000 HZ SKC 23/15 Q1013 BEMCG 4000,VIBY,2024-03-22T04:00:00Z,28.421,79.452,23,15,160,5,,1.86,29.91,,,,,,,,,,HZ,SKC,,,,,,,,IFR,,,,,,,,,,,,METAR,175
VIBR 220400Z 00000KT 6000 FEW030 17/12 Q1017,VIBR,2024-03-22T04:00:00Z,31.876,77.154,17,12,0,0,,3.73,30.03,,,,,,,,,,,FEW,3000,,,,,,,MVFR,,,,,,,,,,,,METAR,1089
VIAR 220400Z 31009KT 2500 TS SCT030 FEW035CB BKN090 22/20 Q1015 TEMPO 29015G25KT 1500 TSRA,VIAR,2024-03-22T04:00:00Z,31.707,74.801,22,20,310,9,,1.55,29.97,,,,,,,,,,TS,SCT,3000,FEW,3500,BKN,9000,,,IFR,,,,,,,,,,,,METAR,226
VIAG 220400Z 14007KT 5000 HZ FEW250 25/15 Q1012 NOSIG,VIAG,2024-03-22T04:00:00Z,27.156,77.961,25,15,140,7,,3.11,29.88,,,,,,TRUE,,,,HZ,FEW,25000,,,,,,,MVFR,,,,,,,,,,,,METAR,159
VHHH 220400Z 12016KT 9999 FEW018 27/18 Q1013 NOSIG,VHHH,2024-03-22T04:00:00Z,22.309,113.922,27,18,120,16,,6+,29.91,,,,,,TRUE,,,,,FEW,1800,,,,,,,VFR,,,,,,,,,,,,METAR,9
VGHS 220400Z 17003KT 1700 HZ SCT100 25/20 Q1013 BECMG S/VIS 2000M,VGHS,2024-03-22T04:00:00Z,23.846,90.4,25,20,170,3,,1.06,29.91,,,,,,,,,,HZ,SCT,10000,,,,,,,IFR,,,,,,,,,,,,METAR,11
VGEG 220400Z 13004KT 8000 FEW020 26/18 Q1012 NOSIG,VGEG,2024-03-22T04:00:00Z,22.249,91.814,26,18,130,4,,4.97,29.88,,,,,,TRUE,,,,,FEW,2000,,,,,,,MVFR,,,,,,,,,,,,METAR,7
VETZ 220400Z 23006KT 5000 BR SCT010 SCT025 BKN080 22/20 Q1012 TEMPO -RA,VETZ,2024-03-22T04:00:00Z,26.709,92.785,22,20,230,6,,3.11,29.88,,,,,,,,,,BR,SCT,1000,SCT,2500,BKN,8000,,,MVFR,,,,,,,,,,,,METAR,73
VETJ 220400Z 00000KT 2000 RA FEW008 SCT018 FEW025CB OVC090 19/18 Q1013 NOSING,VETJ,2024-03-22T04:00:00Z,27.941,96.134,19,18,0,0,,1.24,29.91,,,,,,,,,,RA,FEW,800,SCT,1800,FEW,2500,OVC,9000,IFR,,,,,,,,,,,,METAR,244
VERP 220400Z 23002KT 3000 HZ NSC 27/17 Q1013 NOSIG,VERP,2024-03-22T04:00:00Z,21.182,81.738,27,17,230,2,,1.86,29.91,,,,,,TRUE,,,,HZ,CLR,,,,,,,,IFR,,,,,,,,,,,,METAR,318
VERC 220400Z 22004KT 3500 HZ NSC 21/13 Q1016 NOSIG,VERC,2024-03-22T04:00:00Z,23.314,85.322,21,13,220,4,,2.17,30.00,,,,,,TRUE,,,,HZ,CLR,,,,,,,,IFR,,,,,,,,,,,,METAR,646
VEPY 220400Z 00000KT 5000 BR SCT015 15/12 Q1017 NOSIG,VEPY,2024-03-22T04:00:00Z,27.228,88.587,15,12,0,0,,3.11,30.03,,,,,,TRUE,,,,BR,SCT,1500,,,,,,,MVFR,,,,,,,,,,,,METAR,1399
VEPT 220400Z 17002KT 2200 BR NSC 25/23 Q1012 NOSIG,VEPT,2024-03-22T04:00:00Z,25.591,85.088,25,23,170,2,,1.37,29.88,,,,,,TRUE,,,,BR,CLR,,,,,,,,IFR,,,,,,,,,,,,METAR,53
VEMR 220400Z 15006KT 3500 HZ SCT020 SCT100 26/19 Q1013 BECMG 5000 HZ,VEMR,2024-03-22T04:00:00Z,25.884,93.771,26,19,150,6,,2.17,29.91,,,,,,,,,,HZ,SCT,2000,SCT,10000,,,,,IFR,,,,,,,,,,,,METAR,147
VEMN 220400Z 31007KT 4000 BR SCT020 BKN100 19/17 Q1013 NOSIG,VEMN,2024-03-22T04:00:00Z,27.481,95.014,19,17,310,7,,2.49,29.91,,,,,,TRUE,,,,BR,SCT,2000,BKN,10000,,,,,IFR,,,,,,,,,,,,METAR,111
VELR 220400Z 22003KT 3000 BR FEW008 SCT018 OVC080 19/19 Q1012,VELR,2024-03-22T04:00:00Z,27.296,94.098,19,19,220,3,,1.86,29.88,,,,,,,,,,BR,FEW,800,SCT,1800,OVC,8000,,,IFR,,,,,,,,,,,,METAR,101
VELP 220400Z 11003KT 5000 HZ SCT018 BKN100 23/14 Q1014 NOSIG,VELP,2024-03-22T04:00:00Z,23.841,92.62,23,14,110,3,,3.11,29.94,,,,,,TRUE,,,,HZ,SCT,1800,BKN,10000,,,,,MVFR,,,,,,,,,,,,METAR,429
VEKU 220400Z VRB02KT 2500 -RABR SCT010 SCT020 BKN080 20/18 Q1015 BECMG 3000,VEKU,2024-03-22T04:00:00Z,24.913,92.979,20,18,VRB,2,,1.55,29.97,,,,,,,,,,-RA BR,SCT,1000,SCT,2000,BKN,8000,,,IFR,,,,,,,,,,,,METAR,107
VEKI 220400Z VRB02KT 1800 BR NSC 23/20 Q1012 BECMG 3000 BR HZ,VEKI,2024-03-22T04:00:00Z,26.776,83.889,23,20,VRB,2,,1.12,29.88,,,,,,,,,,BR,CLR,,,,,,,,IFR,,,,,,,,,,,,METAR,81
VEJT 220400Z 25004KT 6000 FEW012 SCT020 BKN090 21/17 Q1012 TEMPO RAIN,VEJT,2024-03-22T04:00:00Z,26.731,94.175,21,17,250,4,,3.73,29.88,,,,,,,,,,,FEW,1200,SCT,2000,BKN,9000,,,MVFR,,,,,,,,,,,,METAR,95
VEJS 220400Z 00000KT 3000 HZ NSC 24/16 Q1013,VEJS,2024-03-22T04:00:00Z,22.813,86.169,24,16,0,0,,1.86,29.91,,,,,,,,,,HZ,CLR,,,,,,,,IFR,,,,,,,,,,,,METAR,151
VEIM 220400Z 19006KT 5000 BR FEW008 SCT018 SCT100 19/15 Q1015 NOSIG,VEIM,2024-03-22T04:00:00Z,24.76,93.897,19,15,190,6,,3.11,29.97,,,,,,TRUE,,,,BR,FEW,800,SCT,1800,SCT,10000,,,MVFR,,,,,,,,,,,,METAR,777
VEHX 220400Z 23004KT 6000 FEW020 SCT025 24/17 Q1012 NOSIG,VEHX,2024-03-22T04:00:00Z,26.6979,89.3689,24,17,230,4,,3.73,29.88,,,,,,TRUE,,,,,FEW,2000,SCT,2500,,,,,MVFR,,,,,,,,,,,,METAR,104
VEGY 220400Z 23003KT 2000 HZ FEW018 22/17 Q1013 NOSIG,VEGY,2024-03-22T04:00:00Z,24.744,84.951,22,17,230,3,,1.24,29.91,,,,,,TRUE,,,,HZ,FEW,1800,,,,,,,IFR,,,,,,,,,,,,METAR,115
VEGT 220400Z 28002KT 2000 BR SCT018 BKN100 23/21 Q1012 NOSIG,VEGT,2024-03-22T04:00:00Z,26.107,91.587,23,21,280,2,,1.24,29.88,,,,,,TRUE,,,,BR,SCT,1800,BKN,10000,,,,,IFR,,,,,,,,,,,,METAR,50
VEGK 220400Z 23003KT 4000 HZ SKC 25/20 Q1012 BECMG 5000,VEGK,2024-03-22T04:00:00Z,26.74,83.451,25,20,230,3,,2.49,29.88,,,,,,,,,,HZ,SKC,,,,,,,,IFR,,,,,,,,,,,,METAR,83
VEDG 220400Z 32005KT 2400 HZ NSC 25/15 Q1013 BECMG 3000 HZ,VEDG,2024-03-22T04:00:00Z,23.623,87.243,25,15,320,5,,1.49,29.91,,,,,,,,,,HZ,CLR,,,,,,,,IFR,,,,,,,,,,,,METAR,88
VECX 220400Z VRB02KT 5000 HZ FEW250 27/19 Q1013 NOSIG,VECX,2024-03-22T04:00:00Z,9.15,92.817,27,19,VRB,2,,3.11,29.91,,,,,,TRUE,,,,HZ,FEW,25000,,,,,,,MVFR,,,,,,,,,,,,METAR,14
VECO 220400Z 16003KT 4000 HZ SCT025 24/20 Q1012 NOSIG,VECO,2024-03-22T04:00:00Z,26.331,89.467,24,20,160,3,,2.49,29.88,,,,,,TRUE,,,,HZ,SCT,2500,,,,,,,IFR,,,,,,,,,,,,METAR,48
VECC 220400Z 35004KT 2500 HZ FEW020 25/20 Q1012 NOSIG,VECC,2024-03-22T04:00:00Z,22.651,88.445,25,20,350,4,,1.55,29.88,,,,,,TRUE,,,,HZ,FEW,2000,,,,,,,IFR,,,,,,,,,,,,METAR,11
VEBS 220400Z 22008KT 4000 HZ NSC 28/22 Q1013 NOSIG,VEBS,2024-03-22T04:00:00Z,20.244,85.818,28,22,220,8,,2.49,29.91,,,,,,TRUE,,,,HZ,CLR,,,,,,,,IFR,,,,,,,,,,,,METAR,42
VEBN 220400Z 16003KT 2500 HZ NSC 24/18 Q1013 BECMG 3000 HZ,VEBN,2024-03-22T04:00:00Z,25.452,82.859,24,18,160,3,,1.55,29.91,,,,,,,,,,HZ,CLR,,,,,,,,IFR,,,,,,,,,,,,METAR,81
VEBI 220400Z 28006KT 4000 HZ SCT020 SCT090 18/13 Q1014 BECMG 5000 HZ,VEBI,2024-03-22T04:00:00Z,25.704,91.979,18,13,280,6,,2.49,29.94,,,,,,,,,,HZ,SCT,2000,SCT,9000,,,,,IFR,,,,,,,,,,,,METAR,892
VEBD 220400Z 09003KT 6000 SCT030 26/18 Q1013 NOSIG,VEBD,2024-03-22T04:00:00Z,26.681,88.329,26,18,90,3,,3.73,29.91,,,,,,TRUE,,,,,SCT,3000,,,,,,,MVFR,,,,,,,,,,,,METAR,126
VEAY 220400Z 19003KT 3500 HZ NSC 22/14 Q1012 NOSIG,VEAY,2024-03-22T04:00:00Z,26.7484,82.1624,22,14,190,3,,2.17,29.88,,,,,,TRUE,,,,HZ,CLR,,,,,,,,IFR,,,,,,,,,,,,METAR,102
VEAT 220400Z 25003KT 4000 HZ SCT018 BKN100 25/17 Q1013 NOSIG,VEAT,2024-03-22T04:00:00Z,23.887,91.24,25,17,250,3,,2.49,29.91,,,,,,TRUE,,,,HZ,SCT,1800,BKN,10000,,,,,IFR,,,,,,,,,,,,METAR,20
VEAB 220400Z 20006KT 5000 HZ FEW250 24/17 Q1013 NOSIG,VEAB,2024-03-22T04:00:00Z,25.441,81.735,24,17,200,6,,3.11,29.91,,,,,,TRUE,,,,HZ,FEW,25000,,,,,,,MVFR,,,,,,,,,,,,METAR,98
VDSV 220400Z 13010KT 9999 SCT015 31/24 Q1010,VDSV,2024-03-22T04:00:00Z,10.582,103.637,31,24,130,10,,6+,29.82,,,,,,,,,,,SCT,1500,,,,,,,VFR,,,,,,,,,,,,METAR,1
VDSA 220400Z 17004KT 090V220 9999 SCT015 33/23 Q1010,VDSA,2024-03-22T04:00:00Z,13.371,104.225,33,23,170,4,,6+,29.82,,,,,,,,,,,SCT,1500,,,,,,,VFR,,,,,,,,,,,,METAR,59
VDPP 220400Z 15005KT 070V200 9999 FEW017 34/22 Q1010,VDPP,2024-03-22T04:00:00Z,11.547,104.844,34,22,150,5,,6+,29.82,,,,,,,,,,,FEW,1700,,,,,,,VFR,,,,,,,,,,,,METAR,10
VAUD 220400Z 00000KT 5000 HZ FEW100 28/08 Q1013 NOSIG,VAUD,2024-03-22T04:00:00Z,24.618,73.896,28,8,0,0,,3.11,29.91,,,,,,TRUE,,,,HZ,FEW,10000,,,,,,,MVFR,,,,,,,,,,,,METAR,506
VASU 220400Z 17004KT 3000 HZ NSC 29/11 Q1011 BECMG 4000,VASU,2024-03-22T04:00:00Z,21.114,72.742,29,11,170,4,,1.86,29.85,,,,,,,,,,HZ,CLR,,,,,,,,IFR,,,,,,,,,,,,METAR,6
VASD 220400Z 31003KT 3000 HZ NSC 29/M01 Q1014 NOSIG,VASD,2024-03-22T04:00:00Z,19.689,74.379,29,-1,310,3,,1.86,29.94,,,,,,TRUE,,,,HZ,CLR,,,,,,,,IFR,,,,,,,,,,,,METAR,587
VAPO 220400Z 29003KT 5000 HZ SKC 31/12 Q1016 NOSIG,VAPO,2024-03-22T04:00:00Z,18.582,73.92,31,12,290,3,,3.11,30.00,,,,,,TRUE,,,,HZ,SKC,,,,,,,,MVFR,,,,,,,,,,,,METAR,593
VANP 220400Z 16003KT 5000 HZ NSC 29/18 Q1014 NOSIG,VANP,2024-03-22T04:00:00Z,21.089,79.055,29,18,160,3,,3.11,29.94,,,,,,TRUE,,,,HZ,CLR,,,,,,,,MVFR,,,,,,,,,,,,METAR,309
VAKP 220400Z 32002KT 4000 HZ FEW020 28/18 Q1015,VAKP,2024-03-22T04:00:00Z,16.664,74.287,28,18,320,2,,2.49,29.97,,,,,,,,,,HZ,FEW,2000,,,,,,,IFR,,,,,,,,,,,,METAR,612
VAJM 220400Z 29003KT 6000 FEW200 28/16 Q1011 NOSIG,VAJM,2024-03-22T04:00:00Z,22.465,70.009,28,16,290,3,,3.73,29.85,,,,,,TRUE,,,,,FEW,20000,,,,,,,MVFR,,,,,,,,,,,,METAR,20
VAJL 220400Z 02003KT 7000 NSC 29/09 Q1012 NOSIG,VAJL,2024-03-22T04:00:00Z,20.961,75.625,29,9,20,3,,4.35,29.88,,,,,,TRUE,,,,,CLR,,,,,,,,MVFR,,,,,,,,,,,,METAR,257
VAJJ 220400Z 00000KT 4000 HZ NSC 29/23 Q1011 NOSIG,VAJJ,2024-03-22T04:00:00Z,19.098,72.834,29,23,0,0,,2.49,29.85,,,,,,TRUE,,,,HZ,CLR,,,,,,,,IFR,,,,,,,,,,,,METAR,1
VAJB 220400Z VRB02KT 5000 HZ NSC 22/12 Q1014 NOSIG,VAJB,2024-03-22T04:00:00Z,23.178,80.05,22,12,VRB,2,,3.11,29.94,,,,,,TRUE,,,,HZ,CLR,,,,,,,,MVFR,,,,,,,,,,,,METAR,489
VAID 220400Z 15007KT 6000 NSC 29/09 Q1014 NOSIG,VAID,2024-03-22T04:00:00Z,22.722,75.801,29,9,150,7,,3.73,29.94,,,,,,TRUE,,,,,CLR,,,,,,,,MVFR,,,,,,,,,,,,METAR,564
VAHS 220400Z 35006KT 6000 NSC 31/04 Q1012 NOSIG,VAHS,2024-03-22T04:00:00Z,22.3772,71.0374,31,4,350,6,,3.73,29.88,,,,,,TRUE,,,,,CLR,,,,,,,,MVFR,,,,,,,,,,,,METAR,198
VAGD 220400Z 09002KT 5000 HZ NSC 28/20 Q1013 NOSIG,VAGD,2024-03-22T04:00:00Z,21.467,80.2,28,20,90,2,,3.11,29.91,,,,,,TRUE,,,,HZ,CLR,,,,,,,,MVFR,,,,,,,,,,,,METAR,312
VABP 220400Z 09007KT 6000 NSC 26/10 Q1014 NOSIG,VABP,2024-03-22T04:00:00Z,23.288,77.337,26,10,90,7,,3.73,29.94,,,,,,TRUE,,,,,CLR,,,,,,,,MVFR,,,,,,,,,,,,METAR,520
VABO 220400Z 00000KT 3000 FU NSC 29/11 Q1011 NOSIG,VABO,2024-03-22T04:00:00Z,22.333,73.225,29,11,0,0,,1.86,29.85,,,,,,TRUE,,,,FU,CLR,,,,,,,,IFR,,,,,,,,,,,,METAR,36
VABJ 220400Z 25005KT 6000 FEW100 29/12 Q1011 NOSIG,VABJ,2024-03-22T04:00:00Z,23.286,69.672,29,12,250,5,,3.73,29.85,,,,,,TRUE,,,,,FEW,10000,,,,,,,MVFR,,,,,,,,,,,,METAR,79
VABB 220400Z 13006KT 2200 HZ NSC 30/23 Q1011 NOSIG,VABB,2024-03-22T04:00:00Z,19.1,72.859,30,23,130,6,,1.37,29.85,,,,,,TRUE,,,,HZ,CLR,,,,,,,,IFR,,,,,,,,,,,,METAR,14
VAAU 220400Z 00000KT 2000 HZ NSC 32/16 Q1014 NOSIG,VAAU,2024-03-22T04:00:00Z,19.863,75.398,32,16,0,0,,1.24,29.94,,,,,,TRUE,,,,HZ,CLR,,,,,,,,IFR,,,,,,,,,,,,METAR,578
VAAH 220400Z 28003KT 4000 FU FEW080 28/09 Q1011 BECMG 5000,VAAH,2024-03-22T04:00:00Z,23.077,72.635,28,9,280,3,,2.49,29.85,,,,,,,,,,FU,FEW,8000,,,,,,,IFR,,,,,,,,,,,,METAR,52
UWWW 220400Z 19002MPS 130V230 9999 NSC M05/M08 Q1022 R33/CLRD68 NOSIG RMK QFE756/1008,UWWW,2024-03-22T04:00:00Z,53.509,50.163,-5,-8,190,4,,6+,30.18,,,,,,TRUE,,,,,CLR,,,,,,,,VFR,,,,,,,,,,,,METAR,124
UWUU 220400Z 00000MPS CAVOK M07/M12 Q1022 R14R/811050 NOSIG,UWUU,2024-03-22T04:00:00Z,54.57,55.87,-7,-12,0,0,,6+,30.18,,,,,,TRUE,,,,,CAVOK,,,,,,,,VFR,,,,,,,,,,,,METAR,137
UWSG 220400Z 32001MPS 7000 NSC M06/M07 Q1022 R26/CLRD70 NOSIG RMK QFE764/1019,UWSG,2024-03-22T04:00:00Z,51.713,46.171,-6,-7,320,2,,4.35,30.18,,,,,,TRUE,,,,,CLR,,,,,,,,MVFR,,,,,,,,,,,,METAR,31
UWPS 220400Z 13001MPS 5000 2300NE BR NSC M06/M07 Q1021 R20/110058 TEMPO 0200 FZFG VV001 RMK QFE748,UWPS,2024-03-22T04:00:00Z,54.116,45.203,-6,-7,130,2,,3.11,30.15,,,,,,,,,,BR,CLR,,,,,,,,MVFR,,,,,,,,,,,,METAR,206
UWOR 220400Z 22002MPS CAVOK M06/M11 Q1022 R25/CLRD60 NOSIG RMK QFE743/0990,UWOR,2024-03-22T04:00:00Z,51.07,58.597,-6,-11,220,4,,6+,30.18,,,,,,TRUE,,,,,CAVOK,,,,,,,,VFR,,,,,,,,,,,,METAR,270
UWOO 220400Z 09001MPS 7000 NSC M11/M13 Q1023 R26/910255 NOSIG RMK QFE756/1009,UWOO,2024-03-22T04:00:00Z,51.795,55.457,-11,-13,90,2,,4.35,30.21,,,,,,TRUE,,,,,CLR,,,,,,,,MVFR,,,,,,,,,,,,METAR,90
UWLW 220400Z 20002MPS 7000 NSC M11/M12 Q1022 R20/800558 NOSIG RMK QFE761/1015,UWLW,2024-03-22T04:00:00Z,54.402,48.8,-11,-12,200,4,,4.35,30.18,,,,,,TRUE,,,,,CLR,,,,,,,,MVFR,,,,,,,,,,,,METAR,67
UWLL 220400Z 18002MPS CAVOK M12/M14 Q1022 R20/090065 NOSIG RMK QFE756/1008,UWLL,2024-03-22T04:00:00Z,54.274,48.236,-12,-14,180,4,,6+,30.18,,,,,,TRUE,,,,,CAVOK,,,,,,,,VFR,,,,,,,,,,,,METAR,119
UWKS 220400Z 25004MPS CAVOK M03/M07 Q1020 R24/090060 NOSIG RMK QFE750,UWKS,2024-03-22T04:00:00Z,56.09,47.347,-3,-7,250,8,,6+,30.12,,,,,,TRUE,,,,,CAVOK,,,,,,,,VFR,,,,,,,,,,,,METAR,165
UWKE 220400Z 22004MPS CAVOK M05/M07 Q1020 R21/090070 NOSIG RMK QFE749/0998,UWKE,2024-03-22T04:00:00Z,55.566,52.1,-5,-7,220,8,,6+,30.12,,,,,,TRUE,,,,,CAVOK,,,,,,,,VFR,,,,,,,,,,,,METAR,193
UWKD 220400Z 16003MPS CAVOK M09/M11 Q1021 R11/60D NOSIG RMK QFE755/1007,UWKD,2024-03-22T04:00:00Z,55.61,49.275,-9,-11,160,6,,6+,30.15,,,,,,TRUE,,,,,CAVOK,,,,,,,,VFR,,,,,,,,,,,,METAR,114
UWGG 220400Z 18002MPS CAVOK M03/M08 Q1020 R18L/090060 NOSIG,UWGG,2024-03-22T04:00:00Z,56.225,43.786,-3,-8,180,4,,6+,30.12,,,,,,TRUE,,,,,CAVOK,,,,,,,,VFR,,,,,,,,,,,,METAR,73
UUYY 220400Z 23003MPS 9999 -SHSNRA FEW013 BKN017CB 01/00 Q1009 R18/19//55 NOSIG RMK QFE748/0998,UUYY,2024-03-22T04:00:00Z,61.647,50.845,1,0,230,6,,6+,29.79,,,,,,TRUE,,,,-SHSN -SHRA,FEW,1300,BKN,1700,,,,,MVFR,,,,,,,,,,,,METAR,107
UUWW 220400Z 18002MPS CAVOK M06/M08 Q1019 R24/190050 NOSIG,UUWW,2024-03-22T04:00:00Z,55.592,37.261,-6,-8,180,4,,6+,30.09,,,,,,TRUE,,,,,CAVOK,,,,,,,,VFR,,,,,,,,,,,,METAR,195
UUOO 220400Z 32002MPS 3200 BR NSC M06/M07 Q1021 R12/010060 NOSIG RMK QFE751,UUOO,2024-03-22T04:00:00Z,51.814,39.228,-6,-7,320,4,,1.99,30.15,,,,,,TRUE,,,,BR,CLR,,,,,,,,IFR,,,,,,,,,,,,METAR,154
UUOL 220400Z AUTO 33001MPS 3400 BR NCD M10/M11 Q1021,UUOL,2024-03-22T04:00:00Z,52.702,39.534,-10,-11,330,2,,2.11,30.15,,,TRUE,,,,,,,BR,CLR,,,,,,,,IFR,,,,,,,,,,,,METAR,176
UUOK 220400Z 20002MPS 150V230 9999 BKN013 M01/M03 Q1021 R12/////// NOSIG RMK QFE747/0997,UUOK,2024-03-22T04:00:00Z,51.751,36.297,-1,-3,200,4,,6+,30.15,,,,,,TRUE,,,,,BKN,1300,,,,,,,MVFR,,,,,,,,,,,,METAR,203
UUOB 220400Z 36002MPS 9999 BKN024 M01/M02 Q1020 R11/010070 NOSIG,UUOB,2024-03-22T04:00:00Z,50.644,36.59,-1,-2,360,4,,6+,30.12,,,,,,TRUE,,,,,BKN,2400,,,,,,,MVFR,,,,,,,,,,,,METAR,218
UUMO 220400Z 00000MPS CAVOK M06/M08 Q1019 R07/CLRD60 NOSIG RMK QFE750/1000,UUMO,2024-03-22T04:00:00Z,55.512,37.507,-6,-8,0,0,,6+,30.09,,,,,,TRUE,,,,,CAVOK,,,,,,,,VFR,,,,,,,,,,,,METAR,167
UUEE 220400Z 21002MPS CAVOK M02/M07 Q1018 R24L/120057 R24C/120057 NOSIG,UUEE,2024-03-22T04:00:00Z,55.973,37.415,-2,-7,210,4,,6+,30.06,,,,,,TRUE,,,,,CAVOK,,,,,,,,VFR,,,,,,,,,,,,METAR,186
UUDL 220400Z 23001MPS CAVOK M02/M07 Q1017 R23/010060 NOSIG RMK QFE755,UUDL,2024-03-22T04:00:00Z,57.561,40.157,-2,-7,230,2,,6+,30.03,,,,,,TRUE,,,,,CAVOK,,,,,,,,VFR,,,,,,,,,,,,METAR,88
UUDD 220400Z 15002MPS 6000 NSC M06/M09 Q1019 R14R/190050 NOSIG,UUDD,2024-03-22T04:00:00Z,55.409,37.906,-6,-9,150,4,,3.73,30.09,,,,,,TRUE,,,,,CLR,,,,,,,,MVFR,,,,,,,,,,,,METAR,165
UUBW 220400Z 10002MPS 6000 NSC M07/M08 Q1020 R30/010060 NOSIG RMK QFE754,UUBW,2024-03-22T04:00:00Z,55.553,38.15,-7,-8,100,4,,3.73,30.12,,,,,,TRUE,,,,,CLR,,,,,,,,MVFR,,,,,,,,,,,,METAR,111
UUBC 220400Z 15001MPS 4700 BR NSC M07/M08 Q1019 R13/CLRD60 NOSIG RMK QFE746/0995,UUBC,2024-03-22T04:00:00Z,54.552,36.37,-7,-8,150,2,,2.92,30.09,,,,,,TRUE,,,,BR,CLR,,,,,,,,IFR,,,,,,,,,,,,METAR,198
UTTT 220400Z VRB02KT 7000 -SHRA OVC033CB 08/07 Q1019 R26R/29//50 NOSIG,UTTT,2024-03-22T04:00:00Z,41.258,69.281,8,7,VRB,2,,4.35,30.09,,,,,,TRUE,,,,-SHRA,OVC,3300,,,,,,,MVFR,,,,,,,,,,,,METAR,429
UTST 220400Z 29008KT 9999 SCT053CB 14/11 Q1021 R25/CLRD70 NOSIG,UTST,2024-03-22T04:00:00Z,37.287,67.318,14,11,290,8,,6+,30.15,,,,,,TRUE,,,,,SCT,5300,,,,,,,VFR,,,,,,,,,,,,METAR,311
UTSS 220400Z 28014KT 230V310 9999 BKN065CB 08/06 Q1018 R27/19//65 NOSIG,UTSS,2024-03-22T04:00:00Z,39.7,66.974,8,6,280,14,,6+,30.06,,,,,,TRUE,,,,,BKN,6500,,,,,,,VFR,,,,,,,,,,,,METAR,665
UTSK 220400Z 21006KT CAVOK 09/07 Q1021 R16/CLRD70,UTSK,2024-03-22T04:00:00Z,38.804,65.773,9,7,210,6,,6+,30.15,,,,,,,,,,,CAVOK,,,,,,,,VFR,,,,,,,,,,,,METAR,399
UTSB 220400Z 25008KT 9999 OVC013 07/05 Q1021 R19/CLRD70 NOSIG,UTSB,2024-03-22T04:00:00Z,39.775,64.483,7,5,250,8,,6+,30.15,,,,,,TRUE,,,,,OVC,1300,,,,,,,MVFR,,,,,,,,,,,,METAR,225
UTSA 220400Z 24014KT 3700 BR BKN005 06/04 Q1020 R25/29//65 NOSIG RMK BASE530,UTSA,2024-03-22T04:00:00Z,40.116,65.167,6,4,240,14,,2.3,30.12,,,,,,TRUE,,,,BR,BKN,500,,,,,,,IFR,,,,,,,,,,,,METAR,346
UTNU 220400Z 25008KT 9999 BKN006 05/04 Q1019 R31/CLRD70 NOSIG RMK BASE630,UTNU,2024-03-22T04:00:00Z,41.584,60.642,5,4,250,8,,6+,30.09,,,,,,TRUE,,,,,BKN,600,,,,,,,IFR,,,,,,,,,,,,METAR,97
UTNN 220400Z 27006KT CAVOK 04/02 Q1020 R33/CLRD60 NOSIG,UTNN,2024-03-22T04:00:00Z,42.488,59.623,4,2,270,6,,6+,30.12,,,,,,TRUE,,,,,CAVOK,,,,,,,,VFR,,,,,,,,,,,,METAR,76
UTFN 220400Z VRB02KT 9999 NSC 13/08 Q1016 R28/290060 NOSIG,UTFN,2024-03-22T04:00:00Z,40.983,71.573,13,8,VRB,2,,6+,30.00,,,,,,TRUE,,,,,CLR,,,,,,,,VFR,,,,,,,,,,,,METAR,477
UTFF 220400Z VRB02KT 9999 BKN060CB 13/06 Q1016 R18/29//60,UTFF,2024-03-22T04:00:00Z,40.356,71.745,13,6,VRB,2,,6+,30.00,,,,,,,,,,,BKN,6000,,,,,,,VFR,,,,,,,,,,,,METAR,612
UTDT 220400Z VRB01MPS 9999 SCT043CB BKN060 13/11 Q1021 R35/290550 RMK QFE726/0968,UTDT,2024-03-22T04:00:00Z,37.866,68.865,13,11,VRB,2,,6+,30.15,,,,,,,,,,,SCT,4300,BKN,6000,,,,,VFR,,,,,,,,,,,,METAR,443
UTDL 220400Z 25006MPS 9999 SCT046CB OVC086 11/08 Q1018 R26/19//60 NOSIG RMK QFE725/0967,UTDL,2024-03-22T04:00:00Z,40.215,69.695,11,8,250,12,,6+,30.06,,,,,,TRUE,,,,,SCT,4600,OVC,8600,,,,,VFR,,,,,,,,,,,,METAR,436
UTDK 220400Z 23003MPS 3500 -SHRA BR BKN014 BKN019CB OVC038 10/09 Q1024 R01/29//50 RMK QFE710/0946,UTDK,2024-03-22T04:00:00Z,37.988,69.805,10,9,230,6,,2.17,30.24,,,,,,,,,,-SHRA BR,BKN,1400,BKN,1900,OVC,3800,,,IFR,,,,,,,,,,,,METAR,675
UTDD 220400Z 09003MPS 9999 FEW024CB SCT030 BKN040 10/07 Q1022 R09/29//50 NOSIG RMK QFE698/0930,UTDD,2024-03-22T04:00:00Z,38.543,68.825,10,7,90,6,,6+,30.18,,,,,,TRUE,,,,,FEW,2400,SCT,3000,BKN,4000,,,VFR,,,,,,,,,,,,METAR,785
UTAV 220400Z 27008KT 9999 BKN013 08/04 Q1021 R31/CLRD70 NOSIG,UTAV,2024-03-22T04:00:00Z,39.083,63.613,8,4,270,8,,6+,30.15,,,,,,TRUE,,,,,BKN,1300,,,,,,,MVFR,,,,,,,,,,,,METAR,187
UTAT 220400Z 29008KT 6000 OVC003 03/03 Q1020 R26/CLRD70 NOSIG RMK QBB300,UTAT,2024-03-22T04:00:00Z,41.761,59.827,3,3,290,8,,3.73,30.12,,,,,,TRUE,,,,,OVC,300,,,,,,,LIFR,,,,,,,,,,,,METAR,84
UTAM 220400Z 01006KT CAVOK 09/06 Q1022 R88/CLRD70 NOSIG,UTAM,2024-03-22T04:00:00Z,37.619,61.897,9,6,10,6,,6+,30.18,,,,,,TRUE,,,,,CAVOK,,,,,,,,VFR,,,,,,,,,,,,METAR,218
UTAK 220400Z 08012KT 9999 FEW010 07/06 Q1017 R16R/CLRD70 NOSIG,UTAK,2024-03-22T04:00:00Z,40.054,53.007,7,6,80,12,,6+,30.03,,,,,,TRUE,,,,,FEW,1000,,,,,,,VFR,,,,,,,,,,,,METAR,83
UTAA 220400Z 12008KT 9999 NSC 10/06 Q1019 R88/70D NOSIG,UTAA,2024-03-22T04:00:00Z,37.975,58.371,10,6,120,8,,6+,30.09,,,,,,TRUE,,,,,CLR,,,,,,,,VFR,,,,,,,,,,,,METAR,207
USTR 220400Z 25005MPS CAVOK M02/M08 Q1014 R30/090065 R21/090065 NOSIG,USTR,2024-03-22T04:00:00Z,57.19,65.324,-2,-8,250,10,,6+,29.94,,,,,,TRUE,,,,,CAVOK,,,,,,,,VFR,,,,,,,,,,,,METAR,93
USSS 220400Z 28005MPS CAVOK M01/M07 Q1017 R26L/010060 NOSIG RMK QFE742/0989,USSS,2024-03-22T04:00:00Z,56.745,60.792,-1,-7,280,10,,6+,30.03,,,,,,TRUE,,,,,CAVOK,,,,,,,,VFR,,,,,,,,,,,,METAR,222
USRR 220400Z 19004MPS CAVOK M15/M19 Q1013 R25/31//60 NOSIG RMK QFE755,USRR,2024-03-22T04:00:00Z,61.342,73.422,-15,-19,190,8,,6+,29.91,,,,,,TRUE,,,,,CAVOK,,,,,,,,VFR,,,,,,,,,,,,METAR,52
USPP 220400Z 23006MPS CAVOK M01/M05 Q1017 R21/090060 NOSIG RMK QFE752,USPP,2024-03-22T04:00:00Z,57.914,56.021,-1,-5,230,12,,6+,30.03,,,,,,TRUE,,,,,CAVOK,,,,,,,,VFR,,,,,,,,,,,,METAR,120
USNN 220400Z 20001MPS CAVOK M19/M22 Q1016 R21/31//65 NOSIG RMK QFE757,USNN,2024-03-22T04:00:00Z,60.959,76.497,-19,-22,200,2,,6+,30.00,,,,,,TRUE,,,,,CAVOK,,,,,,,,VFR,,,,,,,,,,,,METAR,52
USHH 220400Z 16006MPS 6000 -SN BLSN BKN027 M09/M12 Q1009 R24/490545 TEMPO 1000 SN BKN005,USHH,2024-03-22T04:00:00Z,61.029,69.086,-9,-12,160,12,,3.73,29.79,,,,,,,,,,-SN BLSN,BKN,2700,,,,,,,MVFR,,,,,,,,,,,,METAR,46
USDA 220400Z 35006MPS 9999 BKN013 M21/M24 Q1008 R04/410158 NOSIG RMK QFE755/1006,USDA,2024-03-22T04:00:00Z,71.216,72.05,-21,-24,350,12,,6+,29.76,,,,,,TRUE,,,,,BKN,1300,,,,,,,MVFR,,,,,,,,,,,,METAR,5
USCM 220400Z 23001MPS 9999 NSC M04/M12 Q1020 R18/090060 NOSIG RMK QFE727,USCM,2024-03-22T04:00:00Z,53.393,58.756,-4,-12,230,2,,6+,30.12,,,,,,TRUE,,,,,CLR,,,,,,,,VFR,,,,,,,,,,,,METAR,425
USCC 220400Z 27004MPS CAVOK 00/M08 Q1018 R27/000060 NOSIG RMK QFE744,USCC,2024-03-22T04:00:00Z,55.306,61.503,0,-8,270,8,,6+,30.06,,,,,,TRUE,,,,,CAVOK,,,,,,,,VFR,,,,,,,,,,,,METAR,227
URWW 220400Z 04001MPS 9000 OVC004 M01/M02 Q1019 R05/120060 NOSIG RMK OBST OBSC,URWW,2024-03-22T04:00:00Z,48.788,44.336,-1,-2,40,2,,5.59,30.09,,,,,,TRUE,,,,,OVC,400,,,,,,,LIFR,,,,,,,,,,,,METAR,131
URWI 220400Z AUTO 07004MPS 2600 // ///001/// M01/M01 Q1017 RMK QBB050,URWI,2024-03-22T04:00:00Z,46.374,44.331,-1,-1,70,8,,1.62,30.03,,,TRUE,,,,,,,,,,,,,,,,IFR,,,,,,,,,,,,METAR,145
URWA 220400Z 35002MPS 310V080 9999 OVC014 01/M02 Q1019 R27/010070 NOSIG RMK QFE766/1021,URWA,2024-03-22T04:00:00Z,46.286,47.995,1,-2,350,4,,6+,30.09,,,,,,TRUE,,,,,OVC,1400,,,,,,,MVFR,,,,,,,,,,,,METAR,-19
URSS 220400Z 04001MPS 8000 -SHRA SCT015 OVC021CB 07/07 Q1011 R02/290060 R06/290060 NOSIG RMK R06/07002MPS MT OBSC QFE757,URSS,2024-03-22T04:00:00Z,43.438,39.926,7,7,40,2,,4.97,29.85,,,,,,TRUE,,,,-SHRA,SCT,1500,OVC,2100,,,,,MVFR,,,,,,,,,,,,METAR,4
URRP 220400Z 06004MPS 9999 FEW/// BKN021 00/M03 Q1018 R05/CLRD70 NOSIG RMK QFE759/1012,URRP,2024-03-22T04:00:00Z,47.494,39.925,0,-3,60,8,,6+,30.06,,,,,,TRUE,,,,,BKN,2100,,,,,,,MVFR,,,,,,,,,,,,METAR,73
URMT 220400Z 11007MPS 0500 R07/0800N FG VV002 01/01 Q1013 R07/150060 NOSIG RMK QBB070 OBST OBSC QFE720,URMT,2024-03-22T04:00:00Z,45.108,42.1,1,1,110,14,,0.31,29.91,,,,,,TRUE,,,,FG,OVX,0,,,,,,,LIFR,,,,,,,,,,,200,METAR,448
URMO 220400Z 08004MPS 1800 BR OVC001 02/02 Q1013 R09/010070 NOSIG RMK QBB050 MT OBSC QFE716/0955,URMO,2024-03-22T04:00:00Z,43.204,44.608,2,2,80,8,,1.12,29.91,,,,,,TRUE,,,,BR,OVC,100,,,,,,,LIFR,,,,,,,,,,,,METAR,505
URMN 220400Z 08002MPS 0500 -DZ FG VV001 02/02 Q1012 R24/////// NOSIG RMK QBB040 MT OBSC OBST OBSC QFE723,URMN,2024-03-22T04:00:00Z,43.514,43.646,2,2,80,4,,0.31,29.88,,,,,,TRUE,,,,-DZ FG,OVX,0,,,,,,,LIFR,,,,,,,,,,,100,METAR,424
URMM 220400Z 10006MPS 3700 -DZ BR OVC003 03/02 Q1014 R11/290150 NOSIG RMK MT OBSC OBST OBSC QFE732/0976,URMM,2024-03-22T04:00:00Z,44.225,43.082,3,2,100,12,,2.3,29.94,,,,,,TRUE,,,,-DZ BR,OVC,300,,,,,,,LIFR,,,,,,,,,,,,METAR,318
URML 220400Z 15007MPS 9000 OVC011 05/05 Q1016 R14/01//70 NOSIG RMK MT OBSC QFE762/1016,URML,2024-03-22T04:00:00Z,42.817,47.652,5,5,150,14,,5.59,30.00,,,,,,TRUE,,,,,OVC,1100,,,,,,,MVFR,,,,,,,,,,,,METAR,4
URMG 220400Z 07005MPS 7000 BKN004 OVC022 03/03 Q1015 R08/090070 NOSIG RMK MT OBSC OBST OBSC QFE746/0995,URMG,2024-03-22T04:00:00Z,43.387,45.702,3,3,70,10,,4.35,29.97,,,,,,TRUE,,,,,BKN,400,OVC,2200,,,,,LIFR,,,,,,,,,,,,METAR,160
URKK 220400Z 04004MPS 9999 SCT///CB 03/02 Q1014 R05R/290060 NOSIG RMK QFE757,URKK,2024-03-22T04:00:00Z,45.033,39.15,3,2,40,8,,6+,29.94,,,,,,TRUE,,,,,,,,,,,,,VFR,,,,,,,,,,,,METAR,29
URKA 220400Z 05005MPS 020V080 CAVOK 02/M00 Q1013 R04/010070 NOSIG RMK QFE756/1008,URKA,2024-03-22T04:00:00Z,44.995,37.341,2,0,50,10,,6+,29.91,,,,,,TRUE,,,,,CAVOK,,,,,,,,VFR,,,,,,,,,,,,METAR,41
UOOO 220400Z 07003MPS CAVOK M27/M30 Q1001 R01/420360 NOSIG RMK QFE736/0982,UOOO,2024-03-22T04:00:00Z,69.308,87.322,-27,-30,70,6,,6+,29.56,,,,,,TRUE,,,,,CAVOK,,,,,,,,VFR,,,,,,,,,,,,METAR,177
UNWW 220400Z 21007MPS 9999 BKN036CB M04/M11 Q1014 R19/920249 NOSIG RMK QFE734,UNWW,2024-03-22T04:00:00Z,53.811,86.878,-4,-11,210,14,,6+,29.94,,,,,,TRUE,,,,,BKN,3600,,,,,,,VFR,,,,,,,,,,,,METAR,307
UNTT 220400Z 11003MPS 9999 BKN049 M08/M13 Q1014 R03/490245 NOSIG RMK QFE744,UNTT,2024-03-22T04:00:00Z,56.381,85.207,-8,-13,110,6,,6+,29.94,,,,,,TRUE,,,,,BKN,4900,,,,,,,VFR,,,,,,,,,,,,METAR,179
UNOO 220400Z 24002MPS CAVOK M06/M09 Q1018 R25/CLRD60 NOSIG RMK QFE755,UNOO,2024-03-22T04:00:00Z,54.964,73.32,-6,-9,240,4,,6+,30.06,,,,,,TRUE,,,,,CAVOK,,,,,,,,VFR,,,,,,,,,,,,METAR,85
UNNT 220400Z 27007MPS 9999 OVC027 M04/M09 Q1015 R25/150055 R16/////// NOSIG RMK QFE751/1001,UNNT,2024-03-22T04:00:00Z,55.013,82.651,-4,-9,270,14,,6+,29.97,,,,,,TRUE,,,,,OVC,2700,,,,,,,MVFR,,,,,,,,,,,,METAR,106
UNKL 220400Z 32004MPS 9999 -SHSN SCT032CB M10/M17 Q1014 R29/CLRD65 NOSIG RMK QFE735,UNKL,2024-03-22T04:00:00Z,56.173,92.493,-10,-17,320,8,,6+,29.94,,,,,,TRUE,,,,-SHSN,SCT,3200,,,,,,,VFR,,,,,,,,,,,,METAR,278
UNEE 220400Z 08002MPS 3600 -SN OVC039 M07/M09 Q1013 R23/490335 NOSIG RMK QFE737,UNEE,2024-03-22T04:00:00Z,55.27,86.107,-7,-9,80,4,,2.24,29.91,,,,,,TRUE,,,,-SN,OVC,3900,,,,,,,IFR,,,,,,,,,,,,METAR,261
UNBB 220400Z 23007MPS CAVOK M04/M12 Q1017 R24/190060 NOSIG RMK QFE740,UNBB,2024-03-22T04:00:00Z,53.362,83.54,-4,-12,230,14,,6+,30.03,,,,,,TRUE,,,,,CAVOK,,,,,,,,VFR,,,,,,,,,,,,METAR,249
UNAA 220400Z 19007MPS CAVOK M03/M11 Q1015 R20/CLRD65 NOSIG RMK QFE739,UNAA,2024-03-22T04:00:00Z,53.74,91.385,-3,-11,190,14,,6+,29.97,,,,,,TRUE,,,,,CAVOK,,,,,,,,VFR,,,,,,,,,,,,METAR,249
UMOO 220400Z 15002MPS 3000 BR NSC M02/M03 Q1018 TEMPO 2000,UMOO,2024-03-22T04:00:00Z,53.954,30.1,-2,-3,150,4,,1.86,30.06,,,,,,,,,,BR,CLR,,,,,,,,IFR,,,,,,,,,,,,METAR,188
UMMG 220400Z 20003MPS 2100 -DZ BR OVC003 05/05 Q1016 NOSIG RMK QBB090,UMMG,2024-03-22T04:00:00Z,53.602,24.056,5,5,200,6,,1.3,30.00,,,,,,TRUE,,,,-DZ BR,OVC,300,,,,,,,LIFR,,,,,,,,,,,,METAR,125
UMKK 220400Z 26003MPS 5000 BR FEW004 OVC035 04/04 Q1016 R24/290095 NOSIG RMK QBB120 OBST OBSC QFE761/1014,UMKK,2024-03-22T04:00:00Z,54.885,20.583,4,4,260,6,,3.11,30.00,,,,,,TRUE,,,,BR,FEW,400,OVC,3500,,,,,MVFR,,,,,,,,,,,,METAR,6
UMIO 220400Z 17001MPS CAVOK M01/M02 Q1017 NOSIG RMK QFE745/0994,UMIO,2024-03-22T04:00:00Z,54.44,30.297,-1,-2,170,2,,6+,30.03,,,,,,TRUE,,,,,CAVOK,,,,,,,,VFR,,,,,,,,,,,,METAR,189
UMGG 220400Z 15003MPS 1300 BR FEW002 SCT044 M00/M01 Q1019 TEMPO 0900 FG RMK QBB080,UMGG,2024-03-22T04:00:00Z,52.525,31.015,0,-1,150,6,,0.81,30.09,,,,,,,,,,BR,FEW,200,SCT,4400,,,,,LIFR,,,,,,,,,,,,METAR,135
UMBB 220400Z 18002MPS 4300 BR OVC018CB 05/05 Q1016 NOSIG,UMBB,2024-03-22T04:00:00Z,52.109,23.897,5,5,180,4,,2.67,30.00,,,,,,TRUE,,,,BR,OVC,1800,,,,,,,IFR,,,,,,,,,,,,METAR,138
ULWC 220400Z 00000MPS 9999 SCT033 M02/M03 Q1014 R21/010054 NOSIG RMK QFE750/1000,ULWC,2024-03-22T04:00:00Z,59.281,38.019,-2,-3,0,0,,6+,29.94,,,,,,TRUE,,,,,SCT,3300,,,,,,,VFR,,,,,,,,,,,,METAR,113
ULPB 220400Z AUTO 21003MPS 9999 -RA ///036/// 01/01 Q1009 RMK QFE753/1004,ULPB,2024-03-22T04:00:00Z,61.885,34.155,1,1,210,6,,6+,29.79,,,TRUE,,,,,,,-RA,,,,,,,,,VFR,,,,,,,,,,,,METAR,41
ULOO 220400Z 17003MPS 9999 BKN015 OVC049 03/02 Q1012 R19/290050 NOSIG RMK QFE755,ULOO,2024-03-22T04:00:00Z,57.79,28.397,3,2,170,6,,6+,29.88,,,,,,TRUE,,,,,BKN,1500,OVC,4900,,,,,MVFR,,,,,,,,,,,,METAR,46
ULMM 220400Z 24001MPS 9999 BKN025 M06/M10 Q1008 R31/650149 NOSIG RMK QFE749,ULMM,2024-03-22T04:00:00Z,68.781,32.749,-6,-10,240,2,,6+,29.76,,,,,,TRUE,,,,,BKN,2500,,,,,,,MVFR,,,,,,,,,,,,METAR,79
ULLI 220400Z 19002MPS 140V250 9999 -RA OVC016 04/02 Q1010 R28L/290050 NOSIG,ULLI,2024-03-22T04:00:00Z,59.798,30.267,4,2,190,4,,6+,29.82,,,,,,TRUE,,,,-RA,OVC,1600,,,,,,,MVFR,,,,,,,,,,,,METAR,25
ULAA 220400Z 27004MPS 180V300 7000 -SHSN OVC010CB M00/M00 Q1006 R26/590350 NOSIG RMK QFE753/1004,ULAA,2024-03-22T04:00:00Z,64.599,40.712,0,0,270,8,,4.35,29.70,,,,,,TRUE,,,,-SHSN,OVC,1000,,,,,,,MVFR,,,,,,,,,,,,METAR,10
UIUU 220400Z 05006MPS 9999 BKN031CB M03/M10 Q1009 R26/60D NOSIG RMK MT OBSC QFE713/0950,UIUU,2024-03-22T04:00:00Z,51.808,107.443,-3,-10,50,12,,6+,29.79,,,,,,TRUE,,,,,BKN,3100,,,,,,,VFR,,,,,,,,,,,,METAR,508
UIII 220400Z 01002MPS 340V040 9000 -SHSN BKN040CB M08/M14 Q1014 R30/690237 NOSIG RMK QFE716/0955,UIII,2024-03-22T04:00:00Z,52.273,104.38,-8,-14,10,4,,5.59,29.94,,,,,,TRUE,,,,-SHSN,BKN,4000,,,,,,,VFR,,,,,,,,,,,,METAR,480
UIBB 220400Z 24005MPS 200V280 9999 SCT041CB M12/M19 Q1012 R30/420345 NOSIG RMK QFE716/0955,UIBB,2024-03-22T04:00:00Z,56.365,101.716,-12,-19,240,10,,6+,29.88,,,,,,TRUE,,,,,SCT,4100,,,,,,,VFR,,,,,,,,,,,,METAR,485
UIAA 220400Z 34003MPS 300V040 9999 NSC 06/M11 Q1001 R29/70D NOSIG RMK QFE693/0924,UIAA,2024-03-22T04:00:00Z,52.026,113.31,6,-11,340,6,,6+,29.56,,,,,,TRUE,,,,,CLR,,,,,,,,VFR,,,,,,,,,,,,METAR,650
UHWW 220400Z 19006MPS 9999 FEW046 06/M08 Q1019 R25L/0///70 TEMPO 22007G12MPS RMK QFE763,UHWW,2024-03-22T04:00:00Z,43.399,132.146,6,-8,190,12,,6+,30.09,,,,,,,,,,,FEW,4600,,,,,,,VFR,,,,,,,,,,,,METAR,11
UHSS 220400Z 21002MPS 9999 NSC 04/M07 Q1014 R01/70D NOSIG RMK QFE759/1013,UHSS,2024-03-22T04:00:00Z,46.887,142.719,4,-7,210,4,,6+,29.94,,,,,,TRUE,,,,,CLR,,,,,,,,VFR,,,,,,,,,,,,METAR,14
UHPP 220400Z 22003MPS CAVOK 03/M14 Q0999 R34L/CLRD60 NOSIG RMK QFE745/0994,UHPP,2024-03-22T04:00:00Z,53.175,158.444,3,-14,220,6,,6+,29.50,,,,,,TRUE,,,,,CAVOK,,,,,,,,VFR,,,,,,,,,,,,METAR,33
UHMM 220400Z 35001MPS 9999 NSC M01/M18 Q1007 R10/82//65 NOSIG RMK QFE740 R28/06002MPS 030V100,UHMM,2024-03-22T04:00:00Z,59.911,150.725,-1,-18,350,2,,6+,29.73,,,,,,TRUE,,,,,CLR,,,,,,,,VFR,,,,,,,,,,,,METAR,175
UHMD 220400Z 00000MPS 6000 BCFG SCT080 M06/M09 Q1000 RMK QFE749/0999,UHMD,2024-03-22T04:00:00Z,64.378,-173.243,-6,-9,0,0,,3.73,29.53,,,,,,,,,,BCFG,SCT,8000,,,,,,,MVFR,,,,,,,,,,,,METAR,40
UHMA 220400Z 01004MPS CAVOK M19/M23 Q0999 R02/410160 NOSIG RMK MID 01004MPS END R02/36003MPS QFE745/0994,UHMA,2024-03-22T04:00:00Z,64.733,177.739,-19,-23,10,8,,6+,29.50,,,,,,TRUE,,,,,CAVOK,,,,,,,,VFR,,,,,,,,,,,,METAR,53
UHHH 220400Z 25006MPS CAVOK 02/M10 Q1016 R23R/090060 NOSIG RMK QFE756/1008,UHHH,2024-03-22T04:00:00Z,48.527,135.184,2,-10,250,12,,6+,30.00,,,,,,TRUE,,,,,CAVOK,,,,,,,,VFR,,,,,,,,,,,,METAR,74
UHBB 220400Z 17007G12MPS CAVOK 02/M11 Q1011 R18L/090062 NOSIG RMK QFE743/0991,UHBB,2024-03-22T04:00:00Z,50.425,127.412,2,-11,170,14,23,6+,29.85,,,,,,TRUE,,,,,CAVOK,,,,,,,,VFR,,,,,,,,,,,,METAR,185
UGTB 220400Z 15003KT 9999 FEW008 BKN019 07/07 Q1014 NOSIG,UGTB,2024-03-22T04:00:00Z,41.669,44.955,7,7,150,3,,6+,29.94,,,,,,TRUE,,,,,FEW,800,BKN,1900,,,,,MVFR,,,,,,,,,,,,METAR,468
UGSB 220400Z 22010KT 180V250 4500 -DZ BR SCT007 OVC016 08/07 Q1012 NOSIG,UGSB,2024-03-22T04:00:00Z,41.61,41.6,8,7,220,10,,2.8,29.88,,,,,,TRUE,,,,-DZ BR,SCT,700,OVC,1600,,,,,IFR,,,,,,,,,,,,METAR,32
UGMS 220400Z 05006KT 360V120 9999 OVC100 03/M01 Q1011,UGMS,2024-03-22T04:00:00Z,43.055,42.75,3,-1,50,6,,6+,29.85,,,,,,,,,,,OVC,10000,,,,,,,VFR,,,,,,,,,,,,METAR,1442
UGKO 220400Z 29006KT 9999 SCT043 BKN048 08/07 Q1011 NOSIG,UGKO,2024-03-22T04:00:00Z,42.177,42.483,8,7,290,6,,6+,29.85,,,,,,TRUE,,,,,SCT,4300,BKN,4800,,,,,VFR,,,,,,,,,,,,METAR,44
UGAM 220400Z AUTO 00000KT //// ////// 08/08 Q1011,UGAM,2024-03-22T04:00:00Z,42.527,43.135,8,8,0,0,,,29.85,,,TRUE,,,,,,,,,,,,,,,,VFR,,,,,,,,,,,,METAR,544
UERR 220400Z 29004MPS CAVOK M13/M23 Q1003 R25/810545 NOSIG RMK QFE721/0962,UERR,2024-03-22T04:00:00Z,62.538,114.056,-13,-23,290,8,,6+,29.62,,,,,,TRUE,,,,,CAVOK,,,,,,,,VFR,,,,,,,,,,,,METAR,352
UERP 220400Z 25004MPS CAVOK M17/M21 Q0996 R35/850245 NOSIG RMK QFE703,UERP,2024-03-22T04:00:00Z,66.4,112.03,-17,-21,250,8,,6+,29.41,,,,,,TRUE,,,,,CAVOK,,,,,,,,VFR,,,,,,,,,,,,METAR,514
UEEE 220400Z 34002MPS 9999 -SHSN BKN015CB M05/M08 Q0996 R23/420144 NOSIG RMK QFE738,UEEE,2024-03-22T04:00:00Z,62.093,129.774,-5,-8,340,4,,6+,29.41,,,,,,TRUE,,,,-SHSN,BKN,1500,,,,,,,MVFR,,,,,,,,,,,,METAR,106
UDYZ 220400Z 03003KT 9999 NSC 07/04 Q1010 NOSIG,UDYZ,2024-03-22T04:00:00Z,40.147,44.396,7,4,30,3,,6+,29.82,,,,,,TRUE,,,,,CLR,,,,,,,,VFR,,,,,,,,,,,,METAR,851
UDSG 220400Z 23003KT 9999 OVC040 02/02 Q1010 NOSIG,UDSG,2024-03-22T04:00:00Z,40.75,43.859,2,2,230,3,,6+,29.82,,,,,,TRUE,,,,,OVC,4000,,,,,,,VFR,,,,,,,,,,,,METAR,1515
UCFO 220400Z 05003MPS 9999 SCT050CB 11/08 Q1016 NOSIG,UCFO,2024-03-22T04:00:00Z,40.61,72.791,11,8,50,6,,6+,30.00,,,,,,TRUE,,,,,SCT,5000,,,,,,,VFR,,,,,,,,,,,,METAR,881
UCFM 220400Z 20003MPS 9999 SHRA BKN033CB 09/07 Q1015 NOSIG,UCFM,2024-03-22T04:00:00Z,43.061,74.478,9,7,200,6,,6+,29.97,,,,,,TRUE,,,,SHRA,BKN,3300,,,,,,,VFR,,,,,,,,,,,,METAR,632
UCFL 220400Z 04004MPS 9999 BKN030CB 06/03 Q1014,UCFL,2024-03-22T04:00:00Z,42.585,76.702,6,3,40,8,,6+,29.94,,,,,,,,,,,BKN,3000,,,,,,,MVFR,,,,,,,,,,,,METAR,1654
UBEE 220400Z 17004KT 3000 BR OVC013 08/08 Q1015 NOSIG,UBEE,2024-03-22T04:00:00Z,40.632,47.142,8,8,170,4,,1.86,29.97,,,,,,TRUE,,,,BR,OVC,1300,,,,,,,IFR,,,,,,,,,,,,METAR,14
UBBY 220400Z 16004KT 9999 SCT004 OVC018 07/07 Q1017 NOSIG RMK MT OBSC,UBBY,2024-03-22T04:00:00Z,41.561,46.667,7,7,160,4,,6+,30.03,,,,,,TRUE,,,,,SCT,400,OVC,1800,,,,,MVFR,,,,,,,,,,,,METAR,383
UBBQ 220400Z 13002KT 9999 OVC021 08/07 Q1014 NOSIG RMK MT OBSC,UBBQ,2024-03-22T04:00:00Z,40.809,47.729,8,7,130,2,,6+,29.94,,,,,,TRUE,,,,,OVC,2100,,,,,,,MVFR,,,,,,,,,,,,METAR,339
UBBL 220400Z 15010KT 6000 -RA OVC013 11/11 Q1015 NOSIG,UBBL,2024-03-22T04:00:00Z,38.746,48.818,11,11,150,10,,3.73,29.97,,,,,,TRUE,,,,-RA,OVC,1300,,,,,,,MVFR,,,,,,,,,,,,METAR,-11
UBBF 220400Z AUTO 35004KT 320V020 7000 0450N // ///002/// 06/06 Q1014,UBBF,2024-03-22T04:00:00Z,39.595,47.196,6,6,350,4,,4.35,29.94,,,TRUE,,,,,,,,,,,,,,,,MVFR,,,,,,,,,,,,METAR,370
UBBB 220400Z 14014KT 9999 BKN008 OVC037 08/07 Q1016 NOSIG,UBBB,2024-03-22T04:00:00Z,40.469,50.061,8,7,140,14,,6+,30.00,,,,,,TRUE,,,,,BKN,800,OVC,3700,,,,,IFR,,,,,,,,,,,,METAR,94
UAUU 220400Z 20003MPS CAVOK M12/M14 Q1021 NOSIG RMK QFE750/1000,UAUU,2024-03-22T04:00:00Z,53.215,63.553,-12,-14,200,6,,6+,30.15,,,,,,TRUE,,,,,CAVOK,,,,,,,,VFR,,,,,,,,,,,,METAR,177
UATT 220400Z 08002MPS CAVOK M10/M13 Q1022 NOSIG RMK QFE747/0996,UATT,2024-03-22T04:00:00Z,50.248,57.203,-10,-13,80,4,,6+,30.18,,,,,,TRUE,,,,,CAVOK,,,,,,,,VFR,,,,,,,,,,,,METAR,217
UATG 220400Z 20003MPS 5000 BR SCT033 M00/M01 Q1018 NOSIG RMK QFE765/1020,UATG,2024-03-22T04:00:00Z,47.122,51.829,0,-1,200,6,,3.11,30.06,,,,,,TRUE,,,,BR,SCT,3300,,,,,,,MVFR,,,,,,,,,,,,METAR,-23
UATE 220400Z 06002MPS 040V110 8000 OVC015 04/03 Q1018 NOSIG RMK QFE762/1016,UATE,2024-03-22T04:00:00Z,43.86,51.092,4,3,60,4,,4.97,30.06,,,,,,TRUE,,,,,OVC,1500,,,,,,,MVFR,,,,,,,,,,,,METAR,21
UASS 220400Z 27002MPS 230V290 CAVOK M02/M08 Q1021 NOSIG RMK QFE747/0996,UASS,2024-03-22T04:00:00Z,50.352,80.228,-2,-8,270,4,,6+,30.15,,,,,,TRUE,,,,,CAVOK,,,,,,,,VFR,,,,,,,,,,,,METAR,215
UASP 220400Z 25006MPS CAVOK M01/M05 Q1020 NOSIG RMK QFE754/1005,UASP,2024-03-22T04:00:00Z,52.202,77.078,-1,-5,250,12,,6+,30.12,,,,,,TRUE,,,,,CAVOK,,,,,,,,VFR,,,,,,,,,,,,METAR,122
UARR 220400Z 34003MPS 320V020 CAVOK M11/M14 Q1022 NOSIG RMK QFE763/1018,UARR,2024-03-22T04:00:00Z,51.151,51.541,-11,-14,340,6,,6+,30.18,,,,,,TRUE,,,,,CAVOK,,,,,,,,VFR,,,,,,,,,,,,METAR,33
UAOO 220400Z 06006MPS 9999 BKN007 OVC020 03/01 Q1016 NOSIG RMK QFE750/1001,UAOO,2024-03-22T04:00:00Z,44.707,65.593,3,1,60,12,,6+,30.00,,,,,,TRUE,,,,,BKN,700,OVC,2000,,,,,IFR,,,,,,,,,,,,METAR,130
UAKK 220400Z 08003MPS CAVOK M06/M08 Q1019 NOSIG RMK QFE717/0956,UAKK,2024-03-22T04:00:00Z,49.672,73.333,-6,-8,80,6,,6+,30.09,,,,,,TRUE,,,,,CAVOK,,,,,,,,VFR,,,,,,,,,,,,METAR,532
UAKD 220400Z 05007MPS CAVOK M03/M07 Q1019 NOSIG RMK QFE730/0974,UAKD,2024-03-22T04:00:00Z,47.711,67.739,-3,-7,50,14,,6+,30.09,,,,,,TRUE,,,,,CAVOK,,,,,,,,VFR,,,,,,,,,,,,METAR,379
UAIT 220400Z 25004MPS 9999 BKN005 OVC020CB 07/06 Q1016 NOSIG RMK QBB150 QFE735/0980,UAIT,2024-03-22T04:00:00Z,43.311,68.55,7,6,250,8,,6+,30.00,,,,,,TRUE,,,,,BKN,500,OVC,2000,,,,,IFR,,,,,,,,,,,,METAR,301
UAII 220400Z 22007MPS 9999 -SHRA BKN008 OVC023CB 07/06 Q1017 NOSIG RMK QFE728/0970,UAII,2024-03-22T04:00:00Z,42.366,69.476,7,6,220,14,,6+,30.03,,,,,,TRUE,,,,-SHRA,BKN,800,OVC,2300,,,,,IFR,,,,,,,,,,,,METAR,410
UADD 220400Z 00000MPS 9999 -SHRA BKN028CB OVC100 08/06 Q1015 NOSIG RMK QFE704/0939,UADD,2024-03-22T04:00:00Z,42.854,71.304,8,6,0,0,,6+,29.97,,,,,,TRUE,,,,-SHRA,BKN,2800,OVC,10000,,,,,MVFR,,,,,,,,,,,,METAR,663
UACP 220400Z 23005MPS CAVOK M08/M13 Q1017 NOSIG RMK QFE750/1001,UACP,2024-03-22T04:00:00Z,54.775,69.183,-8,-13,230,10,,6+,30.03,,,,,,TRUE,,,,,CAVOK,,,,,,,,VFR,,,,,,,,,,,,METAR,134
UACK 220400Z 22003MPS CAVOK M04/M09 Q1019 NOSIG RMK QFE741/0988,UACK,2024-03-22T04:00:00Z,53.332,69.594,-4,-9,220,6,,6+,30.09,,,,,,TRUE,,,,,CAVOK,,,,,,,,VFR,,,,,,,,,,,,METAR,261
UACC 220400Z VRB01MPS 1500 R04/1500 BR SCT005 M08/M10 Q1021 NOSIG RMK QBB150 QFE734/0979,UACC,2024-03-22T04:00:00Z,51.024,71.468,-8,-10,VRB,2,,0.93,30.15,,,,,,TRUE,,,,BR,SCT,500,,,,,,,LIFR,,,,,,,,,,,,METAR,354
UAAT 220400Z 20007MPS 9999 OVC025CB 09/06 Q1012 NOSIG RMK QFE708/0944,UAAT,2024-03-22T04:00:00Z,45.121,78.445,9,6,200,14,,6+,29.88,,,,,,TRUE,,,,,OVC,2500,,,,,,,MVFR,,,,,,,,,,,,METAR,588
UAAH 220400Z 05008MPS CAVOK 00/M05 Q1016 NOSIG RMK QFE724/0966,UAAH,2024-03-22T04:00:00Z,46.893,75.005,0,-5,50,16,,6+,30.00,,,,,,TRUE,,,,,CAVOK,,,,,,,,VFR,,,,,,,,,,,,METAR,427
UAAA 220400Z 18006MPS 9999 -SHRA BKN050CB OVC100 11/05 Q1015 NOSIG,UAAA,2024-03-22T04:00:00Z,43.35,77.027,11,5,180,12,,6+,29.97,,,,,,TRUE,,,,-SHRA,BKN,5000,OVC,10000,,,,,VFR,,,,,,,,,,,,METAR,673
TTPP 220400Z 12002KT 9999 FEW018 25/23 Q1013 NOSIG,TTPP,2024-03-22T04:00:00Z,10.593,-61.348,25,23,120,2,,6+,29.91,,,,,,TRUE,,,,,FEW,1800,,,,,,,VFR,,,,,,,,,,,,METAR,11
TTCP 220400Z 07005KT 9999 FEW018 26/22 Q1013 NOSIG,TTCP,2024-03-22T04:00:00Z,11.149,-60.836,26,22,70,5,,6+,29.91,,,,,,TRUE,,,,,FEW,1800,,,,,,,VFR,,,,,,,,,,,,METAR,13
TNCM 220400Z 04006KT 9999 FEW018 26/23 Q1017 ,TNCM,2024-03-22T04:00:00Z,18.041,-63.109,26,23,40,6,,6+,30.03,,,,,,,,,,,FEW,1800,,,,,,,VFR,,,,,,,,,,,,METAR,9
TNCC 220400Z 09009KT 9999 FEW018 27/24 Q1014 NOSIG,TNCC,2024-03-22T04:00:00Z,12.189,-68.96,27,24,90,9,,6+,29.94,,,,,,TRUE,,,,,FEW,1800,,,,,,,VFR,,,,,,,,,,,,METAR,10
TLPL 220400Z 09012KT 9999 BKN025 27/22 Q1014 NOSIG,TLPL,2024-03-22T04:00:00Z,13.743,-60.948,27,22,90,12,,6+,29.94,,,,,,TRUE,,,,,BKN,2500,,,,,,,MVFR,,,,,,,,,,,,METAR,13
TGPY 220400Z 06011KT 9999 FEW020 26/23 Q1013 NOSIG ,TGPY,2024-03-22T04:00:00Z,12.006,-61.797,26,23,60,11,,6+,29.91,,,,,,TRUE,,,,,FEW,2000,,,,,,,VFR,,,,,,,,,,,,METAR,12
TFFR 220400Z AUTO 00000KT 9999 ///TCU 23/22 Q1015 TEMPO 4000 SHRA,TFFR,2024-03-22T04:00:00Z,16.265,-61.532,23,22,0,0,,6+,29.97,,,TRUE,,,,,,,,,,,,,,,,VFR,,,,,,,,,,,,METAR,6
TFFJ 220400Z AUTO 05011KT CAVOK 27/22 Q1016,TFFJ,2024-03-22T04:00:00Z,17.904,-62.844,27,22,50,11,,6+,30.00,,,TRUE,,,,,,,,CAVOK,,,,,,,,VFR,,,,,,,,,,,,METAR,13
TFFF 220400Z AUTO VRB01KT 9999 FEW028 24/22 Q1015 TEMPO 4000 SHRA BKN018TCU,TFFF,2024-03-22T04:00:00Z,14.591,-61.003,24,22,VRB,1,,6+,29.97,,,TRUE,,,,,,,,FEW,2800,,,,,,,VFR,,,,,,,,,,,,METAR,3
TBPB 220400Z 09010KT 9999 FEW022 26/22 Q1014 NOSIG,TBPB,2024-03-22T04:00:00Z,13.075,-59.492,26,22,90,10,,6+,29.94,,,,,,TRUE,,,,,FEW,2200,,,,,,,VFR,,,,,,,,,,,,METAR,55
TAPA 220400Z VRB01KT 9999 VCSH SCT018 SCT036 24/21 Q1016 NOSIG,TAPA,2024-03-22T04:00:00Z,17.135,-61.797,24,21,VRB,1,,6+,30.00,,,,,,TRUE,,,,VCSH,SCT,1800,SCT,3600,,,,,VFR,,,,,,,,,,,,METAR,15
SYCJ 220400Z 05004KT CAVOK 24/22 Q1012 NOSIG,SYCJ,2024-03-22T04:00:00Z,6.499,-58.254,24,22,50,4,,6+,29.88,,,,,,TRUE,,,,,CAVOK,,,,,,,,VFR,,,,,,,,,,,,METAR,30
SUMU 220400Z 00000KT 9999 FEW020 BKN040 15/10 Q1022 NOSIG,SUMU,2024-03-22T04:00:00Z,-34.838,-56.031,15,10,0,0,,6+,30.18,,,,,,TRUE,,,,,FEW,2000,BKN,4000,,,,,VFR,,,,,,,,,,,,METAR,32
SULS 220400Z 19007KT 9999 FEW040 SCT050 16/09 Q1021,SULS,2024-03-22T04:00:00Z,-34.855,-55.094,16,9,190,7,,6+,30.15,,,,,,,,,,,FEW,4000,SCT,5000,,,,,VFR,,,,,,,,,,,,METAR,22
SPZO 220400Z 10003KT 9999 SCT046 BKN080 12/10 Q1033 NOSIG RMK BIRD HAZARD RWY 10/28 PP000,SPZO,2024-03-22T04:00:00Z,-13.536,-71.939,12,10,100,3,,6+,30.50,,,,,,TRUE,,,,,SCT,4600,BKN,8000,,,,,VFR,,,,,,,,,,,,METAR,3249
SPUR 220400Z 17006KT 9999 BKN040 28/20 Q1014 RMK PP000,SPUR,2024-03-22T04:00:00Z,-5.206,-80.616,28,20,170,6,,6+,29.94,,,,,,,,,,,BKN,4000,,,,,,,VFR,,,,,,,,,,,,METAR,30
SPTN 220400Z 23002KT CAVOK 21/16 Q1015 RMK PP000,SPTN,2024-03-22T04:00:00Z,-18.049,-70.277,21,16,230,2,,6+,29.97,,,,,,,,,,,CAVOK,,,,,,,,VFR,,,,,,,,,,,,METAR,459
SPSO 220400Z 22004KT CAVOK 22/20 Q1013 RMK PP000,SPSO,2024-03-22T04:00:00Z,-13.744,-76.221,22,20,220,4,,6+,29.91,,,,,,,,,,,CAVOK,,,,,,,,VFR,,,,,,,,,,,,METAR,8
SPRU 220400Z 13004KT 9000 VCFG BKN100 23/20 Q1013 RMK PP000,SPRU,2024-03-22T04:00:00Z,-8.087,-79.109,23,20,130,4,,5.59,29.91,,,,,,,,,,VCFG,BKN,10000,,,,,,,VFR,,,,,,,,,,,,METAR,23
SPQT 220400Z 18003KT 150V230 9999 FEW040 BKN100 27/26 Q1009 NOSIG RMK PP000,SPQT,2024-03-22T04:00:00Z,-3.786,-73.306,27,26,180,3,,6+,29.79,,,,,,TRUE,,,,,FEW,4000,BKN,10000,,,,,VFR,,,,,,,,,,,,METAR,92
SPJC 220400Z 16008KT CAVOK 23/20 Q1013 NOSIG RMK PP000,SPJC,2024-03-22T04:00:00Z,-12.024,-77.113,23,20,160,8,,6+,29.91,,,,,,TRUE,,,,,CAVOK,,,,,,,,VFR,,,,,,,,,,,,METAR,26
SPHI 220400Z 22007KT 9999 FEW050 24/20 Q1014 RMK BIRD HAZARD RWY 19/01 PP000,SPHI,2024-03-22T04:00:00Z,-6.787,-79.828,24,20,220,7,,6+,29.94,,,,,,,,,,,FEW,5000,,,,,,,VFR,,,,,,,,,,,,METAR,33
SPCL 220400Z 07003KT 9999 SCT018 SCT080 27/26 Q1010 RMK PP000,SPCL,2024-03-22T04:00:00Z,-8.378,-74.574,27,26,70,3,,6+,29.82,,,,,,,,,,,SCT,1800,SCT,8000,,,,,VFR,,,,,,,,,,,,METAR,154
SOCA 220400Z AUTO 23002KT 9999 FEW028 OVC240 24/23 Q1012 NOSIG,SOCA,2024-03-22T04:00:00Z,4.822,-52.365,24,23,230,2,,6+,29.88,,,TRUE,,,TRUE,,,,,FEW,2800,OVC,24000,,,,,VFR,,,,,,,,,,,,METAR,7
SMJP 220400Z 35001KT 9999 FEW008 24/22 Q1012 NOSIG,SMJP,2024-03-22T04:00:00Z,5.453,-55.188,24,22,350,1,,6+,29.88,,,,,,TRUE,,,,,FEW,800,,,,,,,VFR,,,,,,,,,,,,METAR,14
SLVR 220400Z 17012G24KT 9999 FEW027 BKN070 23/20 Q1016,SLVR,2024-03-22T04:00:00Z,-17.645,-63.135,23,20,170,12,24,6+,30.00,,,,,,,,,,,FEW,2700,BKN,7000,,,,,VFR,,,,,,,,,,,,METAR,377
SLLP 220400Z 10005KT 9999 4000E VCFG FEW002 FEW017CB SCT070 BKN200 09/07 Q1039,SLLP,2024-03-22T04:00:00Z,-16.511,-68.182,9,7,100,5,,6+,30.68,,,,,,,,,,VCFG,FEW,200,FEW,1700,SCT,7000,BKN,20000,VFR,,,,,,,,,,,,METAR,4061
SLCB 220400Z 30004KT 9999 FEW030 BKN070 BKN200 17/11 Q1028,SLCB,2024-03-22T04:00:00Z,-17.421,-66.179,17,11,300,4,,6+,30.35,,,,,,,,,,,FEW,3000,BKN,7000,BKN,20000,,,VFR,,,,,,,,,,,,METAR,2560
SKVP 220400Z 07010KT 9999 FEW015 28/19 Q1013,SKVP,2024-03-22T04:00:00Z,10.436,-73.248,28,19,70,10,,6+,29.91,,,,,,,,,,,FEW,1500,,,,,,,VFR,,,,,,,,,,,,METAR,137
SKSP 220400Z 07008KT 040V100 9999 FEW017 28/24 Q1013,SKSP,2024-03-22T04:00:00Z,12.587,-81.704,28,24,70,8,,6+,29.91,,,,,,,,,,,FEW,1700,,,,,,,VFR,,,,,,,,,,,,METAR,6
SKSM 220400Z 04006KT CAVOK 29/23 Q1010,SKSM,2024-03-22T04:00:00Z,11.12,-74.231,29,23,40,6,,6+,29.82,,,,,,,,,,,CAVOK,,,,,,,,VFR,,,,,,,,,,,,METAR,5
SKRG 220400Z VRB02KT 8000 VCFG SCT015 14/13 Q1027 BECMG FM0530 5000 BR BKN010 RMK VCFG/S,SKRG,2024-03-22T04:00:00Z,6.169,-75.426,14,13,VRB,2,,4.97,30.32,,,,,,,,,,VCFG,SCT,1500,,,,,,,MVFR,,,,,,,,,,,,METAR,2132
SKPE 220400Z VRB02KT 9999 SCT020 SCT080 22/18 Q1018,SKPE,2024-03-22T04:00:00Z,4.814,-75.735,22,18,VRB,2,,6+,30.06,,,,,,,,,,,SCT,2000,SCT,8000,,,,,VFR,,,,,,,,,,,,METAR,1341
SKMR 220400Z VRB03KT 8000 FEW020 27/25 Q1010,SKMR,2024-03-22T04:00:00Z,8.826,-75.825,27,25,VRB,3,,4.97,29.82,,,,,,,,,,,FEW,2000,,,,,,,MVFR,,,,,,,,,,,,METAR,12
SKLT 220400Z 33005KT 9000 -TSRA SCT010 SCT015CB 25/24 Q1011 RMK CB/NE/N,SKLT,2024-03-22T04:00:00Z,-4.196,-69.943,25,24,330,5,,5.59,29.85,,,,,,,,,,-TSRA,SCT,1000,SCT,1500,,,,,VFR,,,,,,,,,,,,METAR,78
SKCL 220400Z 01004KT 9999 SCT020 BKN080 23/20 Q1016 NOSIG,SKCL,2024-03-22T04:00:00Z,3.543,-76.382,23,20,10,4,,6+,30.00,,,,,,TRUE,,,,,SCT,2000,BKN,8000,,,,,VFR,,,,,,,,,,,,METAR,967
SKCG 220400Z 03005KT 360V080 CAVOK 27/24 Q1010,SKCG,2024-03-22T04:00:00Z,10.447,-75.516,27,24,30,5,,6+,29.82,,,,,,,,,,,CAVOK,,,,,,,,VFR,,,,,,,,,,,,METAR,6
SKCC 220400Z VRB02KT 7000 SCT015 SCT070 27/24 Q1015 RMK HZ,SKCC,2024-03-22T04:00:00Z,7.93,-72.509,27,24,VRB,2,,4.35,29.97,,,,,,,,,,,SCT,1500,SCT,7000,,,,,MVFR,,,,,,,,,,,,METAR,308
SKBQ 220400Z 03005G19KT 330V050 CAVOK 27/24 Q1010 NOSIG,SKBQ,2024-03-22T04:00:00Z,10.883,-74.78,27,24,30,5,19,6+,29.82,,,,,,TRUE,,,,,CAVOK,,,,,,,,VFR,,,,,,,,,,,,METAR,23
SKBO 220400Z 36004KT 330V050 9999 FEW017 12/12 Q1029 NOSIG,SKBO,2024-03-22T04:00:00Z,4.706,-74.151,12,12,360,4,,6+,30.38,,,,,,TRUE,,,,,FEW,1700,,,,,,,VFR,,,,,,,,,,,,METAR,2547
SKBG 220400Z 05003KT 9999 FEW010 SCT035 21/21 Q1017,SKBG,2024-03-22T04:00:00Z,7.127,-73.185,21,21,50,3,,6+,30.03,,,,,,,,,,,FEW,1000,SCT,3500,,,,,VFR,,,,,,,,,,,,METAR,1187
SKAR 220400Z 00000KT 9999 BKN020 SCT090 21/19 Q1018,SKAR,2024-03-22T04:00:00Z,4.455,-75.766,21,19,0,0,,6+,30.06,,,,,,,,,,,BKN,2000,SCT,9000,,,,,MVFR,,,,,,,,,,,,METAR,1214
SGES 220400Z 19008KT 9999 FEW030 BKN100 20/18 Q1014,SGES,2024-03-22T04:00:00Z,-25.461,-54.849,20,18,190,8,,6+,29.94,,,,,,,,,,,FEW,3000,BKN,10000,,,,,VFR,,,,,,,,,,,,METAR,256
SGAS 220400Z 22008KT 9999 SCT010 21/20 Q1016,SGAS,2024-03-22T04:00:00Z,-25.248,-57.519,21,20,220,8,,6+,30.00,,,,,,,,,,,SCT,1000,,,,,,,VFR,,,,,,,,,,,,METAR,83
SEQM 220400Z 35003KT 9999 SCT003 BKN030 15/14 Q1029 NOSIG RMK A3038,SEQM,2024-03-22T04:00:00Z,-0.124,-78.354,15,14,350,3,,6+,30.38,,,,,,TRUE,,,,,SCT,300,BKN,3000,,,,,MVFR,,,,,,,,,,,,METAR,2386
SEMT 220400Z 14003KT 9999 BKN026 26/24 Q1011 RMK A2988,SEMT,2024-03-22T04:00:00Z,-0.946,-80.679,26,24,140,3,,6+,29.85,,,,,,,,,,,BKN,2600,,,,,,,MVFR,,,,,,,,,,,,METAR,13
SEGU 220400Z 21011KT 9999 FEW015 SCT030 BKN100 27/24 Q1011 NOSIG RMK A2987,SEGU,2024-03-22T04:00:00Z,-2.158,-79.884,27,24,210,11,,6+,29.85,,,,,,TRUE,,,,,FEW,1500,SCT,3000,BKN,10000,,,VFR,,,,,,,,,,,,METAR,6
SECU 220400Z 19002KT 9999 FEW010 OVC030 16/14 Q1027,SECU,2024-03-22T04:00:00Z,-2.889,-78.984,16,14,190,2,,6+,30.32,,,,,,,,,,,FEW,1000,OVC,3000,,,,,MVFR,,,,,,,,,,,,METAR,2516
SCVM 220400Z 15003KT CAVOK 15/12 Q1014,SCVM,2024-03-22T04:00:00Z,-32.947,-71.479,15,12,150,3,,6+,29.94,,,,,,,,,,,CAVOK,,,,,,,,VFR,,,,,,,,,,,,METAR,136
SCVD 220400Z AUTO 00000KT 9999 NCD 11/11 Q1016,SCVD,2024-03-22T04:00:00Z,-39.65,-73.086,11,11,0,0,,6+,30.00,,,TRUE,,,,,,,,CLR,,,,,,,,VFR,,,,,,,,,,,,METAR,19
SCTN 220400Z AUTO 36003KT CAVOK 08/08 Q1014,SCTN,2024-03-22T04:00:00Z,-42.933,-72.699,8,8,360,3,,6+,29.94,,,TRUE,,,,,,,,CAVOK,,,,,,,,VFR,,,,,,,,,,,,METAR,8
SCTE 220400Z 05002KT CAVOK 08/08 Q1015 NOSIG,SCTE,2024-03-22T04:00:00Z,-41.439,-73.094,8,8,50,2,,6+,29.97,,,,,,TRUE,,,,,CAVOK,,,,,,,,VFR,,,,,,,,,,,,METAR,85
SCSN 220400Z AUTO 06003KT 9999 NCD 12/12 Q1015,SCSN,2024-03-22T04:00:00Z,-33.656,-71.615,12,12,60,3,,6+,29.97,,,TRUE,,,,,,,,CLR,,,,,,,,VFR,,,,,,,,,,,,METAR,73
SCSE 220400Z AUTO 10004KT 1100 BR VV002 15/15 Q1012,SCSE,2024-03-22T04:00:00Z,-29.918,-71.201,15,15,100,4,,0.68,29.88,,,TRUE,,,,,,,BR,OVX,0,,,,,,,LIFR,,,,,,,,,,,200,METAR,141
SCQP 220400Z 15002KT CAVOK 12/11 Q1016,SCQP,2024-03-22T04:00:00Z,-38.925,-72.648,12,11,150,2,,6+,30.00,,,,,,,,,,,CAVOK,,,,,,,,VFR,,,,,,,,,,,,METAR,97
SCPQ 220400Z AUTO 00000KT CAVOK 07/06 Q1014,SCPQ,2024-03-22T04:00:00Z,-42.347,-73.718,7,6,0,0,,6+,29.94,,,TRUE,,,,,,,,CAVOK,,,,,,,,VFR,,,,,,,,,,,,METAR,166
SCJO 220400Z AUTO VRB02KT 9999 FEW110/// SCT170/// BKN200/// 09/08 Q1015,SCJO,2024-03-22T04:00:00Z,-40.605,-73.061,9,8,VRB,2,,6+,29.97,,,TRUE,,,,,,,,FEW,11000,SCT,17000,BKN,20000,,,VFR,,,,,,,,,,,,METAR,61
SCIP 220400Z 12003KT CAVOK 20/16 Q1015 NOSIG,SCIP,2024-03-22T04:00:00Z,-27.161,-109.427,20,16,120,3,,6+,29.97,,,,,,TRUE,,,,,CAVOK,,,,,,,,VFR,,,,,,,,,,,,METAR,48
SCIE 220400Z 00000KT CAVOK 14/11 Q1016,SCIE,2024-03-22T04:00:00Z,-36.773,-73.063,14,11,0,0,,6+,30.00,,,,,,,,,,,CAVOK,,,,,,,,VFR,,,,,,,,,,,,METAR,8
SCIC 220400Z AUTO VRB02KT //// R/////// NCD 18/13 Q1015,SCIC,2024-03-22T04:00:00Z,-34.966,-71.217,18,13,VRB,2,,,29.97,,,TRUE,,,,,,,,CLR,,,,,,,,VFR,,,,,,,,,,,,METAR,230
SCFT 220400Z AUTO VRB02KT 9999 BKN180/// BKN220/// 06/05 Q1016,SCFT,2024-03-22T04:00:00Z,-43.189,-71.853,6,5,VRB,2,,6+,30.00,,,TRUE,,,,,,,,BKN,18000,BKN,22000,,,,,VFR,,,,,,,,,,,,METAR,345
SCFA 220400Z 18004KT CAVOK 18/15 Q1013 NOSIG,SCFA,2024-03-22T04:00:00Z,-23.45,-70.441,18,15,180,4,,6+,29.91,,,,,,TRUE,,,,,CAVOK,,,,,,,,VFR,,,,,,,,,,,,METAR,113
SCEL 220400Z VRB02KT CAVOK 18/10 Q1015 NOSIG,SCEL,2024-03-22T04:00:00Z,-33.393,-70.786,18,10,VRB,2,,6+,29.97,,,,,,TRUE,,,,,CAVOK,,,,,,,,VFR,,,,,,,,,,,,METAR,478
SCDA 220400Z 00000KT CAVOK 20/15 Q1014,SCDA,2024-03-22T04:00:00Z,-20.535,-70.181,20,15,0,0,,6+,29.94,,,,,,,,,,,CAVOK,,,,,,,,VFR,,,,,,,,,,,,METAR,41
SCCY 220400Z AUTO 36003KT 310V070 CAVOK 06/03 Q1017,SCCY,2024-03-22T04:00:00Z,-45.595,-72.11,6,3,360,3,,6+,30.03,,,TRUE,,,,,,,,CAVOK,,,,,,,,VFR,,,,,,,,,,,,METAR,301
SCCI 220400Z 27017KT CAVOK 08/05 Q1011 NOSIG,SCCI,2024-03-22T04:00:00Z,-53.003,-70.855,8,5,270,17,,6+,29.85,,,,,,TRUE,,,,,CAVOK,,,,,,,,VFR,,,,,,,,,,,,METAR,37
SCCH 220400Z AUTO 19003KT 140V240 CAVOK 17/14 Q1016,SCCH,2024-03-22T04:00:00Z,-36.583,-72.031,17,14,190,3,,6+,30.00,,,TRUE,,,,,,,,CAVOK,,,,,,,,VFR,,,,,,,,,,,,METAR,148
SCCF 220400Z 09007KT CAVOK 12/03 Q1028,SCCF,2024-03-22T04:00:00Z,-22.496,-68.905,12,3,90,7,,6+,30.35,,,,,,,,,,,CAVOK,,,,,,,,VFR,,,,,,,,,,,,METAR,2290
SCBA 220400Z AUTO 15007KT 9999 BKN220/// 03/02 Q1016,SCBA,2024-03-22T04:00:00Z,-45.913,-71.694,3,2,150,7,,6+,30.00,,,TRUE,,,,,,,,BKN,22000,,,,,,,VFR,,,,,,,,,,,,METAR,516
SCAT 220400Z AUTO 33003KT 280V010 9999 OVC007/// 16/15 Q1013,SCAT,2024-03-22T04:00:00Z,-27.262,-70.774,16,15,330,3,,6+,29.91,,,TRUE,,,,,,,,OVC,700,,,,,,,IFR,,,,,,,,,,,,METAR,209
SCAR 220400Z 24004KT CAVOK 21/18 Q1014,SCAR,2024-03-22T04:00:00Z,-18.351,-70.336,21,18,240,4,,6+,29.94,,,,,,,,,,,CAVOK,,,,,,,,VFR,,,,,,,,,,,,METAR,57
SBVT 220400Z 03009KT CAVOK 27/24 Q1009,SBVT,2024-03-22T04:00:00Z,-20.258,-40.286,27,24,30,9,,6+,29.79,,,,,,,,,,,CAVOK,,,,,,,,VFR,,,,,,,,,,,,METAR,4
SBUR 220400Z 26007KT 9999 BKN003 FEW049TCU 22/22 Q1016 RETS REDZ,SBUR,2024-03-22T04:00:00Z,-19.765,-47.965,22,22,260,7,,6+,30.00,,,,,,,,,,,BKN,300,FEW,4900,,,,,LIFR,,,,,,,,,,,,METAR,807
SBUL 220400Z 21010KT 9999 BKN007 22/22 Q1017,SBUL,2024-03-22T04:00:00Z,-18.883,-48.226,22,22,210,10,,6+,30.03,,,,,,,,,,,BKN,700,,,,,,,IFR,,,,,,,,,,,,METAR,945
SBTE 220400Z 34006KT 9999 VCTS SCT012 FEW030CB BKN100 25/24 Q1010,SBTE,2024-03-22T04:00:00Z,-5.06,-42.824,25,24,340,6,,6+,29.82,,,,,,,,,,VCTS,SCT,1200,FEW,3000,BKN,10000,,,VFR,,,,,,,,,,,,METAR,60
SBSV 220400Z 05007KT 9999 FEW023 28/24 Q1011,SBSV,2024-03-22T04:00:00Z,-12.911,-38.331,28,24,50,7,,6+,29.85,,,,,,,,,,,FEW,2300,,,,,,,VFR,,,,,,,,,,,,METAR,9
SBSR 220400Z 03004KT 9999 -RA SCT010 OVC070 23/22 Q1013,SBSR,2024-03-22T04:00:00Z,-20.817,-49.407,23,22,30,4,,6+,29.91,,,,,,,,,,-RA,SCT,1000,OVC,7000,,,,,VFR,,,,,,,,,,,,METAR,537
SBSN 220400Z 14004KT 9999 FEW015 SCT100 26/25 Q1011,SBSN,2024-03-22T04:00:00Z,-2.423,-54.789,26,25,140,4,,6+,29.85,,,,,,,,,,,FEW,1500,SCT,10000,,,,,VFR,,,,,,,,,,,,METAR,57
SBSL 220400Z 00000KT 9999 FEW017 SCT100 26/26 Q1011,SBSL,2024-03-22T04:00:00Z,-2.585,-44.234,26,26,0,0,,6+,29.85,,,,,,,,,,,FEW,1700,SCT,10000,,,,,VFR,,,,,,,,,,,,METAR,53
SBSG 220400Z 20004KT 9999 FEW020 26/24 Q1011,SBSG,2024-03-22T04:00:00Z,-5.768,-35.376,26,24,200,4,,6+,29.85,,,,,,,,,,,FEW,2000,,,,,,,VFR,,,,,,,,,,,,METAR,83
SBSC 220400Z 19013G30KT 9999 FEW015 SCT025 BKN050 28/25 Q1010,SBSC,2024-03-22T04:00:00Z,-22.932,-43.719,28,25,190,13,30,6+,29.82,,,,,,,,,,,FEW,1500,SCT,2500,BKN,5000,,,VFR,,,,,,,,,,,,METAR,6
SBRP 220400Z 08004KT 040V120 9999 SCT035 25/22 Q1014,SBRP,2024-03-22T04:00:00Z,-21.134,-47.774,25,22,80,4,,6+,29.94,,,,,,,,,,,SCT,3500,,,,,,,VFR,,,,,,,,,,,,METAR,550
SBRJ 220400Z 34005KT 9999 VCTS FEW030 FEW035CB BKN100 28/25 Q1008,SBRJ,2024-03-22T04:00:00Z,-22.91,-43.163,28,25,340,5,,6+,29.76,,,,,,,,,,VCTS,FEW,3000,FEW,3500,BKN,10000,,,VFR,,,,,,,,,,,,METAR,6
SBRF 220400Z 12008KT 9999 FEW023 29/25 Q1011,SBRF,2024-03-22T04:00:00Z,-8.126,-34.923,29,25,120,8,,6+,29.85,,,,,,,,,,,FEW,2300,,,,,,,VFR,,,,,,,,,,,,METAR,10
SBRB 220400Z 03003KT CAVOK 26/25 Q1012,SBRB,2024-03-22T04:00:00Z,-9.867,-67.897,26,25,30,3,,6+,29.88,,,,,,,,,,,CAVOK,,,,,,,,VFR,,,,,,,,,,,,METAR,190
SBPV 220400Z 12002KT 9999 FEW045 SCT080 27/25 Q1011,SBPV,2024-03-22T04:00:00Z,-8.708,-63.901,27,25,120,2,,6+,29.85,,,,,,,,,,,FEW,4500,SCT,8000,,,,,VFR,,,,,,,,,,,,METAR,89
SBPS 220400Z 36004KT CAVOK 26/25 Q1011,SBPS,2024-03-22T04:00:00Z,-16.439,-39.081,26,25,360,4,,6+,29.85,,,,,,,,,,,CAVOK,,,,,,,,VFR,,,,,,,,,,,,METAR,44
SBPL 220400Z 15003KT 9999 SCT040 25/23 Q1012,SBPL,2024-03-22T04:00:00Z,-9.367,-40.565,25,23,150,3,,6+,29.88,,,,,,,,,,,SCT,4000,,,,,,,VFR,,,,,,,,,,,,METAR,386
SBPJ 220400Z 10004KT 9999 FEW016 SCT050 25/24 Q1012,SBPJ,2024-03-22T04:00:00Z,-10.291,-48.357,25,24,100,4,,6+,29.88,,,,,,,,,,,FEW,1600,SCT,5000,,,,,VFR,,,,,,,,,,,,METAR,226
SBPA 220400Z 22006KT 190V250 7000 BKN013 OVC040 20/15 Q1019,SBPA,2024-03-22T04:00:00Z,-29.994,-51.171,20,15,220,6,,4.35,30.09,,,,,,,,,,,BKN,1300,OVC,4000,,,,,MVFR,,,,,,,,,,,,METAR,3
SBOI 220400Z AUTO VRB01KT CAVOK 25/23 Q1012,SBOI,2024-03-22T04:00:00Z,3.861,-51.796,25,23,VRB,1,,6+,29.88,,,TRUE,,,,,,,,CAVOK,,,,,,,,VFR,,,,,,,,,,,,METAR,15
SBNT 220400Z 22004KT 9999 FEW021 FEW023TCU 27/25 Q1010,SBNT,2024-03-22T04:00:00Z,-5.911,-35.248,27,25,220,4,,6+,29.82,,,,,,,,,,,FEW,2100,FEW,2300,,,,,VFR,,,,,,,,,,,,METAR,51
SBMQ 220400Z 32002KT CAVOK 26/26 Q1012,SBMQ,2024-03-22T04:00:00Z,0.051,-51.072,26,26,320,2,,6+,29.88,,,,,,,,,,,CAVOK,,,,,,,,VFR,,,,,,,,,,,,METAR,15
SBMO 220400Z 35003KT 9999 FEW021 25/24 Q1012,SBMO,2024-03-22T04:00:00Z,-9.511,-35.792,25,24,350,3,,6+,29.88,,,,,,,,,,,FEW,2100,,,,,,,VFR,,,,,,,,,,,,METAR,116
SBMN 220400Z 08004KT CAVOK 26/25 Q1010,SBMN,2024-03-22T04:00:00Z,-3.146,-59.986,26,25,80,4,,6+,29.82,,,,,,,,,,,CAVOK,,,,,,,,VFR,,,,,,,,,,,,METAR,71
SBMK 220400Z 00000KT CAVOK 23/22 Q1015,SBMK,2024-03-22T04:00:00Z,-16.705,-43.819,23,22,0,0,,6+,29.97,,,,,,,,,,,CAVOK,,,,,,,,VFR,,,,,,,,,,,,METAR,665
SBMG 220400Z 15006KT CAVOK 21/19 Q1012,SBMG,2024-03-22T04:00:00Z,-23.476,-52.017,21,19,150,6,,6+,29.88,,,,,,,,,,,CAVOK,,,,,,,,VFR,,,,,,,,,,,,METAR,543
SBME 220400Z 36002KT 9999 VCTS FEW040CB BKN100 27/24 Q1008,SBME,2024-03-22T04:00:00Z,-22.343,-41.766,27,24,360,2,,6+,29.76,,,,,,,,,,VCTS,FEW,4000,BKN,10000,,,,,VFR,,,,,,,,,,,,METAR,2
SBMA 220400Z 28002KT 9999 VCTS FEW025CB BKN080 27/26 Q1012,SBMA,2024-03-22T04:00:00Z,-5.368,-49.137,27,26,280,2,,6+,29.88,,,,,,,,,,VCTS,FEW,2500,BKN,8000,,,,,VFR,,,,,,,,,,,,METAR,110
SBLO 220400Z 21007KT CAVOK 21/21 Q1013,SBLO,2024-03-22T04:00:00Z,-23.334,-51.13,21,21,210,7,,6+,29.91,,,,,,,,,,,CAVOK,,,,,,,,VFR,,,,,,,,,,,,METAR,563
SBLE 220400Z AUTO 05003KT 020V090 CAVOK 23/20 Q1015,SBLE,2024-03-22T04:00:00Z,-12.482,-41.277,23,20,50,3,,6+,29.97,,,TRUE,,,,,,,,CAVOK,,,,,,,,VFR,,,,,,,,,,,,METAR,495
SBLB 220400Z AUTO 01027KT 9999 FEW015 ///// Q1009 W29/S4,SBLB,2024-03-22T04:00:00Z,-22.109,-39.917,29,,10,27,,6+,29.79,,,TRUE,,,,,,,,FEW,1500,,,,,,,VFR,,,,,,,,,,,,METAR,10
SBKP 220400Z 08003KT 9999 FEW030 BKN100 24/21 Q1014,SBKP,2024-03-22T04:00:00Z,-23.007,-47.135,24,21,80,3,,6+,29.94,,,,,,,,,,,FEW,3000,BKN,10000,,,,,VFR,,,,,,,,,,,,METAR,659
SBKG 220400Z 10004KT 9999 SCT006 24/23 Q1014,SBKG,2024-03-22T04:00:00Z,-7.27,-35.895,24,23,100,4,,6+,29.94,,,,,,,,,,,SCT,600,,,,,,,VFR,,,,,,,,,,,,METAR,499
SBJU 220400Z 00000KT 9999 SCT020 25/24 Q1012,SBJU,2024-03-22T04:00:00Z,-7.219,-39.27,25,24,0,0,,6+,29.88,,,,,,,,,,,SCT,2000,,,,,,,VFR,,,,,,,,,,,,METAR,407
SBJP 220400Z 14004KT 9999 FEW020 26/25 Q1011,SBJP,2024-03-22T04:00:00Z,-7.148,-34.951,26,25,140,4,,6+,29.85,,,,,,,,,,,FEW,2000,,,,,,,VFR,,,,,,,,,,,,METAR,66
SBIZ 220400Z 05006KT 9999 SCT025 26/24 Q1011,SBIZ,2024-03-22T04:00:00Z,-5.53,-47.458,26,24,50,6,,6+,29.85,,,,,,,,,,,SCT,2500,,,,,,,VFR,,,,,,,,,,,,METAR,131
SBIP 220400Z AUTO 22003KT CAVOK 25/23 Q1011,SBIP,2024-03-22T04:00:00Z,-19.471,-42.488,25,23,220,3,,6+,29.85,,,TRUE,,,,,,,,CAVOK,,,,,,,,VFR,,,,,,,,,,,,METAR,240
SBGR 220400Z 10005KT 9999 OVC010 23/21 Q1016,SBGR,2024-03-22T04:00:00Z,-23.432,-46.469,23,21,100,5,,6+,30.00,,,,,,,,,,,OVC,1000,,,,,,,MVFR,,,,,,,,,,,,METAR,745
SBGO 220400Z 00000KT 9999 BKN015 22/20 Q1017,SBGO,2024-03-22T04:00:00Z,-16.632,-49.221,22,20,0,0,,6+,30.03,,,,,,,,,,,BKN,1500,,,,,,,MVFR,,,,,,,,,,,,METAR,740
SBGL 220400Z 14005KT 9999 SCT018 BKN100 27/24 Q1008,SBGL,2024-03-22T04:00:00Z,-22.815,-43.261,27,24,140,5,,6+,29.76,,,,,,,,,,,SCT,1800,BKN,10000,,,,,VFR,,,,,,,,,,,,METAR,3
SBFZ 220400Z 08003KT 9999 BKN018 27/25 Q1010,SBFZ,2024-03-22T04:00:00Z,-3.776,-38.533,27,25,80,3,,6+,29.82,,,,,,,,,,,BKN,1800,,,,,,,MVFR,,,,,,,,,,,,METAR,32
SBFN 220400Z AUTO 08005KT 040V120 9999 ///////// 27/24 Q1010,SBFN,2024-03-22T04:00:00Z,-3.855,-32.423,27,24,80,5,,6+,29.82,,,TRUE,,,,,,,,,,,,,,,,VFR,,,,,,,,,,,,METAR,52
SBFL 220400Z 19011KT 9999 SCT012 BKN035 21/19 Q1015,SBFL,2024-03-22T04:00:00Z,-27.671,-48.547,21,19,190,11,,6+,29.97,,,,,,,,,,,SCT,1200,BKN,3500,,,,,VFR,,,,,,,,,,,,METAR,5
SBFI 220400Z 18004KT 9999 FEW030 SCT100 20/19 Q1015,SBFI,2024-03-22T04:00:00Z,-25.595,-54.488,20,19,180,4,,6+,29.97,,,,,,,,,,,FEW,3000,SCT,10000,,,,,VFR,,,,,,,,,,,,METAR,233
SBEG 220400Z 09006KT CAVOK 26/25 Q1010,SBEG,2024-03-22T04:00:00Z,-3.039,-60.05,26,25,90,6,,6+,29.82,,,,,,,,,,,CAVOK,,,,,,,,VFR,,,,,,,,,,,,METAR,69
SBDN 220400Z 02009KT CAVOK 23/23 Q1010,SBDN,2024-03-22T04:00:00Z,-22.175,-51.427,23,23,20,9,,6+,29.82,,,,,,,,,,,CAVOK,,,,,,,,VFR,,,,,,,,,,,,METAR,438
SBCY 220400Z 32004KT CAVOK 25/25 Q1011,SBCY,2024-03-22T04:00:00Z,-15.653,-56.116,25,25,320,4,,6+,29.85,,,,,,,,,,,CAVOK,,,,,,,,VFR,,,,,,,,,,,,METAR,182
SBCT 220400Z 13006KT 6000 SCT007 BKN013 18/18 Q1018,SBCT,2024-03-22T04:00:00Z,-25.529,-49.176,18,18,130,6,,3.73,30.06,,,,,,,,,,,SCT,700,BKN,1300,,,,,MVFR,,,,,,,,,,,,METAR,914
SBCH 220400Z 16005KT 9999 FEW005 BKN020 18/18 Q1018,SBCH,2024-03-22T04:00:00Z,-27.132,-52.662,18,18,160,5,,6+,30.06,,,,,,,,,,,FEW,500,BKN,2000,,,,,MVFR,,,,,,,,,,,,METAR,639
SBCG 220400Z 36010KT 9999 -RA FEW045 FEW050TCU BKN100 23/21 Q1013,SBCG,2024-03-22T04:00:00Z,-20.469,-54.672,23,21,360,10,,6+,29.91,,,,,,,,,,-RA,FEW,4500,FEW,5000,BKN,10000,,,VFR,,,,,,,,,,,,METAR,556
SBCF 220400Z 01002KT 9999 FEW040 SCT100 23/21 Q1016,SBCF,2024-03-22T04:00:00Z,-19.635,-43.966,23,21,10,2,,6+,30.00,,,,,,,,,,,FEW,4000,SCT,10000,,,,,VFR,,,,,,,,,,,,METAR,825
SBBV 220400Z 12005KT CAVOK 30/18 Q1011,SBBV,2024-03-22T04:00:00Z,2.846,-60.69,30,18,120,5,,6+,29.85,,,,,,,,,,,CAVOK,,,,,,,,VFR,,,,,,,,,,,,METAR,80
SBBR 220400Z 26004KT CAVOK 22/19 Q1018,SBBR,2024-03-22T04:00:00Z,-15.867,-47.933,22,19,260,4,,6+,30.06,,,,,,,,,,,CAVOK,,,,,,,,VFR,,,,,,,,,,,,METAR,1051
SBBH 220400Z 00000KT 9999 FEW043 BKN090 23/22 Q1015,SBBH,2024-03-22T04:00:00Z,-19.851,-43.951,23,22,0,0,,6+,29.97,,,,,,,,,,,FEW,4300,BKN,9000,,,,,VFR,,,,,,,,,,,,METAR,799
SBBG 220400Z AUTO 10004KT CAVOK 12/11 Q1022,SBBG,2024-03-22T04:00:00Z,-31.391,-54.112,12,11,100,4,,6+,30.18,,,TRUE,,,,,,,,CAVOK,,,,,,,,VFR,,,,,,,,,,,,METAR,182
SBBE 220400Z 09002KT 8000 SCT032 BKN080 25/24 Q1012,SBBE,2024-03-22T04:00:00Z,-1.379,-48.476,25,24,90,2,,4.97,29.88,,,,,,,,,,,SCT,3200,BKN,8000,,,,,MVFR,,,,,,,,,,,,METAR,16
SBAX 220400Z AUTO 05002KT 9999 FEW041 ///// Q1017,SBAX,2024-03-22T04:00:00Z,-19.563,-46.96,,,50,2,,6+,30.03,,,TRUE,,,,,,,,FEW,4100,,,,,,,VFR,,,,,,,,,,,,METAR,989
SBAR 220400Z 07007KT 9999 SCT023 28/25 Q1011,SBAR,2024-03-22T04:00:00Z,-10.984,-37.07,28,25,70,7,,6+,29.85,,,,,,,,,,,SCT,2300,,,,,,,VFR,,,,,,,,,,,,METAR,4
SBAN 220400Z 24003KT 9999 FEW040 BKN100 20/20 Q1019,SBAN,2024-03-22T04:00:00Z,-16.229,-48.964,20,20,240,3,,6+,30.09,,,,,,,,,,,FEW,4000,BKN,10000,,,,,VFR,,,,,,,,,,,,METAR,1131
SAZS 220400Z 20004KT CAVOK 09/03 Q1017,SAZS,2024-03-22T04:00:00Z,-41.151,-71.157,9,3,200,4,,6+,30.03,,,,,,,,,,,CAVOK,,,,,,,,VFR,,,,,,,,,,,,METAR,843
SAZN 220400Z 00000KT CAVOK 12/06 Q1017,SAZN,2024-03-22T04:00:00Z,-38.95,-68.141,12,6,0,0,,6+,30.03,,,,,,,,,,,CAVOK,,,,,,,,VFR,,,,,,,,,,,,METAR,273
SAZM 220400Z 30006KT CAVOK 09/08 Q1021,SAZM,2024-03-22T04:00:00Z,-37.932,-57.581,9,8,300,6,,6+,30.15,,,,,,,,,,,CAVOK,,,,,,,,VFR,,,,,,,,,,,,METAR,17
SAWH 220400Z 25018KT 9999 SCT045 07/03 Q1006,SAWH,2024-03-22T04:00:00Z,-54.844,-68.308,7,3,250,18,,6+,29.70,,,,,,,,,,,SCT,4500,,,,,,,VFR,,,,,,,,,,,,METAR,22
SAWG 220400Z 26013KT 9999 FEW030 07/03 Q1013,SAWG,2024-03-22T04:00:00Z,-51.609,-69.306,7,3,260,13,,6+,29.91,,,,,,,,,,,FEW,3000,,,,,,,VFR,,,,,,,,,,,,METAR,18
SAVC 220400Z 32006KT CAVOK 07/01 Q1018,SAVC,2024-03-22T04:00:00Z,-45.79,-67.471,7,1,320,6,,6+,30.06,,,,,,,,,,,CAVOK,,,,,,,,VFR,,,,,,,,,,,,METAR,58
SASJ 220400Z VRB02KT 9999 OVC070 18/15 Q1024,SASJ,2024-03-22T04:00:00Z,-24.387,-65.098,18,15,VRB,2,,6+,30.24,,,,,,,,,,,OVC,7000,,,,,,,VFR,,,,,,,,,,,,METAR,913
SASA 220400Z 30003KT 9999 OVC080 16/15 Q1025,SASA,2024-03-22T04:00:00Z,-24.856,-65.486,16,15,300,3,,6+,30.27,,,,,,,,,,,OVC,8000,,,,,,,VFR,,,,,,,,,,,,METAR,1235
SARI 220400Z 19005KT 160V220 9999 FEW010 BKN100 19/18 Q1015,SARI,2024-03-22T04:00:00Z,-25.737,-54.473,19,18,190,5,,6+,29.97,,,,,,,,,,,FEW,1000,BKN,10000,,,,,VFR,,,,,,,,,,,,METAR,268
SARE 220400Z 15008KT CAVOK 19/16 Q1019,SARE,2024-03-22T04:00:00Z,-27.45,-59.056,19,16,150,8,,6+,30.09,,,,,,,,,,,CAVOK,,,,,,,,VFR,,,,,,,,,,,,METAR,52
SAME 220400Z 22003KT CAVOK 16/06 Q1020,SAME,2024-03-22T04:00:00Z,-32.832,-68.793,16,6,220,3,,6+,30.12,,,,,,,,,,,CAVOK,,,,,,,,VFR,,,,,,,,,,,,METAR,709
SAEZ 220400Z VRB01KT CAVOK 09/09 Q1022 NOSIG,SAEZ,2024-03-22T04:00:00Z,-34.822,-58.536,9,9,VRB,1,,6+,30.18,,,,,,TRUE,,,,,CAVOK,,,,,,,,VFR,,,,,,,,,,,,METAR,16
SADF 220400Z 20002KT CAVOK 13/11 Q1022,SADF,2024-03-22T04:00:00Z,-34.457,-58.593,13,11,200,2,,6+,30.18,,,,,,,,,,,CAVOK,,,,,,,,VFR,,,,,,,,,,,,METAR,4
SACO 220400Z 35006KT CAVOK 12/09 Q1023 NOSIG,SACO,2024-03-22T04:00:00Z,-31.324,-64.208,12,9,350,6,,6+,30.21,,,,,,TRUE,,,,,CAVOK,,,,,,,,VFR,,,,,,,,,,,,METAR,474
SABE 220400Z VRB02KT CAVOK 16/06 Q1023 NOSIG,SABE,2024-03-22T04:00:00Z,-34.559,-58.416,16,6,VRB,2,,6+,30.21,,,,,,TRUE,,,,,CAVOK,,,,,,,,VFR,,,,,,,,,,,,METAR,3
SAAR 220400Z 17002KT CAVOK 13/12 Q1022,SAAR,2024-03-22T04:00:00Z,-32.918,-60.782,13,12,170,2,,6+,30.18,,,,,,,,,,,CAVOK,,,,,,,,VFR,,,,,,,,,,,,METAR,24
RPVP 220400Z 09012KT 9999 FEW019 32/23 Q1012 RMK A2988,RPVP,2024-03-22T04:00:00Z,9.742,118.759,32,23,90,12,,6+,29.88,,,,,,,,,,,FEW,1900,,,,,,,VFR,,,,,,,,,,,,METAR,15
RPVM 220400Z 06008KT 040V100 9999 FEW020 30/22 Q1013 NOSIG RMK A2991,RPVM,2024-03-22T04:00:00Z,10.308,123.978,30,22,60,8,,6+,29.91,,,,,,TRUE,,,,,FEW,2000,,,,,,,VFR,,,,,,,,,,,,METAR,9
RPVD 220400Z 07008KT 9999 FEW024 30/23 Q1012 RMK A2988,RPVD,2024-03-22T04:00:00Z,9.334,123.297,30,23,70,8,,6+,29.88,,,,,,,,,,,FEW,2400,,,,,,,VFR,,,,,,,,,,,,METAR,11
RPMZ 220400Z 09009KT 040V100 050V110 9999 FEW016 33/24 Q1011 RMK 2985,RPMZ,2024-03-22T04:00:00Z,6.92,122.063,33,24,90,9,,6+,29.85,,,,,,,,,,,FEW,1600,,,,,,,VFR,,,,,,,,,,,,METAR,8
RPMR 220400Z 03012KT 340V070 9999 FEW018 34/20 Q1011 RMK A2985,RPMR,2024-03-22T04:00:00Z,6.058,125.096,34,20,30,12,,6+,29.85,,,,,,,,,,,FEW,1800,,,,,,,VFR,,,,,,,,,,,,METAR,47
RPMD 220400Z 07006KT 9999 SCT020 32/21 Q1011 RMK A2985,RPMD,2024-03-22T04:00:00Z,7.125,125.646,32,21,70,6,,6+,29.85,,,,,,,,,,,SCT,2000,,,,,,,VFR,,,,,,,,,,,,METAR,19
RPLL 220400Z 13008KT 080V180 9999 SCT023 BKN100 29/22 Q1013 NOSIG RMK A2991,RPLL,2024-03-22T04:00:00Z,14.507,121.004,29,22,130,8,,6+,29.91,,,,,,TRUE,,,,,SCT,2300,BKN,10000,,,,,VFR,,,,,,,,,,,,METAR,15
RPLI 220400Z 31008KT 280V350 9999 FEW018 29/24 Q1013 NOISG RMK A2991,RPLI,2024-03-22T04:00:00Z,18.178,120.532,29,24,310,8,,6+,29.91,,,,,,,,,,SG,FEW,1800,,,,,,,VFR,,,,,,,,,,,,METAR,5
RPLC 220400Z 09004KT 9999 SCT020 BKN100 30/20 Q1014 NOSIG RMK A2994,RPLC,2024-03-22T04:00:00Z,15.186,120.56,30,20,90,4,,6+,29.94,,,,,,TRUE,,,,,SCT,2000,BKN,10000,,,,,VFR,,,,,,,,,,,,METAR,138
RPLB 220400Z 07012KT 030V100 9999 SCT020 32/20 Q1013 NOSIG RMK A2991,RPLB,2024-03-22T04:00:00Z,14.794,120.271,32,20,70,12,,6+,29.91,,,,,,TRUE,,,,,SCT,2000,,,,,,,VFR,,,,,,,,,,,,METAR,19
ROYN 220400Z AUTO 16013KT 130V200 9999 FEW035 24/15 Q1016,ROYN,2024-03-22T04:00:00Z,24.467,122.978,24,15,160,13,,6+,30.00,,,TRUE,,,,,,,,FEW,3500,,,,,,,VFR,,,,,,,,,,,,METAR,21
RORY 220400Z AUTO 17012KT 9999 FEW039 21/11 Q1019,RORY,2024-03-22T04:00:00Z,27.044,128.4,21,11,170,12,,6+,30.09,,,TRUE,,,,,,,,FEW,3900,,,,,,,VFR,,,,,,,,,,,,METAR,13
RORT 220400Z AUTO 17012KT 9999 FEW036 SCT041 BKN080 24/15 Q1017,RORT,2024-03-22T04:00:00Z,24.653,124.674,24,15,170,12,,6+,30.03,,,TRUE,,,,,,,,FEW,3600,SCT,4100,BKN,8000,,,VFR,,,,,,,,,,,,METAR,9
RORS 220400Z 16015KT 9999 SCT034 SCT090 BKN130 23/14 Q1017,RORS,2024-03-22T04:00:00Z,24.827,125.145,23,14,160,15,,6+,30.03,,,,,,,,,,,SCT,3400,SCT,9000,BKN,13000,,,VFR,,,,,,,,,,,,METAR,13
RORK 220400Z AUTO 16008KT 9999 NCD 21/09 Q1020,RORK,2024-03-22T04:00:00Z,25.944,131.326,21,9,160,8,,6+,30.12,,,TRUE,,,,,,,,CLR,,,,,,,,VFR,,,,,,,,,,,,METAR,11
ROMY 220400Z 15012KT 120V180 9999 SCT034 BKN090 22/14 Q1017,ROMY,2024-03-22T04:00:00Z,24.782,125.295,22,14,150,12,,6+,30.03,,,,,,,,,,,SCT,3400,BKN,9000,,,,,VFR,,,,,,,,,,,,METAR,42
ROMD 220400Z AUTO 15007KT 070V190 9999 NCD 21/09 Q1020,ROMD,2024-03-22T04:00:00Z,25.847,131.264,21,9,150,7,,6+,30.12,,,TRUE,,,,,,,,CLR,,,,,,,,VFR,,,,,,,,,,,,METAR,45
ROIG 220400Z 16013KT 9999 FEW032 24/15 Q1017,ROIG,2024-03-22T04:00:00Z,24.395,124.245,24,15,160,13,,6+,30.03,,,,,,,,,,,FEW,3200,,,,,,,VFR,,,,,,,,,,,,METAR,37
ROAH 220400Z 17013KT 150V210 9999 FEW040 BKN090 22/12 Q1019 RMK 1CU040 6AC090 A3010,ROAH,2024-03-22T04:00:00Z,26.196,127.646,22,12,170,13,,6+,30.09,,,,,,,,,,,FEW,4000,BKN,9000,,,,,VFR,,,,,,,,,,,,METAR,6
RKTU 220400Z 20011KT CAVOK 15/M02 Q1013,RKTU,2024-03-22T04:00:00Z,36.717,127.499,15,-2,200,11,,6+,29.91,,,,,,,,,,,CAVOK,,,,,,,,VFR,,,,,,,,,,,,METAR,46
RKTN 220400Z 16007KT 9999 FEW050 SCT150 BKN200 16/01 Q1016,RKTN,2024-03-22T04:00:00Z,35.894,128.659,16,1,160,7,,6+,30.00,,,,,,,,,,,FEW,5000,SCT,15000,BKN,20000,,,VFR,,,,,,,,,,,,METAR,25
RKSS 220400Z 16012KT 130V190 CAVOK 15/M02 Q1012 NOSIG,RKSS,2024-03-22T04:00:00Z,37.558,126.791,15,-2,160,12,,6+,29.88,,,,,,TRUE,,,,,CAVOK,,,,,,,,VFR,,,,,,,,,,,,METAR,18
RKSI 220400Z 17014KT CAVOK 15/00 Q1011 NOSIG,RKSI,2024-03-22T04:00:00Z,37.469,126.451,15,0,170,14,,6+,29.85,,,,,,TRUE,,,,,CAVOK,,,,,,,,VFR,,,,,,,,,,,,METAR,7
RKPK 220400Z 21010G20KT 9999 FEW050 BKN150 BKN200 14/00 Q1019,RKPK,2024-03-22T04:00:00Z,35.179,128.938,14,0,210,10,20,6+,30.09,,,,,,,,,,,FEW,5000,BKN,15000,BKN,20000,,,VFR,,,,,,,,,,,,METAR,3
RKPC 220400Z 18021KT 150V230 CAVOK 19/02 Q1014 WS ALL RWY NOSIG,RKPC,2024-03-22T04:00:00Z,33.511,126.493,19,2,180,21,,6+,29.94,,,,,,TRUE,,,,,CAVOK,,,,,,,,VFR,,,,,,,,,,,,METAR,23
RKNY 220400Z 10007KT 9999 FEW060 SCT150 BKN180 10/02 Q1014 NOSIG,RKNY,2024-03-22T04:00:00Z,38.061,128.669,10,2,100,7,,6+,29.94,,,,,,TRUE,,,,,FEW,6000,SCT,15000,BKN,18000,,,VFR,,,,,,,,,,,,METAR,76
RKJB 220400Z 19018G29KT CAVOK 17/02 Q1014 NOSIG,RKJB,2024-03-22T04:00:00Z,34.991,126.383,17,2,190,18,29,6+,29.94,,,,,,TRUE,,,,,CAVOK,,,,,,,,VFR,,,,,,,,,,,,METAR,16
RJTT 220400Z 35012KT 9999 FEW030 11/M06 Q1018 NOSIG RMK 1CU030 A3008,RJTT,2024-03-22T04:00:00Z,35.553,139.781,11,-6,350,12,,6+,30.06,,,,,,TRUE,,,,,FEW,3000,,,,,,,VFR,,,,,,,,,,,,METAR,5
RJTO 220400Z 05008KT 350V100 9999 FEW040 10/M08 Q1018,RJTO,2024-03-22T04:00:00Z,34.782,139.36,10,-8,50,8,,6+,30.06,,,,,,,,,,,FEW,4000,,,,,,,VFR,,,,,,,,,,,,METAR,37
RJTI 220400Z 35008G18KT 290V050 9999 FEW030 11/M11 Q1018,RJTI,2024-03-22T04:00:00Z,35.637,139.839,11,-11,350,8,18,6+,30.06,,,,,,,,,,,FEW,3000,,,,,,,VFR,,,,,,,,,,,,METAR,4
RJTF 220400Z 33010KT 290V010 9999 FEW030 11/M12 Q1018,RJTF,2024-03-22T04:00:00Z,35.672,139.528,11,-12,330,10,,6+,30.06,,,,,,,,,,,FEW,3000,,,,,,,VFR,,,,,,,,,,,,METAR,37
RJSY 220400Z 24013KT 9999 -SHRA FEW005 SCT030 BKN040 04/02 Q1020,RJSY,2024-03-22T04:00:00Z,38.812,139.787,4,2,240,13,,6+,30.12,,,,,,,,,,-SHRA,FEW,500,SCT,3000,BKN,4000,,,VFR,,,,,,,,,,,,METAR,17
RJSR 220400Z 28014KT 240V310 9999 FEW020 SCT050 07/M00 Q1018,RJSR,2024-03-22T04:00:00Z,40.192,140.372,7,0,280,14,,6+,30.06,,,,,,,,,,,FEW,2000,SCT,5000,,,,,VFR,,,,,,,,,,,,METAR,83
RJSN 220400Z 26013KT 9999 VCSH FEW015 SCT030 08/M04 Q1021,RJSN,2024-03-22T04:00:00Z,37.956,139.121,8,-4,260,13,,6+,30.15,,,,,,,,,,VCSH,FEW,1500,SCT,3000,,,,,VFR,,,,,,,,,,,,METAR,4
RJSM 220400Z 32012KT 9999 FEW035 BKN050 06/M06 Q1017,RJSM,2024-03-22T04:00:00Z,40.705,141.372,6,-6,320,12,,6+,30.03,,,,,,,,,,,FEW,3500,BKN,5000,,,,,VFR,,,,,,,,,,,,METAR,31
RJSK 220400Z 32014KT 9999 VCSH FEW025 BKN030 06/M01 Q1018,RJSK,2024-03-22T04:00:00Z,39.616,140.219,6,-1,320,14,,6+,30.06,,,,,,,,,,VCSH,FEW,2500,BKN,3000,,,,,MVFR,,,,,,,,,,,,METAR,95
RJSI 220400Z 27010KT 230V330 9999 SCT040 BKN045 07/M01 Q1016,RJSI,2024-03-22T04:00:00Z,39.429,141.135,7,-1,270,10,,6+,30.00,,,,,,,,,,,SCT,4000,BKN,4500,,,,,VFR,,,,,,,,,,,,METAR,89
RJSF 220400Z 30010KT 9999 FEW015 SCT045 05/M06 Q1017,RJSF,2024-03-22T04:00:00Z,37.227,140.428,5,-6,300,10,,6+,30.03,,,,,,,,,,,FEW,1500,SCT,4500,,,,,VFR,,,,,,,,,,,,METAR,373
RJSC 220400Z 27012KT 240V310 9999 VCSH FEW005 SCT030 06/M01 Q1019,RJSC,2024-03-22T04:00:00Z,38.412,140.371,6,-1,270,12,,6+,30.09,,,,,,,,,,VCSH,FEW,500,SCT,3000,,,,,VFR,,,,,,,,,,,,METAR,104
RJSA 220400Z 28012G22KT 230V310 9999 FEW020 SCT030 BKN050 04/M05 Q1017,RJSA,2024-03-22T04:00:00Z,40.733,140.689,4,-5,280,12,22,6+,30.03,,,,,,,,,,,FEW,2000,SCT,3000,BKN,5000,,,VFR,,,,,,,,,,,,METAR,196
RJOY 220400Z VRB04KT 9999 FEW030 11/M02 Q1021,RJOY,2024-03-22T04:00:00Z,34.597,135.601,11,-2,VRB,4,,6+,30.15,,,,,,,,,,,FEW,3000,,,,,,,VFR,,,,,,,,,,,,METAR,10
RJOW 220400Z 13008KT 090V200 9999 FEW030 BKN/// 15/01 Q1019,RJOW,2024-03-22T04:00:00Z,34.676,131.79,15,1,130,8,,6+,30.09,,,,,,,,,,,FEW,3000,,,,,,,VFR,,,,,,,,,,,,METAR,54
RJOT 220400Z 05006KT 340V120 9999 FEW030 SCT/// 10/M03 Q1021,RJOT,2024-03-22T04:00:00Z,34.214,134.016,10,-3,50,6,,6+,30.15,,,,,,,,,,,FEW,3000,,,,,,,VFR,,,,,,,,,,,,METAR,181
RJOS 220400Z 02007KT 320V080 9999 FEW030 10/M02 Q1022,RJOS,2024-03-22T04:00:00Z,34.132,134.609,10,-2,20,7,,6+,30.18,,,,,,,,,,,FEW,3000,,,,,,,VFR,,,,,,,,,,,,METAR,3
RJOR 220400Z 02008KT 9999 FEW030 SCT/// 09/01 Q1021,RJOR,2024-03-22T04:00:00Z,35.53,134.165,9,1,20,8,,6+,30.15,,,,,,,,,,,FEW,3000,,,,,,,VFR,,,,,,,,,,,,METAR,11
RJOO 220400Z VRB04KT 9999 FEW025 11/M03 Q1021 RMK 1CU025 A3016,RJOO,2024-03-22T04:00:00Z,34.784,135.439,11,-3,VRB,4,,6+,30.15,,,,,,,,,,,FEW,2500,,,,,,,VFR,,,,,,,,,,,,METAR,11
RJOM 220400Z 36010KT 9999 FEW025 BKN/// 12/01 Q1020,RJOM,2024-03-22T04:00:00Z,33.83,132.698,12,1,360,10,,6+,30.12,,,,,,,,,,,FEW,2500,,,,,,,VFR,,,,,,,,,,,,METAR,3
RJOK 220400Z 19008KT 150V220 9999 FEW035 SCT170 BKN/// 13/M02 Q1021,RJOK,2024-03-22T04:00:00Z,33.546,133.669,13,-2,190,8,,6+,30.15,,,,,,,,,,,FEW,3500,SCT,17000,,,,,VFR,,,,,,,,,,,,METAR,7
RJOH 220400Z 05008KT 020V080 9999 FEW030 SCT250 11/00 Q1021,RJOH,2024-03-22T04:00:00Z,35.493,133.239,11,0,50,8,,6+,30.15,,,,,,,,,,,FEW,3000,SCT,25000,,,,,VFR,,,,,,,,,,,,METAR,6
RJOC 220400Z 04011KT 9999 FEW030 SCT170 BKN/// 11/01 Q1020,RJOC,2024-03-22T04:00:00Z,35.414,132.89,11,1,40,11,,6+,30.12,,,,,,,,,,,FEW,3000,SCT,17000,,,,,VFR,,,,,,,,,,,,METAR,2
RJOB 220400Z VRB03KT 9999 FEW025 10/M01 Q1021,RJOB,2024-03-22T04:00:00Z,34.757,133.855,10,-1,VRB,3,,6+,30.15,,,,,,,,,,,FEW,2500,,,,,,,VFR,,,,,,,,,,,,METAR,242
RJOA 220400Z 12006KT 020V190 CAVOK 10/M00 Q1020,RJOA,2024-03-22T04:00:00Z,34.436,132.919,10,0,120,6,,6+,30.12,,,,,,,,,,,CAVOK,,,,,,,,VFR,,,,,,,,,,,,METAR,318
RJNW 220400Z VRB04KT 9999 FEW030 BKN040 04/M05 Q1021,RJNW,2024-03-22T04:00:00Z,37.293,136.962,4,-5,VRB,4,,6+,30.15,,,,,,,,,,,FEW,3000,BKN,4000,,,,,VFR,,,,,,,,,,,,METAR,222
RJNT 220400Z VRB03KT 9999 FEW020 SCT050 07/M04 Q1022,RJNT,2024-03-22T04:00:00Z,36.641,137.187,7,-4,VRB,3,,6+,30.18,,,,,,,,,,,FEW,2000,SCT,5000,,,,,VFR,,,,,,,,,,,,METAR,30
RJNS 220400Z 14010KT 100V180 9999 FEW030 10/M08 Q1018,RJNS,2024-03-22T04:00:00Z,34.796,138.189,10,-8,140,10,,6+,30.06,,,,,,,,,,,FEW,3000,,,,,,,VFR,,,,,,,,,,,,METAR,133
RJNK 220400Z 33008KT 300V020 9999 FEW030 SCT050 08/M03 Q1022,RJNK,2024-03-22T04:00:00Z,36.394,136.407,8,-3,330,8,,6+,30.18,,,,,,,,,,,FEW,3000,SCT,5000,,,,,VFR,,,,,,,,,,,,METAR,7
RJKI 220400Z AUTO 18007KT 110V240 9999 NCD 21/05 Q1020,RJKI,2024-03-22T04:00:00Z,28.321,129.928,21,5,180,7,,6+,30.12,,,TRUE,,,,,,,,CLR,,,,,,,,VFR,,,,,,,,,,,,METAR,6
RJKA 220400Z 19009KT 160V220 9999 FEW040 20/08 Q1019,RJKA,2024-03-22T04:00:00Z,28.431,129.713,20,8,190,9,,6+,30.09,,,,,,,,,,,FEW,4000,,,,,,,VFR,,,,,,,,,,,,METAR,7
RJGG 220400Z 33011KT 9999 FEW030 10/M01 Q1021 NOSIG,RJGG,2024-03-22T04:00:00Z,34.858,136.805,10,-1,330,11,,6+,30.15,,,,,,TRUE,,,,,FEW,3000,,,,,,,VFR,,,,,,,,,,,,METAR,5
RJFU 220400Z 28003KT 220V310 9999 FEW040 16/01 Q1018,RJFU,2024-03-22T04:00:00Z,32.917,129.914,16,1,280,3,,6+,30.06,,,,,,,,,,,FEW,4000,,,,,,,VFR,,,,,,,,,,,,METAR,2
RJFT 220400Z 24007KT 150V310 9999 FEW040 17/M01 Q1019,RJFT,2024-03-22T04:00:00Z,32.837,130.855,17,-1,240,7,,6+,30.09,,,,,,,,,,,FEW,4000,,,,,,,VFR,,,,,,,,,,,,METAR,188
RJFS 220400Z 14009KT CAVOK 14/04 Q1019,RJFS,2024-03-22T04:00:00Z,33.15,130.302,14,4,140,9,,6+,30.09,,,,,,,,,,,CAVOK,,,,,,,,VFR,,,,,,,,,,,,METAR,2
RJFR 220400Z 09016KT CAVOK 11/02 Q1020,RJFR,2024-03-22T04:00:00Z,33.846,131.035,11,2,90,16,,6+,30.12,,,,,,,,,,,CAVOK,,,,,,,,VFR,,,,,,,,,,,,METAR,9
RJFO 220400Z 11008KT CAVOK 12/01 Q1020,RJFO,2024-03-22T04:00:00Z,33.479,131.737,12,1,110,8,,6+,30.12,,,,,,,,,,,CAVOK,,,,,,,,VFR,,,,,,,,,,,,METAR,3
RJFM 220400Z 10008KT 070V150 9999 FEW030 BKN045 16/06 Q1020,RJFM,2024-03-22T04:00:00Z,31.877,131.449,16,6,100,8,,6+,30.12,,,,,,,,,,,FEW,3000,BKN,4500,,,,,VFR,,,,,,,,,,,,METAR,10
RJFG 220400Z 11008KT 9999 FEW025 15/08 Q1020,RJFG,2024-03-22T04:00:00Z,30.605,130.992,15,8,110,8,,6+,30.12,,,,,,,,,,,FEW,2500,,,,,,,VFR,,,,,,,,,,,,METAR,234
RJFF 220400Z 16011KT 130V190 CAVOK 18/M04 Q1018 BECMG 33008KT RMK A3007,RJFF,2024-03-22T04:00:00Z,33.584,130.452,18,-4,160,11,,6+,30.06,,,,,,,,,,,CAVOK,,,,,,,,VFR,,,,,,,,,,,,METAR,7
RJFE 220400Z 18015KT 150V220 9999 FEW030 BKN140 14/07 Q1018,RJFE,2024-03-22T04:00:00Z,32.666,128.833,14,7,180,15,,6+,30.06,,,,,,,,,,,FEW,3000,BKN,14000,,,,,VFR,,,,,,,,,,,,METAR,80
RJEC 220400Z 35006KT 9999 FEW030 SCT/// M00/M08 Q1015,RJEC,2024-03-22T04:00:00Z,43.671,142.447,0,-8,350,6,,6+,29.97,,,,,,,,,,,FEW,3000,,,,,,,VFR,,,,,,,,,,,,METAR,209
RJEB 220400Z 01003KT 320V080 9999 FEW030 SCT/// M00/M06 Q1016,RJEB,2024-03-22T04:00:00Z,44.304,143.404,0,-6,10,3,,6+,30.00,,,,,,,,,,,FEW,3000,,,,,,,VFR,,,,,,,,,,,,METAR,24
RJDT 220400Z VRB10KT 9999 FEW030 BKN/// 14/07 Q1018,RJDT,2024-03-22T04:00:00Z,34.288,129.325,14,7,VRB,10,,6+,30.06,,,,,,,,,,,FEW,3000,,,,,,,VFR,,,,,,,,,,,,METAR,61
RJDC 220400Z 10017KT CAVOK 12/02 Q1019,RJDC,2024-03-22T04:00:00Z,33.93,131.279,12,2,100,17,,6+,30.09,,,,,,,,,,,CAVOK,,,,,,,,VFR,,,,,,,,,,,,METAR,5
RJDB 220400Z AUTO 22009KT 200V260 9999 NCD 14/03 Q1018,RJDB,2024-03-22T04:00:00Z,33.749,129.785,14,3,220,9,,6+,30.06,,,TRUE,,,,,,,,CLR,,,,,,,,VFR,,,,,,,,,,,,METAR,13
RJCW 220400Z 27010KT 9999 FEW020 BKN025 02/M03 Q1016,RJCW,2024-03-22T04:00:00Z,45.404,141.802,2,-3,270,10,,6+,30.00,,,,,,,,,,,FEW,2000,BKN,2500,,,,,MVFR,,,,,,,,,,,,METAR,11
RJCO 220400Z 32012KT 9999 FEW020 SCT030 03/M03 Q1019,RJCO,2024-03-22T04:00:00Z,43.117,141.381,3,-3,320,12,,6+,30.09,,,,,,,,,,,FEW,2000,SCT,3000,,,,,VFR,,,,,,,,,,,,METAR,7
RJCN 220400Z 35009KT 300V020 9999 FEW030 SCT/// M00/M08 Q1014,RJCN,2024-03-22T04:00:00Z,43.578,144.96,0,-8,350,9,,6+,29.94,,,,,,,,,,,FEW,3000,,,,,,,VFR,,,,,,,,,,,,METAR,62
RJCM 220400Z 02011KT 9999 FEW020 SCT/// M00/M07 Q1015,RJCM,2024-03-22T04:00:00Z,43.881,144.164,0,-7,20,11,,6+,29.97,,,,,,,,,,,FEW,2000,,,,,,,VFR,,,,,,,,,,,,METAR,30
RJCK 220400Z 03008KT 350V060 9999 FEW040 SCT/// 02/M08 Q1014,RJCK,2024-03-22T04:00:00Z,43.041,144.193,2,-8,30,8,,6+,29.94,,,,,,,,,,,FEW,4000,,,,,,,VFR,,,,,,,,,,,,METAR,94
RJCH 220400Z 32008KT 280V010 9999 FEW030 SCT050 07/M06 Q1017,RJCH,2024-03-22T04:00:00Z,41.77,140.822,7,-6,320,8,,6+,30.03,,,,,,,,,,,FEW,3000,SCT,5000,,,,,VFR,,,,,,,,,,,,METAR,36
RJCC 220400Z 36011KT 9999 FEW025 BKN/// 02/M05 Q1017 RMK 1CU025 A3004,RJCC,2024-03-22T04:00:00Z,42.774,141.693,2,-5,360,11,,6+,30.03,,,,,,,,,,,FEW,2500,,,,,,,VFR,,,,,,,,,,,,METAR,19
RJCB 220400Z 36005KT 9999 FEW030 SCT/// M01/M09 Q1014,RJCB,2024-03-22T04:00:00Z,42.733,143.217,-1,-9,360,5,,6+,29.94,,,,,,,,,,,FEW,3000,,,,,,,VFR,,,,,,,,,,,,METAR,149
RJBT 220400Z VRB02KT 9999 FEW020 SCT100 08/M01 Q1021,RJBT,2024-03-22T04:00:00Z,35.513,134.787,8,-1,VRB,2,,6+,30.15,,,,,,,,,,,FEW,2000,SCT,10000,,,,,VFR,,,,,,,,,,,,METAR,172
RJBE 220400Z 20006KT 170V230 9999 FEW030 08/M01 Q1022,RJBE,2024-03-22T04:00:00Z,34.633,135.224,8,-1,200,6,,6+,30.18,,,,,,,,,,,FEW,3000,,,,,,,VFR,,,,,,,,,,,,METAR,5
RJBD 220400Z 27010KT 230V310 9999 FEW035 BKN/// 11/00 Q1020,RJBD,2024-03-22T04:00:00Z,33.662,135.364,11,0,270,10,,6+,30.12,,,,,,,,,,,FEW,3500,,,,,,,VFR,,,,,,,,,,,,METAR,91
RJBB 220400Z 33005KT 9999 FEW030 08/M01 Q1022 BECMG 30005KT,RJBB,2024-03-22T04:00:00Z,34.434,135.233,8,-1,330,5,,6+,30.18,,,,,,,,,,,FEW,3000,,,,,,,VFR,,,,,,,,,,,,METAR,8
RJAW 220400Z 02011KT 350V050 9999 FEW030 SCT050 20/10 Q1019 RMK 2CU030 4SC050 A3010 WIND BY EQPT/25,RJAW,2024-03-22T04:00:00Z,24.784,141.322,20,10,20,11,,6+,30.09,,,,,,,,,,,FEW,3000,SCT,5000,,,,,VFR,,,,,,,,,,,,METAR,116
RJAH 220400Z 30011KT 9999 FEW030 SCT070 11/M10 Q1018,RJAH,2024-03-22T04:00:00Z,36.182,140.415,11,-10,300,11,,6+,30.06,,,,,,,,,,,FEW,3000,SCT,7000,,,,,VFR,,,,,,,,,,,,METAR,31
RJAF 220400Z 33008KT 290V020 9999 FEW050 06/M09 Q1016,RJAF,2024-03-22T04:00:00Z,36.167,137.923,6,-9,330,8,,6+,30.00,,,,,,,,,,,FEW,5000,,,,,,,VFR,,,,,,,,,,,,METAR,652
RJAA 220400Z 29008KT 250V340 9999 FEW040 10/M08 Q1018 NOSIG RMK 1CU040 A3007,RJAA,2024-03-22T04:00:00Z,35.765,140.386,10,-8,290,8,,6+,30.06,,,,,,TRUE,,,,,FEW,4000,,,,,,,VFR,,,,,,,,,,,,METAR,36
RCTP 220400Z 31009KT 9999 FEW015 SCT150 24/18 Q1014 NOSIG RMK A2997,RCTP,2024-03-22T04:00:00Z,25.078,121.233,24,18,310,9,,6+,29.94,,,,,,TRUE,,,,,FEW,1500,SCT,15000,,,,,VFR,,,,,,,,,,,,METAR,33
RCNN 220400Z 28003KT 9999 FEW012 BKN060 26/14 Q1015 NOSIG RMK A2999,RCNN,2024-03-22T04:00:00Z,22.95,120.206,26,14,280,3,,6+,29.97,,,,,,TRUE,,,,,FEW,1200,BKN,6000,,,,,VFR,,,,,,,,,,,,METAR,15
RCMQ 220400Z 18007KT 9999 FEW010 BKN100 25/13 Q1014 NOSIG RMK A2995,RCMQ,2024-03-22T04:00:00Z,24.265,120.621,25,13,180,7,,6+,29.94,,,,,,TRUE,,,,,FEW,1000,BKN,10000,,,,,VFR,,,,,,,,,,,,METAR,202
RCKH 220400Z 22009KT 180V250 CAVOK 28/13 Q1014 NOSIG RMK A2996,RCKH,2024-03-22T04:00:00Z,22.577,120.35,28,13,220,9,,6+,29.94,,,,,,TRUE,,,,,CAVOK,,,,,,,,VFR,,,,,,,,,,,,METAR,6
RCFN 220400Z VRB02KT 9999 FEW028 SCT055 24/15 Q1017 NOSIG RMK A3004,RCFN,2024-03-22T04:00:00Z,22.755,121.102,24,15,VRB,2,,6+,30.03,,,,,,TRUE,,,,,FEW,2800,SCT,5500,,,,,VFR,,,,,,,,,,,,METAR,42
PLCH 220400Z 01003KT 9999 SCT019 BKN040 28/25 Q1010,PLCH,2024-03-22T04:00:00Z,1.988,-157.349,28,25,10,3,,6+,29.82,,,,,,,,,,,SCT,1900,BKN,4000,,,,,VFR,,,,,,,,,,,,METAR,5
PHSF 220400Z AUTO 13010KT 10SM SCT026 BKN040 OVC049 14/11 A3036 RMK AO2 SLPNO $,PHSF,2024-03-22T04:00:00Z,19.758,-155.557,14,11,130,10,,10+,30.36,,,TRUE,TRUE,TRUE,,,,,,SCT,2600,BKN,4000,OVC,4900,,,VFR,,,,,,,,,,,,METAR,1863
OTHH 220400Z AUTO 35012KT CAVOK 21/15 Q1012 NOSIG,OTHH,2024-03-22T04:00:00Z,25.273,51.609,21,15,350,12,,6+,29.88,,,TRUE,,,TRUE,,,,,CAVOK,,,,,,,,VFR,,,,,,,,,,,,METAR,3
OTBD 220400Z AUTO 01011KT CAVOK 21/15 Q1012 NOSIG,OTBD,2024-03-22T04:00:00Z,25.261,51.565,21,15,10,11,,6+,29.88,,,TRUE,,,TRUE,,,,,CAVOK,,,,,,,,VFR,,,,,,,,,,,,METAR,13
OSLK 220400Z 25010KT 7000 FEW026 CB SCT030 BKN100 14/07 Q1009,OSLK,2024-03-22T04:00:00Z,35.402,35.949,14,7,250,10,,4.35,29.79,,,,,,,,,,,FEW,2600,SCT,3000,BKN,10000,,,MVFR,,,,,,,,,,,,METAR,47
OSKL 220400Z 08016KT 0800 FG FEW020 CB SCT026 OVC100 11/09 Q1007,OSKL,2024-03-22T04:00:00Z,37.029,41.199,11,9,80,16,,0.5,29.73,,,,,,,,,,FG,FEW,2000,SCT,2600,OVC,10000,,,LIFR,,,,,,,,,,,,METAR,443
OSDI 220400Z 25010KT 9999 FEW030 09/03 Q1011,OSDI,2024-03-22T04:00:00Z,33.411,36.516,9,3,250,10,,6+,29.85,,,,,,,,,,,FEW,3000,,,,,,,VFR,,,,,,,,,,,,METAR,614
OSAP 220400Z 26006KT 6000 08/08 Q1008,OSAP,2024-03-22T04:00:00Z,36.183,37.218,8,8,260,6,,3.73,29.76,,,,,,,,,,,,,,,,,,,MVFR,,,,,,,,,,,,METAR,390
ORSU 220400Z 28003KT CAVOK 05/05 Q1013,ORSU,2024-03-22T04:00:00Z,35.56,45.318,5,5,280,3,,6+,29.91,,,,,,,,,,,CAVOK,,,,,,,,VFR,,,,,,,,,,,,METAR,760
ORMM 220400Z 00000KT 5000 RA SCT030 SCT040 BKN100 17/13 Q1013 NOSIG ,ORMM,2024-03-22T04:00:00Z,30.549,47.662,17,13,0,0,,3.11,29.91,,,,,,TRUE,,,,RA,SCT,3000,SCT,4000,BKN,10000,,,MVFR,,,,,,,,,,,,METAR,2
ORKK 220400Z 11004KT 9999 FEW040 BKN100 16/06 Q1009,ORKK,2024-03-22T04:00:00Z,35.469,44.3494,16,6,110,4,,6+,29.79,,,,,,,,,,,FEW,4000,BKN,10000,,,,,VFR,,,,,,,,,,,,METAR,331
ORER 220400Z 27007KT 8000 SCT035 BKN080 12/12 Q1013,ORER,2024-03-22T04:00:00Z,36.232,43.951,12,12,270,7,,4.97,29.91,,,,,,,,,,,SCT,3500,BKN,8000,,,,,MVFR,,,,,,,,,,,,METAR,399
OPST 220400Z 05004KT 4000 FU SCT100 21/14 Q1014 NOSIG RH65,OPST,2024-03-22T04:00:00Z,32.536,74.364,21,14,50,4,,2.49,29.94,,,,,,TRUE,,,,FU,SCT,10000,,,,,,,IFR,,,,,,,,,,,,METAR,234
OPSK 220400Z 05010KT 4000 HZ NSC 25/16 Q1010 NOSIG,OPSK,2024-03-22T04:00:00Z,27.722,68.792,25,16,50,10,,2.49,29.82,,,,,,TRUE,,,,HZ,CLR,,,,,,,,IFR,,,,,,,,,,,,METAR,62
OPPS 220400Z 31004KT 5000 SCT075 20/13 Q1015,OPPS,2024-03-22T04:00:00Z,33.996,71.515,20,13,310,4,,3.11,29.97,,,,,,,,,,,SCT,7500,,,,,,,MVFR,,,,,,,,,,,,METAR,356
OPNH 220400Z 04504KT 5000HZ FEW100 24/13 Q1008,OPNH,2024-03-22T04:00:00Z,26.219,68.386,24,13,45,4,,,29.76,,,,,,,,,,HZ,FEW,10000,,,,,,,VFR,,,,,,,,,,,,METAR,30
OPMT 220400Z 36004KT 2500 FU NSC 22/18 Q1010 NOSIG,OPMT,2024-03-22T04:00:00Z,30.203,71.419,22,18,360,4,,1.55,29.82,,,,,,TRUE,,,,FU,CLR,,,,,,,,IFR,,,,,,,,,,,,METAR,122
OPIS 220400Z 00000KT 4000 FU SCT040 BKN100 18/15 Q1015 TEMPO 04015G25KT 2000 TSRA FEW030CB,OPIS,2024-03-22T04:00:00Z,33.551,72.827,18,15,0,0,,2.49,29.97,,,,,,,,,,FU,SCT,4000,BKN,10000,,,,,IFR,,,,,,,,,,,,METAR,542
OMSJ 220400Z 14006KT 110V180 2800 HZ NSC 20/17 Q1012 BECMG 6000 NSW,OMSJ,2024-03-22T04:00:00Z,25.329,55.517,20,17,140,6,,1.74,29.88,,,,,,,,,,HZ,CLR,,,,,,,,IFR,,,,,,,,,,,,METAR,33
OMRK 220400Z 20006KT 170V240 5000 NSC 21/19 Q1012 A2989,OMRK,2024-03-22T04:00:00Z,25.613,55.939,21,19,200,6,,3.11,29.88,,,,,,,,,,,CLR,,,,,,,,MVFR,,,,,,,,,,,,METAR,18
OMFJ 220400Z 29006KT 270V340 CAVOK 25/06 Q1011 A2987,OMFJ,2024-03-22T04:00:00Z,25.112,56.324,25,6,290,6,,6+,29.85,,,,,,,,,,,CAVOK,,,,,,,,VFR,,,,,,,,,,,,METAR,27
OMDW 220400Z 16004KT 130V200 7000 NSC 20/17 Q1012 NOSIG,OMDW,2024-03-22T04:00:00Z,24.897,55.161,20,17,160,4,,4.35,29.88,,,,,,TRUE,,,,,CLR,,,,,,,,MVFR,,,,,,,,,,,,METAR,34
OMDB 220400Z 16006KT 130V190 7000 NSC 22/18 Q1011 NOSIG,OMDB,2024-03-22T04:00:00Z,25.254,55.366,22,18,160,6,,4.35,29.85,,,,,,TRUE,,,,,CLR,,,,,,,,MVFR,,,,,,,,,,,,METAR,5
OMAL 220400Z VRB02KT CAVOK 21/16 Q1012 NOSIG,OMAL,2024-03-22T04:00:00Z,24.262,55.609,21,16,VRB,2,,6+,29.88,,,,,,TRUE,,,,,CAVOK,,,,,,,,VFR,,,,,,,,,,,,METAR,247
OMAD 220400Z 19004KT 140V270 7000 NSC 22/19 Q1011 NOSIG,OMAD,2024-03-22T04:00:00Z,24.428,54.458,22,19,190,4,,4.35,29.85,,,,,,TRUE,,,,,CLR,,,,,,,,MVFR,,,,,,,,,,,,METAR,9
OMAA 220400Z 19003KT 150V220 8000 NSC 21/18 Q1011 NOSIG,OMAA,2024-03-22T04:00:00Z,24.433,54.651,21,18,190,3,,4.97,29.85,,,,,,TRUE,,,,,CLR,,,,,,,,MVFR,,,,,,,,,,,,METAR,13
OLBA 220400Z 22011KT 8000 BKN026 16/08 Q1012 NOSIG,OLBA,2024-03-22T04:00:00Z,33.82,35.491,16,8,220,11,,4.97,29.88,,,,,,TRUE,,,,,BKN,2600,,,,,,,MVFR,,,,,,,,,,,,METAR,29
OKKK 220400Z 31003KT 6000 -RA FEW040 BKN080 18/15 Q1012 NOSIG,OKKK,2024-03-22T04:00:00Z,29.227,47.969,18,15,310,3,,3.73,29.88,,,,,,TRUE,,,,-RA,FEW,4000,BKN,8000,,,,,MVFR,,,,,,,,,,,,METAR,55
OJAQ 220400Z 35012KT 6000 NSC 16/07 Q1014 NOSIG,OJAQ,2024-03-22T04:00:00Z,29.612,35.018,16,7,350,12,,3.73,29.94,,,,,,TRUE,,,,,CLR,,,,,,,,MVFR,,,,,,,,,,,,METAR,45
OJAM 220400Z 25016KT 4000 BR FEW015 SCT030TCU 08/05 Q1013 NOSIG,OJAM,2024-03-22T04:00:00Z,31.973,35.992,8,5,250,16,,2.49,29.91,,,,,,TRUE,,,,BR,FEW,1500,SCT,3000,,,,,IFR,,,,,,,,,,,,METAR,765
OJAI 220400Z 26012KT 5000 HZ NSC 08/05 Q1013 NOSIG,OJAI,2024-03-22T04:00:00Z,31.723,35.993,8,5,260,12,,3.11,29.91,,,,,,TRUE,,,,HZ,CLR,,,,,,,,MVFR,,,,,,,,,,,,METAR,723
OIZJ 220400Z 32008KT 6000 NSC 26/14 Q1009,OIZJ,2024-03-22T04:00:00Z,25.653,57.798,26,14,320,8,,3.73,29.79,,,,,,,,,,,CLR,,,,,,,,MVFR,,,,,,,,,,,,METAR,6
OIZI 220400Z 00000KT CAVOK 24/09 Q1015,OIZI,2024-03-22T04:00:00Z,27.236,60.72,24,9,0,0,,6+,29.97,,,,,,,,,,,CAVOK,,,,,,,,VFR,,,,,,,,,,,,METAR,622
OIZH 220400Z 03006KT CAVOK 17/M00 Q1020 A3012 NOSIG,OIZH,2024-03-22T04:00:00Z,29.472,60.901,17,0,30,6,,6+,30.12,,,,,,TRUE,,,,,CAVOK,,,,,,,,VFR,,,,,,,,,,,,METAR,1378
OIZB 220400Z 35018KT CAVOK 19/04 Q1016,OIZB,2024-03-22T04:00:00Z,31.094,61.546,19,4,350,18,,6+,30.00,,,,,,,,,,,CAVOK,,,,,,,,VFR,,,,,,,,,,,,METAR,483
OIYY 220400Z 22004KT CAVOK 12/M01 Q1015 NOSIG,OIYY,2024-03-22T04:00:00Z,31.905,54.276,12,-1,220,4,,6+,29.97,,,,,,TRUE,,,,,CAVOK,,,,,,,,VFR,,,,,,,,,,,,METAR,1226
OITZ 220400Z 11006KT CAVOK 04/M03 Q1014 A2995,OITZ,2024-03-22T04:00:00Z,36.772,48.363,4,-3,110,6,,6+,29.94,,,,,,,,,,,CAVOK,,,,,,,,VFR,,,,,,,,,,,,METAR,1630
OITT 220400Z 03004KT 9999 SCT030 BKN180 05/01 Q1013 A2991,OITT,2024-03-22T04:00:00Z,38.13,46.24,5,1,30,4,,6+,29.91,,,,,,,,,,,SCT,3000,BKN,18000,,,,,VFR,,,,,,,,,,,,METAR,1353
OITR 220400Z 32004KT 9999 SCT035CB SCT040 BKN100 06/02 Q1010 A2985,OITR,2024-03-22T04:00:00Z,37.665,45.066,6,2,320,4,,6+,29.82,,,,,,,,,,,SCT,3500,SCT,4000,BKN,10000,,,VFR,,,,,,,,,,,,METAR,1312
OITP 220400Z 00000KT 0050 FG VV001 08/08 Q1013,OITP,2024-03-22T04:00:00Z,39.604,47.882,8,8,0,0,,0.03,29.91,,,,,,,,,,FG,OVX,0,,,,,,,LIFR,,,,,,,,,,,100,METAR,72
OITM 220400Z 08008KT 9999 FEW040 BKN190 07/00 Q1011,OITM,2024-03-22T04:00:00Z,37.348,46.146,7,0,80,8,,6+,29.85,,,,,,,,,,,FEW,4000,BKN,19000,,,,,VFR,,,,,,,,,,,,METAR,1340
OITL 220400Z 21012KT 9999 FEW030 BKN180 07/01 Q1012 NOSIG,OITL,2024-03-22T04:00:00Z,38.326,48.424,7,1,210,12,,6+,29.88,,,,,,TRUE,,,,,FEW,3000,BKN,18000,,,,,VFR,,,,,,,,,,,,METAR,1314
OITK 220400Z 15010KT 9999 FEW035CB SCT040 OVC090 09/02 Q1011 A2985,OITK,2024-03-22T04:00:00Z,38.425,44.975,9,2,150,10,,6+,29.85,,,,,,,,,,,FEW,3500,SCT,4000,OVC,9000,,,VFR,,,,,,,,,,,,METAR,1192
OISY 220400Z 00000KT 9999 SCT100 SCT200 06/M01 Q1019,OISY,2024-03-22T04:00:00Z,30.701,51.545,6,-1,0,0,,6+,30.09,,,,,,,,,,,SCT,10000,SCT,20000,,,,,VFR,,,,,,,,,,,,METAR,1800
OISS 220400Z 00000KT 9999 FEW035CB SCT040 BKN100 08/02 Q1018 A3006,OISS,2024-03-22T04:00:00Z,29.539,52.59,8,2,0,0,,6+,30.06,,,,,,,,,,,FEW,3500,SCT,4000,BKN,10000,,,VFR,,,,,,,,,,,,METAR,1484
OISR 220400Z 27010KT 9999 FEW030CB SCT035 OVC080 16/10 Q1015 A2998,OISR,2024-03-22T04:00:00Z,27.364,53.203,16,10,270,10,,6+,29.97,,,,,,,,,,,FEW,3000,SCT,3500,OVC,8000,,,VFR,,,,,,,,,,,,METAR,402
OISL 220400Z 00000KT CAVOK 14/11 Q1013 A2993,OISL,2024-03-22T04:00:00Z,27.67,54.375,14,11,0,0,,6+,29.91,,,,,,,,,,,CAVOK,,,,,,,,VFR,,,,,,,,,,,,METAR,804
OISF 220400Z 33004KT CAVOK 09/07 Q1018 A3006,OISF,2024-03-22T04:00:00Z,28.895,53.72,9,7,330,4,,6+,30.06,,,,,,,,,,,CAVOK,,,,,,,,VFR,,,,,,,,,,,,METAR,1305
OINZ 220400Z 06008KT CAVOK 11/08 Q1014,OINZ,2024-03-22T04:00:00Z,36.636,53.194,11,8,60,8,,6+,29.94,,,,,,,,,,,CAVOK,,,,,,,,VFR,,,,,,,,,,,,METAR,8
OINR 220400Z 16004KT 6000 BKN015 FEW020CB OVC080 12/10 Q1013,OINR,2024-03-22T04:00:00Z,36.91,50.68,12,10,160,4,,3.73,29.91,,,,,,,,,,,BKN,1500,FEW,2000,OVC,8000,,,MVFR,,,,,,,,,,,,METAR,-19
OINN 220400Z 23002KT 9999 FEW024TCU BKN027 11/09 Q1014,OINN,2024-03-22T04:00:00Z,36.663,51.465,11,9,230,2,,6+,29.94,,,,,,,,,,,FEW,2400,BKN,2700,,,,,MVFR,,,,,,,,,,,,METAR,-25
OING 220400Z 25004KT 6000 NSC 08/07 Q1016 NOSIG,OING,2024-03-22T04:00:00Z,36.908,54.404,8,7,250,4,,3.73,30.00,,,,,,TRUE,,,,,CLR,,,,,,,,MVFR,,,,,,,,,,,,METAR,
OINE 220400Z 00000KT 9999 FEW090 10/09 Q1014,OINE,2024-03-22T04:00:00Z,37.383,55.452,10,9,0,0,,6+,29.94,,,,,,,,,,,FEW,9000,,,,,,,VFR,,,,,,,,,,,,METAR,125
OIMS 220400Z 04016KT CAVOK 10/06 Q1019,OIMS,2024-03-22T04:00:00Z,36.171,57.6,10,6,40,16,,6+,30.09,,,,,,,,,,,CAVOK,,,,,,,,VFR,,,,,,,,,,,,METAR,920
OIMN 220400Z 00000KT 7000 FEW015 05/05 Q1018,OIMN,2024-03-22T04:00:00Z,37.488,57.303,5,5,0,0,,4.35,30.06,,,,,,,,,,,FEW,1500,,,,,,,MVFR,,,,,,,,,,,,METAR,1065
OIMM 220400Z 11006KT 5000 HZ BKN025 09/05 Q1020 A3013,OIMM,2024-03-22T04:00:00Z,36.236,59.639,9,5,110,6,,3.11,30.12,,,,,,,,,,HZ,BKN,2500,,,,,,,MVFR,,,,,,,,,,,,METAR,995
OIMJ 220400Z 36006KT CAVOK 07/M01 Q1017,OIMJ,2024-03-22T04:00:00Z,36.425,55.104,7,-1,360,6,,6+,30.03,,,,,,,,,,,CAVOK,,,,,,,,VFR,,,,,,,,,,,,METAR,1285
OIMB 220400Z 10012KT CAVOK 12/M01 Q1018 A3008,OIMB,2024-03-22T04:00:00Z,32.894,59.29,12,-1,100,12,,6+,30.06,,,,,,,,,,,CAVOK,,,,,,,,VFR,,,,,,,,,,,,METAR,1512
OIKQ 220400Z 00000KT 6000 NSC 22/20 Q1010 NOSIG,OIKQ,2024-03-22T04:00:00Z,26.755,55.902,22,20,0,0,,3.73,29.82,,,,,,TRUE,,,,,CLR,,,,,,,,MVFR,,,,,,,,,,,,METAR,9
OIKK 220400Z 09004KT CAVOK 10/01 Q1018 A3008,OIKK,2024-03-22T04:00:00Z,30.251,56.964,10,1,90,4,,6+,30.06,,,,,,,,,,,CAVOK,,,,,,,,VFR,,,,,,,,,,,,METAR,1749
OIKB 220400Z 35004KT 4000 HZ NSC 23/19 Q1011 A2986,OIKB,2024-03-22T04:00:00Z,27.218,56.378,23,19,350,4,,2.49,29.85,,,,,,,,,,HZ,CLR,,,,,,,,IFR,,,,,,,,,,,,METAR,6
OIIP 220400Z 31004KT 6000 NSC 07/02 Q1013 A2994,OIIP,2024-03-22T04:00:00Z,35.776,50.827,7,2,310,4,,3.73,29.91,,,,,,,,,,,CLR,,,,,,,,MVFR,,,,,,,,,,,,METAR,1270
OIIK 220400Z 00000KT CAVOK 07/03 Q1015,OIIK,2024-03-22T04:00:00Z,36.243,50.045,7,3,0,0,,6+,29.97,,,,,,,,,,,CAVOK,,,,,,,,VFR,,,,,,,,,,,,METAR,1278
OIII 220400Z 09004KT 9999 FEW110 14/M02 Q1014 A2997 NOSIG,OIII,2024-03-22T04:00:00Z,35.686,51.304,14,-2,90,4,,6+,29.94,,,,,,TRUE,,,,,FEW,11000,,,,,,,VFR,,,,,,,,,,,,METAR,1182
OIIE 220400Z 28006KT CAVOK 09/01 Q1014,OIIE,2024-03-22T04:00:00Z,35.416,51.152,9,1,280,6,,6+,29.94,,,,,,,,,,,CAVOK,,,,,,,,VFR,,,,,,,,,,,,METAR,993
OIHH 220400Z 18002KT CAVOK 03/00 Q1014 A2997,OIHH,2024-03-22T04:00:00Z,34.869,48.553,3,0,180,2,,6+,29.94,,,,,,,,,,,CAVOK,,,,,,,,VFR,,,,,,,,,,,,METAR,1742
OIGG 220400Z 00000KT 4500 BR BKN009 FEW015CB OVC060 11/11 Q1014,OIGG,2024-03-22T04:00:00Z,37.325,49.606,11,11,0,0,,2.8,29.94,,,,,,,,,,BR,BKN,900,FEW,1500,OVC,6000,,,IFR,,,,,,,,,,,,METAR,-16
OIFS 220400Z 31002KT CAVOK M01/M04 Q1017,OIFS,2024-03-22T04:00:00Z,32.297,50.842,-1,-4,310,2,,6+,30.03,,,,,,,,,,,CAVOK,,,,,,,,VFR,,,,,,,,,,,,METAR,2042
OIFM 220400Z 29004KT CAVOK 05/M03 Q1017 A3003,OIFM,2024-03-22T04:00:00Z,32.752,51.866,5,-3,290,4,,6+,30.03,,,,,,,,,,,CAVOK,,,,,,,,VFR,,,,,,,,,,,,METAR,1539
OICS 220400Z 00000KT CAVOK 02/00 Q1014 A2997,OICS,2024-03-22T04:00:00Z,35.245,47.009,2,0,0,0,,6+,29.94,,,,,,,,,,,CAVOK,,,,,,,,VFR,,,,,,,,,,,,METAR,1369
OICM 220400Z 06002KT CAVOK 13/10 Q1008,OICM,2024-03-22T04:00:00Z,-99.99,-99.99,13,10,60,2,,6+,29.76,,,,,,,,,,,CAVOK,,,,,,,,VFR,,,,,,,,,,,,METAR,9999
OICK 220400Z 31002KT CAVOK 04/03 Q1014 A2997,OICK,2024-03-22T04:00:00Z,33.435,48.283,4,3,310,2,,6+,29.94,,,,,,,,,,,CAVOK,,,,,,,,VFR,,,,,,,,,,,,METAR,1156
OICI 220400Z 13006KT CAVOK 05/01 Q1015 A2998,OICI,2024-03-22T04:00:00Z,33.588,46.397,5,1,130,6,,6+,29.97,,,,,,,,,,,CAVOK,,,,,,,,VFR,,,,,,,,,,,,METAR,1323
OICC 220400Z 22004KT CAVOK 03/01 Q1014 A2997,OICC,2024-03-22T04:00:00Z,34.346,47.158,3,1,220,4,,6+,29.94,,,,,,,,,,,CAVOK,,,,,,,,VFR,,,,,,,,,,,,METAR,1310
OIBV 220400Z 33018G31KT 8000 -RA FEW030CB SCT035 BKN090 23/18 Q1011,OIBV,2024-03-22T04:00:00Z,26.81,53.356,23,18,330,18,31,4.97,29.85,,,,,,,,,,-RA,FEW,3000,SCT,3500,BKN,9000,,,MVFR,,,,,,,,,,,,METAR,23
OIBS 220400Z 21008KT 5000 BR NSC 24/21 Q1011,OIBS,2024-03-22T04:00:00Z,25.903,54.548,24,21,210,8,,3.11,29.85,,,,,,,,,,BR,CLR,,,,,,,,MVFR,,,,,,,,,,,,METAR,4
OIBQ 220400Z 31006KT 9999 SCT040 OVC090 20/17 Q1013 A2993,OIBQ,2024-03-22T04:00:00Z,29.259,50.324,20,17,310,6,,6+,29.91,,,,,,,,,,,SCT,4000,OVC,9000,,,,,VFR,,,,,,,,,,,,METAR,3
OIBP 220400Z 28008KT 8000 FEW030CB SCT035 OVC080 22/15 Q1013 A2993,OIBP,2024-03-22T04:00:00Z,27.38,52.738,22,15,280,8,,4.97,29.91,,,,,,,,,,,FEW,3000,SCT,3500,OVC,8000,,,MVFR,,,,,,,,,,,,METAR,13
OIBL 220400Z 16006KT 7000 BKN015 24/19 Q1010,OIBL,2024-03-22T04:00:00Z,26.532,54.825,24,19,160,6,,4.35,29.82,,,,,,,,,,,BKN,1500,,,,,,,MVFR,,,,,,,,,,,,METAR,25
OIBK 220400Z 28016KT 4000 BR NSC 23/20 Q1012,OIBK,2024-03-22T04:00:00Z,26.526,53.98,23,20,280,16,,2.49,29.88,,,,,,,,,,BR,CLR,,,,,,,,IFR,,,,,,,,,,,,METAR,27
OIBJ 220400Z 25004KT 9999 FEW030CB SCT035 BKN080 17/09 Q1016 A3001,OIBJ,2024-03-22T04:00:00Z,27.82,52.352,17,9,250,4,,6+,30.00,,,,,,,,,,,FEW,3000,SCT,3500,BKN,8000,,,VFR,,,,,,,,,,,,METAR,647
OIBH 220400Z 00000KT 9999 FEW035CB OVC080 16/14 Q1013 A2992,OIBH,2024-03-22T04:00:00Z,27.213,54.319,16,14,0,0,,6+,29.91,,,,,,,,,,,FEW,3500,OVC,8000,,,,,VFR,,,,,,,,,,,,METAR,412
OIBB 220400Z 30006KT 9999 FEW040 OVC100 20/15 Q1013 A2993 NOSIG,OIBB,2024-03-22T04:00:00Z,28.947,50.834,20,15,300,6,,6+,29.91,,,,,,TRUE,,,,,FEW,4000,OVC,10000,,,,,VFR,,,,,,,,,,,,METAR,15
OIBA 220400Z 21008KT 6000 NSC 24/19 Q1009,OIBA,2024-03-22T04:00:00Z,25.876,55.033,24,19,210,8,,3.73,29.79,,,,,,,,,,,CLR,,,,,,,,MVFR,,,,,,,,,,,,METAR,7
OIAW 220400Z 00000KT 9999 FEW035CB BKN040 16/12 Q1011 NOSIG,OIAW,2024-03-22T04:00:00Z,31.343,48.751,16,12,0,0,,6+,29.85,,,,,,TRUE,,,,,FEW,3500,BKN,4000,,,,,VFR,,,,,,,,,,,,METAR,25
OIAH 220400Z VRB02KT 9999 FEW040 SCT100 BKN190 12/07 Q1016,OIAH,2024-03-22T04:00:00Z,30.336,50.83,12,7,VRB,2,,6+,30.00,,,,,,,,,,,FEW,4000,SCT,10000,BKN,19000,,,VFR,,,,,,,,,,,,METAR,730
OIAG 220400Z 11006KT 9999 FEW035CB BKN040 15/12 Q1013,OIAG,2024-03-22T04:00:00Z,30.74,49.684,15,12,110,6,,6+,29.91,,,,,,,,,,,FEW,3500,BKN,4000,,,,,VFR,,,,,,,,,,,,METAR,17
OIAA 220400Z 170004KT 9999 FEW035CB FEW040 BKN100 17/12 Q1012,OIAA,2024-03-22T04:00:00Z,30.366,48.23,17,12,170,4,,6+,29.88,,,,,,,,,,,FEW,3500,FEW,4000,BKN,10000,,,VFR,,,,,,,,,,,,METAR,4
OEYN 220400Z 00000KT CAVOK 15/09 Q1006 NOSIG,OEYN,2024-03-22T04:00:00Z,24.144,38.063,15,9,0,0,,6+,29.70,,,,,,TRUE,,,,,CAVOK,,,,,,,,VFR,,,,,,,,,,,,METAR,20
OEWJ 220400Z 05004KT CAVOK 17/10 Q1009 NOSIG,OEWJ,2024-03-22T04:00:00Z,26.199,36.476,17,10,50,4,,6+,29.79,,,,,,TRUE,,,,,CAVOK,,,,,,,,VFR,,,,,,,,,,,,METAR,8
OEWD 220400Z 12010KT 9000 NSC 20/02 Q1012,OEWD,2024-03-22T04:00:00Z,20.504,45.197,20,2,120,10,,5.59,29.88,,,,,,,,,,,CLR,,,,,,,,VFR,,,,,,,,,,,,METAR,629
OETR 220400Z 27010KT CAVOK 10/07 Q1011 NOSIG,OETR,2024-03-22T04:00:00Z,31.693,38.731,10,7,270,10,,6+,29.85,,,,,,TRUE,,,,,CAVOK,,,,,,,,VFR,,,,,,,,,,,,METAR,854
OETF 220400Z 01005KT 5000 BR NSC 17/15 Q1016 NOSIG,OETF,2024-03-22T04:00:00Z,21.483,40.544,17,15,10,5,,3.11,30.00,,,,,,TRUE,,,,BR,CLR,,,,,,,,MVFR,,,,,,,,,,,,METAR,1460
OETB 220400Z 33005KT CAVOK 13/05 Q1012 NOSIG,OETB,2024-03-22T04:00:00Z,28.366,36.619,13,5,330,5,,6+,29.88,,,,,,TRUE,,,,,CAVOK,,,,,,,,VFR,,,,,,,,,,,,METAR,770
OESK 220400Z 28010KT CAVOK 15/08 Q1012 NOSIG,OESK,2024-03-22T04:00:00Z,29.785,40.1,15,8,280,10,,6+,29.88,,,,,,TRUE,,,,,CAVOK,,,,,,,,VFR,,,,,,,,,,,,METAR,671
OESH 220400Z 08004KT CAVOK 23/11 Q1013 NOSIG,OESH,2024-03-22T04:00:00Z,17.467,47.121,23,11,80,4,,6+,29.91,,,,,,TRUE,,,,,CAVOK,,,,,,,,VFR,,,,,,,,,,,,METAR,720
OERS 220400Z 09004KT CAVOK 16/12 Q1009 NOSIG,OERS,2024-03-22T04:00:00Z,-99.99,-99.99,16,12,90,4,,6+,29.79,,,,,,TRUE,,,,,CAVOK,,,,,,,,VFR,,,,,,,,,,,,METAR,9999
OERR 220400Z 22004KT 9999 FEW030 13/08 Q1008 NOSIG,OERR,2024-03-22T04:00:00Z,30.907,41.138,13,8,220,4,,6+,29.76,,,,,,TRUE,,,,,FEW,3000,,,,,,,VFR,,,,,,,,,,,,METAR,554
OERK 220400Z 14007KT CAVOK 17/04 Q1014 NOSIG,OERK,2024-03-22T04:00:00Z,24.945,46.702,17,4,140,7,,6+,29.94,,,,,,TRUE,,,,,CAVOK,,,,,,,,VFR,,,,,,,,,,,,METAR,618
OERF 220400Z 13015KT CAVOK 16/09 Q1010 NOSIG,OERF,2024-03-22T04:00:00Z,29.626,43.491,16,9,130,15,,6+,29.82,,,,,,TRUE,,,,,CAVOK,,,,,,,,VFR,,,,,,,,,,,,METAR,441
OEPA 220400Z 15012KT 9999 SCT035 15/10 Q1011 NOSIG,OEPA,2024-03-22T04:00:00Z,28.335,46.125,15,10,150,12,,6+,29.85,,,,,,TRUE,,,,,SCT,3500,,,,,,,VFR,,,,,,,,,,,,METAR,361
OENG 220400Z 06002KT 8000 FEW030 21/08 Q1017 NOSIG,OENG,2024-03-22T04:00:00Z,17.611,44.419,21,8,60,2,,4.97,30.03,,,,,,TRUE,,,,,FEW,3000,,,,,,,MVFR,,,,,,,,,,,,METAR,1210
OEMN 220400Z 27003KT 9999 BKN040 25/18 Q1012,OEMN,2024-03-22T04:00:00Z,-99.99,-99.99,25,18,270,3,,6+,29.88,,,,,,,,,,,BKN,4000,,,,,,,VFR,,,,,,,,,,,,METAR,9999
OEMA 220400Z 34006KT CAVOK 22/00 Q1012 NOSIG,OEMA,2024-03-22T04:00:00Z,24.553,39.705,22,0,340,6,,6+,29.88,,,,,,TRUE,,,,,CAVOK,,,,,,,,VFR,,,,,,,,,,,,METAR,639
OEKM 220400Z 20004KT CAVOK 19/07 Q1021 NOSIG,OEKM,2024-03-22T04:00:00Z,18.301,42.798,19,7,200,4,,6+,30.15,,,,,,TRUE,,,,,CAVOK,,,,,,,,VFR,,,,,,,,,,,,METAR,2038
OEKJ 220400Z 09009KT 8000 TSRA FEW030CB SCT040 17/10 Q1015,OEKJ,2024-03-22T04:00:00Z,24.07,47.58,17,10,90,9,,4.97,29.97,,,,,,,,,,TSRA,FEW,3000,SCT,4000,,,,,MVFR,,,,,,,,,,,,METAR,487
OEJN 220400Z 32009KT 9999 SCT040 25/17 Q1008 NOSIG,OEJN,2024-03-22T04:00:00Z,21.685,39.166,25,17,320,9,,6+,29.76,,,,,,TRUE,,,,,SCT,4000,,,,,,,VFR,,,,,,,,,,,,METAR,8
OEHL 220400Z 19006KT CAVOK 14/13 Q1011,OEHL,2024-03-22T04:00:00Z,27.438,41.686,14,13,190,6,,6+,29.85,,,,,,,,,,,CAVOK,,,,,,,,VFR,,,,,,,,,,,,METAR,1002
OEGT 220400Z 29016KT CAVOK 11/04 Q1012 NOSIG,OEGT,2024-03-22T04:00:00Z,31.412,37.279,11,4,290,16,,6+,29.88,,,,,,TRUE,,,,,CAVOK,,,,,,,,VFR,,,,,,,,,,,,METAR,512
OEGS 220400Z 18005KT 9999 SCT040 17/08 Q1010,OEGS,2024-03-22T04:00:00Z,26.303,43.774,17,8,180,5,,6+,29.82,,,,,,,,,,,SCT,4000,,,,,,,VFR,,,,,,,,,,,,METAR,647
OEGN 220400Z 33003KT 9000 FEW030 SCT100 28/24 Q1008 NOSIG,OEGN,2024-03-22T04:00:00Z,16.901,42.586,28,24,330,3,,5.59,29.76,,,,,,TRUE,,,,,FEW,3000,SCT,10000,,,,,VFR,,,,,,,,,,,,METAR,5
OEDR 220400Z 03010KT 9999 FEW040 BKN080 20/15 Q1011,OEDR,2024-03-22T04:00:00Z,26.265,50.152,20,15,30,10,,6+,29.85,,,,,,,,,,,FEW,4000,BKN,8000,,,,,VFR,,,,,,,,,,,,METAR,17
OEDM 220400Z 12010KT CAVOK 17/07 Q1012,OEDM,2024-03-22T04:00:00Z,24.45,44.121,17,7,120,10,,6+,29.88,,,,,,,,,,,CAVOK,,,,,,,,VFR,,,,,,,,,,,,METAR,922
OEDF 220400Z 21003KT 9999 SCT040 BKN100 18/14 Q1012 NOSIG,OEDF,2024-03-22T04:00:00Z,26.45,49.817,18,14,210,3,,6+,29.88,,,,,,TRUE,,,,,SCT,4000,BKN,10000,,,,,VFR,,,,,,,,,,,,METAR,15
OEBH 220400Z 06002KT 9999 SCT030 21/06 Q1012 NOSIG,OEBH,2024-03-22T04:00:00Z,19.984,42.621,21,6,60,2,,6+,29.88,,,,,,TRUE,,,,,SCT,3000,,,,,,,VFR,,,,,,,,,,,,METAR,1167
OEBA 220400Z 15004KT 9999 FEW030 19/10 Q1016 NOSIG,OEBA,2024-03-22T04:00:00Z,20.296,41.634,19,10,150,4,,6+,30.00,,,,,,TRUE,,,,,FEW,3000,,,,,,,VFR,,,,,,,,,,,,METAR,1659
OEAO 220400Z 00000KT CAVOK 16/07 Q1012 NOSIG,OEAO,2024-03-22T04:00:00Z,26.483,38.117,16,7,0,0,,6+,29.88,,,,,,TRUE,,,,,CAVOK,,,,,,,,VFR,,,,,,,,,,,,METAR,615
OEAH 220400Z 36003KT CAVOK 17/09 Q1013 NOSIG,OEAH,2024-03-22T04:00:00Z,25.285,49.485,17,9,360,3,,6+,29.91,,,,,,TRUE,,,,,CAVOK,,,,,,,,VFR,,,,,,,,,,,,METAR,180
OEAB 220400Z 20016KT 9999 SCT020 17/13 Q1021 NOSIG,OEAB,2024-03-22T04:00:00Z,18.24,42.657,17,13,200,16,,6+,30.15,,,,,,TRUE,,,,,SCT,2000,,,,,,,VFR,,,,,,,,,,,,METAR,2092
OBBI 220400Z 02013KT CAVOK 21/14 Q1012 NOSIG,OBBI,2024-03-22T04:00:00Z,26.271,50.634,21,14,20,13,,6+,29.88,,,,,,TRUE,,,,,CAVOK,,,,,,,,VFR,,,,,,,,,,,,METAR,6
NZWN 220400Z AUTO 34008KT 290V020 9999 NCD 20/11 Q1017,NZWN,2024-03-22T04:00:00Z,-41.331,174.806,20,11,340,8,,6+,30.03,,,TRUE,,,,,,,,CLR,,,,,,,,VFR,,,,,,,,,,,,METAR,12
NZQN 220400Z AUTO 24005KT 200V280 9999 NCD 20/08 Q1015,NZQN,2024-03-22T04:00:00Z,-45.021,168.739,20,8,240,5,,6+,29.97,,,TRUE,,,,,,,,CLR,,,,,,,,VFR,,,,,,,,,,,,METAR,356
NZCH 220400Z AUTO 20014KT 9999 SCT024/// 16/10 Q1017,NZCH,2024-03-22T04:00:00Z,-43.489,172.528,16,10,200,14,,6+,30.03,,,TRUE,,,,,,,,SCT,2400,,,,,,,VFR,,,,,,,,,,,,METAR,36
NZAA 220400Z AUTO 04010KT 010V080 9999 NCD 21/12 Q1017,NZAA,2024-03-22T04:00:00Z,-37.008,174.792,21,12,40,10,,6+,30.03,,,TRUE,,,,,,,,CLR,,,,,,,,VFR,,,,,,,,,,,,METAR,7
NWWW 220400Z AUTO 14014KT 9999 BKN043 OVC049 25/23 Q1011 NOSIG,NWWW,2024-03-22T04:00:00Z,-22.015,166.213,25,23,140,14,,6+,29.85,,,TRUE,,,TRUE,,,,,BKN,4300,OVC,4900,,,,,VFR,,,,,,,,,,,,METAR,16
NVVW 220400Z VRB02KT 9999 SHRA FEW018 SCT020 OVC110 28/25 Q1009,NVVW,2024-03-22T04:00:00Z,-19.455,169.224,28,25,VRB,2,,6+,29.79,,,,,,,,,,SHRA,FEW,1800,SCT,2000,OVC,11000,,,VFR,,,,,,,,,,,,METAR,5
NVVV 220400Z 06005KT 9999 SCT020 BKN300 30/25 Q1008,NVVV,2024-03-22T04:00:00Z,-17.695,168.313,30,25,60,5,,6+,29.76,,,,,,,,,,,SCT,2000,BKN,30000,,,,,VFR,,,,,,,,,,,,METAR,23
NVSS 220400Z VRB02KT 9999 SCT020 OVC100 27/25 Q1008,NVSS,2024-03-22T04:00:00Z,-15.505,167.22,27,25,VRB,2,,6+,29.76,,,,,,,,,,,SCT,2000,OVC,10000,,,,,VFR,,,,,,,,,,,,METAR,47
NTAA 220400Z 34003KT 9999 FEW023 SCT043 28/22 Q1012 NOSIG,NTAA,2024-03-22T04:00:00Z,-17.554,-149.607,28,22,340,3,,6+,29.88,,,,,,TRUE,,,,,FEW,2300,SCT,4300,,,,,VFR,,,,,,,,,,,,METAR,2
NSFA 220400Z 21003KT 9999 BKN022 32/26 Q1011,NSFA,2024-03-22T04:00:00Z,-13.829,-171.993,32,26,210,3,,6+,29.85,,,,,,,,,,,BKN,2200,,,,,,,MVFR,,,,,,,,,,,,METAR,6
NLWW 220400Z 11005KT 060V150 9999 FEW016TCU SCT020 31/26 Q1010 TEMPO 4000 SHRA BKN012 FEW020CB BKN025TCU,NLWW,2024-03-22T04:00:00Z,-13.238,-176.199,31,26,110,5,,6+,29.82,,,,,,,,,,,FEW,1600,SCT,2000,,,,,VFR,,,,,,,,,,,,METAR,24
NIUE 220400Z AUTO 29004KT 260V350 9999 NCD 30/26 Q1011,NIUE,2024-03-22T04:00:00Z,-19.079,-169.926,30,26,290,4,,6+,29.85,,,TRUE,,,,,,,,CLR,,,,,,,,VFR,,,,,,,,,,,,METAR,22
NGTA 220400Z 10007KT 9999 FEW020 31/26 Q1008,NGTA,2024-03-22T04:00:00Z,1.381,173.147,31,26,100,7,,6+,29.76,,,,,,,,,,,FEW,2000,,,,,,,VFR,,,,,,,,,,,,METAR,8
NGFU 220400Z 07004KT 9999 FEW018TCU BKN110 32/27 Q1009,NGFU,2024-03-22T04:00:00Z,-8.523,179.198,32,27,70,4,,6+,29.79,,,,,,,,,,,FEW,1800,BKN,11000,,,,,VFR,,,,,,,,,,,,METAR,2
NFTV 220400Z 35011KT 9999 FEW009 FEW017TCU BKN280 29/26 Q1010,NFTV,2024-03-22T04:00:00Z,-18.585,-173.963,29,26,350,11,,6+,29.82,,,,,,,,,,,FEW,900,FEW,1700,BKN,28000,,,VFR,,,,,,,,,,,,METAR,71
NFTL 220400Z 30014KT 9999 FEW009 SCT015TCU OVC100 28/26 Q1009,NFTL,2024-03-22T04:00:00Z,-19.777,-174.34,28,26,300,14,,6+,29.79,,,,,,,,,,,FEW,900,SCT,1500,OVC,10000,,,VFR,,,,,,,,,,,,METAR,10
NFTF 220400Z 13011KT 9999 FEW007 SCT012 BKN040 23/22 Q1012 RMK SPECI CEASES,NFTF,2024-03-22T04:00:00Z,-21.241,-175.15,23,22,130,11,,6+,29.88,,,,,,,,,,,FEW,700,SCT,1200,BKN,4000,,,VFR,,,,,,,,,,,,METAR,38
NFNS 220400Z VRB02KT 9999 -SHRA SCT020TCU BKN045 29/26 Q1010,NFNS,2024-03-22T04:00:00Z,-16.803,179.341,29,26,VRB,2,,6+,29.82,,,,,,,,,,-SHRA,SCT,2000,BKN,4500,,,,,VFR,,,,,,,,,,,,METAR,4
NFNL 220400Z 29011KT 9999 SCT024TCU SCT120 BKN300 31/26 Q1010,NFNL,2024-03-22T04:00:00Z,-16.467,179.339,31,26,290,11,,6+,29.82,,,,,,,,,,,SCT,2400,SCT,12000,BKN,30000,,,VFR,,,,,,,,,,,,METAR,17
NFNA 220400Z 15004KT 110V220 9999 VCSH BKN016TCU BKN042 29/25 Q1008 RESHRA,NFNA,2024-03-22T04:00:00Z,-18.043,178.559,29,25,150,4,,6+,29.76,,,,,,,,,,VCSH,BKN,1600,BKN,4200,,,,,MVFR,,,,,,,,,,,,METAR,6
NFFN 220400Z 33011KT 9999 FEW028 SCT120 BKN300 29/25 Q1010 NOSIG,NFFN,2024-03-22T04:00:00Z,-17.755,177.443,29,25,330,11,,6+,29.82,,,,,,TRUE,,,,,FEW,2800,SCT,12000,BKN,30000,,,VFR,,,,,,,,,,,,METAR,14
NCSW 220400Z AUTO NIL,NCSW,2024-03-22T04:00:00Z,-99.99,-99.99,,,,,,,0.00,,,TRUE,,,,,,,,,,,,,,,,VFR,,,,,,,,,,,,METAR,9999
NCRK 220400Z AUTO NIL,NCRK,2024-03-22T04:00:00Z,-10.032,-161.101,,,,,,,0.00,,,TRUE,,,,,,,,,,,,,,,,VFR,,,,,,,,,,,,METAR,7
NCRG 220400Z AUTO 35003KT 9999 BKN019/// BKN027/// 30/26 Q1013,NCRG,2024-03-22T04:00:00Z,-21.203,-159.806,30,26,350,3,,6+,29.91,,,TRUE,,,,,,,,BKN,1900,BKN,2700,,,,,MVFR,,,,,,,,,,,,METAR,7
NCPY 220400Z AUTO 09006KT //// ////// 31/24 Q1010,NCPY,2024-03-22T04:00:00Z,-9.01,-158.034,31,24,90,6,,,29.82,,,TRUE,,,,,,,,,,,,,,,,VFR,,,,,,,,,,,,METAR,2
NCPL 220400Z AUTO NIL,NCPL,2024-03-22T04:00:00Z,1.98,-157.48,,,,,,,0.00,,,TRUE,,,,,,,,,,,,,,,,VFR,,,,,,,,,,,,METAR,3
NCPK 220400Z AUTO NIL,NCPK,2024-03-22T04:00:00Z,-10.915,-165.839,,,,,,,0.00,,,TRUE,,,,,,,,,,,,,,,,VFR,,,,,,,,,,,,METAR,5
NCNS 220400Z AUTO NIL,NCNS,2024-03-22T04:00:00Z,-99.99,-99.99,,,,,,,0.00,,,TRUE,,,,,,,,,,,,,,,,VFR,,,,,,,,,,,,METAR,9999
NCMR 220400Z AUTO 04003KT //// ////// 30/24 Q1012,NCMR,2024-03-22T04:00:00Z,-19.842,-157.703,30,24,40,3,,,29.88,,,TRUE,,,,,,,,,,,,,,,,VFR,,,,,,,,,,,,METAR,8
NCMK 220400Z AUTO 05003KT //// ////// 30/24 Q1011,NCMK,2024-03-22T04:00:00Z,-20.137,-157.344,30,24,50,3,,,29.85,,,TRUE,,,,,,,,,,,,,,,,VFR,,,,,,,,,,,,METAR,13
NCMH 220400Z AUTO 12004KT //// ////// 31/24 Q1011,NCMH,2024-03-22T04:00:00Z,-10.374,-161.004,31,24,120,4,,,29.85,,,TRUE,,,,,,,,,,,,,,,,VFR,,,,,,,,,,,,METAR,1
NCMG 220400Z AUTO 31004KT //// ////// ///// Q////,NCMG,2024-03-22T04:00:00Z,-21.896,-157.907,,,310,4,,,0.00,,,TRUE,,,,,,,,,,,,,,,,VFR,,,,,,,,,,,,METAR,14
NCAT 220400Z AUTO NIL,NCAT,2024-03-22T04:00:00Z,-19.968,-158.119,,,,,,,0.00,,,TRUE,,,,,,,,,,,,,,,,VFR,,,,,,,,,,,,METAR,11
NCAI 220400Z AUTO 10003KT //// ////// 31/25 Q1012,NCAI,2024-03-22T04:00:00Z,-18.829,-159.766,31,25,100,3,,,29.88,,,TRUE,,,,,,,,,,,,,,,,VFR,,,,,,,,,,,,METAR,7
MYSM 220400Z AUTO 09007KT CAVOK 22/15 A3012,MYSM,2024-03-22T04:00:00Z,24.064,-74.529,22,15,90,7,,6+,30.12,,,TRUE,,,,,,,,CAVOK,,,,,,,,VFR,,,,,,,,,,,,METAR,5
MYNN 220400Z 12007KT 9999 FEW032 20/15 A3011,MYNN,2024-03-22T04:00:00Z,25.04,-77.467,20,15,120,7,,6+,30.11,,,,,,,,,,,FEW,3200,,,,,,,VFR,,,,,,,,,,,,METAR,5
MYGF 220400Z AUTO 12007KT //// R06///// // FEW035/// 21/14 A3011,MYGF,2024-03-22T04:00:00Z,26.555,-78.698,21,14,120,7,,,30.11,,,TRUE,,,,,,,,FEW,3500,,,,,,,VFR,,,,,,,,,,,,METAR,2
MYEM 220400Z AUTO 08012KT 9999 FEW034 22/16 Q1019 A3010,MYEM,2024-03-22T04:00:00Z,25.285,-76.331,22,16,80,12,,6+,30.09,,,TRUE,,,,,,,,FEW,3400,,,,,,,VFR,,,,,,,,,,,,METAR,8
MSLP 220400Z 35003KT 310V030 CAVOK 26/22 Q1011 A2988 NOSIG,MSLP,2024-03-22T04:00:00Z,13.438,-89.056,26,22,350,3,,6+,29.85,,,,,,TRUE,,,,,CAVOK,,,,,,,,VFR,,,,,,,,,,,,METAR,25
MROC 220400Z 12007KT 9999 FEW045 23/18 A3008 NOSIG,MROC,2024-03-22T04:00:00Z,9.991,-84.218,23,18,120,7,,6+,30.08,,,,,,TRUE,,,,,FEW,4500,,,,,,,VFR,,,,,,,,,,,,METAR,900
MRLB 220400Z 11008KT CAVOK 28/19 A2985,MRLB,2024-03-22T04:00:00Z,10.589,-85.552,28,19,110,8,,6+,29.85,,,,,,,,,,,CAVOK,,,,,,,,VFR,,,,,,,,,,,,METAR,79
MPTO 220400Z 27005KT 9999 FEW020 28/23 Q1011 NOSIG,MPTO,2024-03-22T04:00:00Z,9.056,-79.391,28,23,270,5,,6+,29.85,,,,,,TRUE,,,,,FEW,2000,,,,,,,VFR,,,,,,,,,,,,METAR,7
MPMG 220400Z AUTO 35006KT 320V030 //// R01///// // SCT059/// BKN068/// OVC086/// 28/23 Q1012,MPMG,2024-03-22T04:00:00Z,8.967,-79.555,28,23,350,6,,,29.88,,,TRUE,,,,,,,,SCT,5900,BKN,6800,OVC,8600,,,VFR,,,,,,,,,,,,METAR,6
MNMG 220400Z 10012KT 9999 FEW023 30/24 Q1011 A2987 NOSIG,MNMG,2024-03-22T04:00:00Z,12.141,-86.177,30,24,100,12,,6+,29.85,,,,,,TRUE,,,,,FEW,2300,,,,,,,VFR,,,,,,,,,,,,METAR,59
MKJS 220400Z VRB02KT 9999 FEW024 26/22 Q1014,MKJS,2024-03-22T04:00:00Z,18.502,-77.915,26,22,VRB,2,,6+,29.94,,,,,,,,,,,FEW,2400,,,,,,,VFR,,,,,,,,,,,,METAR,3
MKJP 220400Z 29003KT 9999 FEW022 28/24 Q1014,MKJP,2024-03-22T04:00:00Z,17.942,-76.798,28,24,290,3,,6+,29.94,,,,,,,,,,,FEW,2200,,,,,,,VFR,,,,,,,,,,,,METAR,3
MHTG 210400Z 21003KT 170V240 CAVOK 24/15 Q1019 A3009 NOSIG,MHTG,2024-03-22T04:00:00Z,14.06,-87.216,24,15,210,3,,6+,30.09,,,,,,TRUE,,,,,CAVOK,,,,,,,,VFR,,,,,,,,,,,,METAR,1001
MHTE 220400Z 00000KT 9999 FEW024 28/27 Q1008 A2977,MHTE,2024-03-22T04:00:00Z,15.776,-87.473,28,27,0,0,,6+,29.76,,,,,,,,,,,FEW,2400,,,,,,,VFR,,,,,,,,,,,,METAR,7
MHRO 220400Z 09021KT CAVOK 28/25 Q1010 A2983 NOSIG,MHRO,2024-03-22T04:00:00Z,16.316,-86.523,28,25,90,21,,6+,29.82,,,,,,TRUE,,,,,CAVOK,,,,,,,,VFR,,,,,,,,,,,,METAR,6
MHPR 220400Z 13010KT 9999 FEW046 28/16 Q1016 A3002 NOSIG,MHPR,2024-03-22T04:00:00Z,14.382,-87.621,28,16,130,10,,6+,30.00,,,,,,TRUE,,,,,FEW,4600,,,,,,,VFR,,,,,,,,,,,,METAR,628
MHLM 220400Z 14003KT 9999 FEW025 27/24 Q1010 A2983 NOSIG,MHLM,2024-03-22T04:00:00Z,15.442,-87.934,27,24,140,3,,6+,29.82,,,,,,TRUE,,,,,FEW,2500,,,,,,,VFR,,,,,,,,,,,,METAR,32
MHLC 220400Z 00000KT 9999 FEW020 25/24 Q1010 A2983 NOSIG,MHLC,2024-03-22T04:00:00Z,15.737,-86.864,25,24,0,0,,6+,29.82,,,,,,TRUE,,,,,FEW,2000,,,,,,,VFR,,,,,,,,,,,,METAR,13
MHCA 220400Z 00000KT 9999 BKN028 26/24 Q1015,MHCA,2024-03-22T04:00:00Z,14.875,-85.775,26,24,0,0,,6+,29.97,,,,,,,,,,,BKN,2800,,,,,,,MVFR,,,,,,,,,,,,METAR,386
MGPB 220400Z 00000KT 9999 FEW018 SCT090 26/25 Q1010 A2983,MGPB,2024-03-22T04:00:00Z,15.737,-88.589,26,25,0,0,,6+,29.82,,,,,,,,,,,FEW,1800,SCT,9000,,,,,VFR,,,,,,,,,,,,METAR,6
MGMM 220400Z 12004KT CAVOK 27/21 Q1012 A2988,MGMM,2024-03-22T04:00:00Z,16.914,-89.866,27,21,120,4,,6+,29.88,,,,,,,,,,,CAVOK,,,,,,,,VFR,,,,,,,,,,,,METAR,105
MGGT 220400Z 20012KT 3000 BR SCT003 BKN014 20/18 Q1022 A3018,MGGT,2024-03-22T04:00:00Z,14.585,-90.526,20,18,200,12,,1.86,30.18,,,,,,,,,,BR,SCT,300,BKN,1400,,,,,IFR,,,,,,,,,,,,METAR,1497
MDST 220400Z 15004KT 9999 BKN018 24/23 Q1017,MDST,2024-03-22T04:00:00Z,19.407,-70.614,24,23,150,4,,6+,30.03,,,,,,,,,,,BKN,1800,,,,,,,MVFR,,,,,,,,,,,,METAR,175
MDSD 220400Z 36005KT 9999 BKN016 SCT070 23/22 Q1016,MDSD,2024-03-22T04:00:00Z,18.433,-69.667,23,22,360,5,,6+,30.00,,,,,,,,,,,BKN,1600,SCT,7000,,,,,MVFR,,,,,,,,,,,,METAR,18
MDPC 220400Z 06004KT 9999 FEW018 25/22 Q1016,MDPC,2024-03-22T04:00:00Z,18.566,-68.356,25,22,60,4,,6+,30.00,,,,,,,,,,,FEW,1800,,,,,,,VFR,,,,,,,,,,,,METAR,10
LZZI 220400Z 06003KT 9999 OVC031 07/06 Q1019,LZZI,2024-03-22T04:00:00Z,49.231,18.613,7,6,60,3,,6+,30.09,,,,,,,,,,,OVC,3100,,,,,,,VFR,,,,,,,,,,,,METAR,311
LZTT 220400Z 05003KT 9999 FEW046 BKN060 03/02 Q1018,LZTT,2024-03-22T04:00:00Z,49.068,20.25,3,2,50,3,,6+,30.06,,,,,,,,,,,FEW,4600,BKN,6000,,,,,VFR,,,,,,,,,,,,METAR,693
LZPP 220400Z AUTO VRB01KT 9999 09/06 Q1020,LZPP,2024-03-22T04:00:00Z,48.613,17.832,9,6,VRB,1,,6+,30.12,,,TRUE,,,,,,,,,,,,,,,,VFR,,,,,,,,,,,,METAR,160
LZKZ 220400Z 36005KT 9999 -RA NSC 07/04 Q1018 NOSIG,LZKZ,2024-03-22T04:00:00Z,48.661,21.24,7,4,360,5,,6+,30.06,,,,,,TRUE,,,,-RA,CLR,,,,,,,,VFR,,,,,,,,,,,,METAR,227
LZIB 220400Z 29011KT 260V350 9999 FEW021 12/07 Q1020 NOSIG,LZIB,2024-03-22T04:00:00Z,48.17,17.207,12,7,290,11,,6+,30.12,,,,,,TRUE,,,,,FEW,2100,,,,,,,VFR,,,,,,,,,,,,METAR,129
LYVR 220400Z AUTO VRB01KT CAVOK 03/00 Q1019,LYVR,2024-03-22T04:00:00Z,45.147,21.31,3,0,VRB,1,,6+,30.09,,,TRUE,,,,,,,,CAVOK,,,,,,,,VFR,,,,,,,,,,,,METAR,82
LYTV 220400Z AUTO 14001KT CAVOK 05/05 Q1018,LYTV,2024-03-22T04:00:00Z,42.405,18.723,5,5,140,1,,6+,30.06,,,TRUE,,,,,,,,CAVOK,,,,,,,,VFR,,,,,,,,,,,,METAR,3
LYPG 220400Z 34004KT CAVOK 08/06 Q1019 NOSIG,LYPG,2024-03-22T04:00:00Z,42.359,19.252,8,6,340,4,,6+,30.09,,,,,,TRUE,,,,,CAVOK,,,,,,,,VFR,,,,,,,,,,,,METAR,32
LYNI 220400Z 11003KT 060V120 CAVOK 03/M01 Q1019 NOSIG,LYNI,2024-03-22T04:00:00Z,43.338,21.863,3,-1,110,3,,6+,30.09,,,,,,TRUE,,,,,CAVOK,,,,,,,,VFR,,,,,,,,,,,,METAR,197
LYKV 220400Z 22001KT CAVOK 05/02 Q1019 NOSIG,LYKV,2024-03-22T04:00:00Z,43.818,20.587,5,2,220,1,,6+,30.09,,,,,,TRUE,,,,,CAVOK,,,,,,,,VFR,,,,,,,,,,,,METAR,209
LYBT 220400Z 15002KT CAVOK 04/02 Q1019 NOSIG,LYBT,2024-03-22T04:00:00Z,44.935,20.258,4,2,150,2,,6+,30.09,,,,,,TRUE,,,,,CAVOK,,,,,,,,VFR,,,,,,,,,,,,METAR,78
LYBE 220400Z 20003KT 170V230 CAVOK 07/01 Q1019 NOSIG,LYBE,2024-03-22T04:00:00Z,44.824,20.291,7,1,200,3,,6+,30.09,,,,,,TRUE,,,,,CAVOK,,,,,,,,VFR,,,,,,,,,,,,METAR,93
LUKK 220400Z 00000KT 3200 1400S BR BKN004 OVC007 01/01 Q1019 TEMPO 0800 FG VV002,LUKK,2024-03-22T04:00:00Z,46.928,28.931,1,1,0,0,,1.99,30.09,,,,,,,,,,BR,BKN,400,OVC,700,,,,,LIFR,,,,,,,,,,,,METAR,102
LRTR 220400Z 10005KT CAVOK 00/M01 Q1019 NOSIG,LRTR,2024-03-22T04:00:00Z,45.811,21.333,0,-1,100,5,,6+,30.09,,,,,,TRUE,,,,,CAVOK,,,,,,,,VFR,,,,,,,,,,,,METAR,104
LRTM 220400Z 09004KT 9999 FEW006 M01/M02 Q1020,LRTM,2024-03-22T04:00:00Z,46.468,24.421,-1,-2,90,4,,6+,30.12,,,,,,,,,,,FEW,600,,,,,,,VFR,,,,,,,,,,,,METAR,289
LRTC 220400Z AUTO 31005KT 6000 NCD 01/M00 Q1019,LRTC,2024-03-22T04:00:00Z,45.065,28.716,1,0,310,5,,3.73,30.09,,,TRUE,,,,,,,,CLR,,,,,,,,MVFR,,,,,,,,,,,,METAR,52
LRSV 220400Z 25003KT CAVOK 02/M00 Q1018,LRSV,2024-03-22T04:00:00Z,47.686,26.354,2,0,250,3,,6+,30.06,,,,,,,,,,,CAVOK,,,,,,,,VFR,,,,,,,,,,,,METAR,406
LRSM 220400Z AUTO 15003KT 9999 NCD 02/00 Q1019,LRSM,2024-03-22T04:00:00Z,47.703,22.886,2,0,150,3,,6+,30.09,,,TRUE,,,,,,,,CLR,,,,,,,,VFR,,,,,,,,,,,,METAR,123
LRSB 220400Z 00000KT CAVOK M03/M03 Q1019,LRSB,2024-03-22T04:00:00Z,45.789,24.091,-3,-3,0,0,,6+,30.09,,,,,,,,,,,CAVOK,,,,,,,,VFR,,,,,,,,,,,,METAR,442
LROP 220400Z 26004KT 1000 R08R/1100D BR BKN002 M01/M01 Q1020 TEMPO 0600 FZFG,LROP,2024-03-22T04:00:00Z,44.572,26.102,-1,-1,260,4,,0.62,30.12,,,,,,,,,,BR,BKN,200,,,,,,,LIFR,,,,,,,,,,,,METAR,92
LROD 220400Z 10006KT CAVOK 03/M00 Q1019,LROD,2024-03-22T04:00:00Z,47.036,21.896,3,0,100,6,,6+,30.09,,,,,,,,,,,CAVOK,,,,,,,,VFR,,,,,,,,,,,,METAR,132
LRIA 220400Z 26003KT 220V280 1500 BR BKN002 04/04 Q1020,LRIA,2024-03-22T04:00:00Z,47.164,27.627,4,4,260,3,,0.93,30.12,,,,,,,,,,BR,BKN,200,,,,,,,LIFR,,,,,,,,,,,,METAR,71
LRCV 220400Z 03004KT CAVOK M01/M01 Q1020,LRCV,2024-03-22T04:00:00Z,44.31,23.867,-1,-1,30,4,,6+,30.12,,,,,,,,,,,CAVOK,,,,,,,,VFR,,,,,,,,,,,,METAR,192
LRCT 220400Z VRB03KT 9999 OVC180 00/M00 Q1019 BLU BLU,LRCT,2024-03-22T04:00:00Z,46.496,23.892,0,0,VRB,3,,6+,30.09,,,,,,,,,,,OVC,18000,,,,,,,VFR,,,,,,,,,,,,METAR,324
LRCL 220400Z 08001KT CAVOK M00/M01 Q1019,LRCL,2024-03-22T04:00:00Z,46.783,23.676,0,-1,80,1,,6+,30.09,,,,,,,,,,,CAVOK,,,,,,,,VFR,,,,,,,,,,,,METAR,313
LRCK 220400Z 29006KT CAVOK 00/M01 Q1019 NOSIG,LRCK,2024-03-22T04:00:00Z,44.362,28.488,0,-1,290,6,,6+,30.09,,,,,,TRUE,,,,,CAVOK,,,,,,,,VFR,,,,,,,,,,,,METAR,108
LRBV 220400Z AUTO 27002KT 5000 BR NCD M01/M01 Q1019,LRBV,2024-03-22T04:00:00Z,-99.99,-99.99,-1,-1,270,2,,3.11,30.09,,,TRUE,,,,,,,BR,CLR,,,,,,,,MVFR,,,,,,,,,,,,METAR,9999
LRBS 220400Z VRB02KT 0400 R07/0450N FG VV001 01/M00 Q1021 NOSIG,LRBS,2024-03-22T04:00:00Z,44.511,26.078,1,0,VRB,2,,0.25,30.15,,,,,,TRUE,,,,FG,OVX,0,,,,,,,LIFR,,,,,,,,,,,100,METAR,91
LRBM 220400Z AUTO 09003KT 9999 BKN130/// 02/M00 Q1020,LRBM,2024-03-22T04:00:00Z,47.658,23.47,2,0,90,3,,6+,30.12,,,TRUE,,,,,,,,BKN,13000,,,,,,,VFR,,,,,,,,,,,,METAR,180
LRBC 220400Z 15001KT 4000 BR SCT010 OVC022 05/04 Q1019,LRBC,2024-03-22T04:00:00Z,46.522,26.91,5,4,150,1,,2.49,30.09,,,,,,,,,,BR,SCT,1000,OVC,2200,,,,,IFR,,,,,,,,,,,,METAR,183
LRAR 220400Z 00000KT CAVOK 01/M02 Q1019,LRAR,2024-03-22T04:00:00Z,46.176,21.264,1,-2,0,0,,6+,30.09,,,,,,,,,,,CAVOK,,,,,,,,VFR,,,,,,,,,,,,METAR,102
LQTZ 220400Z VRB02KT CAVOK 02/01 Q1020,LQTZ,2024-03-22T04:00:00Z,44.461,18.728,2,1,VRB,2,,6+,30.12,,,,,,,,,,,CAVOK,,,,,,,,VFR,,,,,,,,,,,,METAR,242
LQSA 220400Z VRB01KT 9999 FEW050 04/02 Q1020,LQSA,2024-03-22T04:00:00Z,43.825,18.331,4,2,VRB,1,,6+,30.12,,,,,,,,,,,FEW,5000,,,,,,,VFR,,,,,,,,,,,,METAR,505
LQMO 220400Z VRB02KT 9999 FEW040 07/06 Q1018,LQMO,2024-03-22T04:00:00Z,43.285,17.84,7,6,VRB,2,,6+,30.06,,,,,,,,,,,FEW,4000,,,,,,,VFR,,,,,,,,,,,,METAR,49
LQBK 220400Z 14003KT CAVOK 10/10 Q1021 NOSIG,LQBK,2024-03-22T04:00:00Z,44.937,17.299,10,10,140,3,,6+,30.15,,,,,,TRUE,,,,,CAVOK,,,,,,,,VFR,,,,,,,,,,,,METAR,114
LPPT 220400Z 03009KT CAVOK 19/12 Q1015,LPPT,2024-03-22T04:00:00Z,38.781,-9.136,19,12,30,9,,6+,29.97,,,,,,,,,,,CAVOK,,,,,,,,VFR,,,,,,,,,,,,METAR,98
LPPS 220400Z 33011KT 9999 SCT014 FEW018CB 15/12 Q1012,LPPS,2024-03-22T04:00:00Z,33.073,-16.35,15,12,330,11,,6+,29.88,,,,,,,,,,,SCT,1400,FEW,1800,,,,,VFR,,,,,,,,,,,,METAR,89
LPPR 220400Z 07004KT CAVOK 13/10 Q1017,LPPR,2024-03-22T04:00:00Z,41.235,-8.684,13,10,70,4,,6+,30.03,,,,,,,,,,,CAVOK,,,,,,,,VFR,,,,,,,,,,,,METAR,64
LPPD 220400Z 03010KT 360V060 9999 FEW018 BKN030 16/11 Q1030,LPPD,2024-03-22T04:00:00Z,37.741,-25.698,16,11,30,10,,6+,30.41,,,,,,,,,,,FEW,1800,BKN,3000,,,,,MVFR,,,,,,,,,,,,METAR,62
LPMT 220400Z 03007KT CAVOK 16/15 Q1014,LPMT,2024-03-22T04:00:00Z,38.704,-9.036,16,15,30,7,,6+,29.94,,,,,,,,,,,CAVOK,,,,,,,,VFR,,,,,,,,,,,,METAR,4
LPMR 220400Z VRB02KT CAVOK 17/12 Q1015,LPMR,2024-03-22T04:00:00Z,39.831,-8.887,17,12,VRB,2,,6+,29.97,,,,,,,,,,,CAVOK,,,,,,,,VFR,,,,,,,,,,,,METAR,50
LPMA 220400Z 36013KT 330V030 9999 BKN015 15/11 Q1013,LPMA,2024-03-22T04:00:00Z,32.698,-16.774,15,11,360,13,,6+,29.91,,,,,,,,,,,BKN,1500,,,,,,,MVFR,,,,,,,,,,,,METAR,54
LPLA 220400Z /////KT 9999 SCT013 BKN032 16/15 Q1032,LPLA,2024-03-22T04:00:00Z,38.762,-27.091,16,15,,,,6+,30.47,,,,,,,,,,,SCT,1300,BKN,3200,,,,,VFR,,,,,,,,,,,,METAR,60
LPFR 220400Z 02005KT 9999 FEW045 16/13 Q1012,LPFR,2024-03-22T04:00:00Z,37.014,-7.966,16,13,20,5,,6+,29.88,,,,,,,,,,,FEW,4500,,,,,,,VFR,,,,,,,,,,,,METAR,3
LPBJ 220400Z 34004KT 9999 BKN042 14/13 Q1014,LPBJ,2024-03-22T04:00:00Z,38.073,-7.931,14,13,340,4,,6+,29.94,,,,,,,,,,,BKN,4200,,,,,,,VFR,,,,,,,,,,,,METAR,196
LPAZ 220400Z 03013KT 360V060 9999 FEW018 BKN024 15/11 Q1029,LPAZ,2024-03-22T04:00:00Z,36.971,-25.171,15,11,30,13,,6+,30.38,,,,,,,,,,,FEW,1800,BKN,2400,,,,,MVFR,,,,,,,,,,,,METAR,96
LKTB 220400Z 28006KT CAVOK 08/05 Q1020 NOSIG,LKTB,2024-03-22T04:00:00Z,49.151,16.694,8,5,280,6,,6+,30.12,,,,,,TRUE,,,,,CAVOK,,,,,,,,VFR,,,,,,,,,,,,METAR,233
LKPR 220400Z 21007KT CAVOK 06/04 Q1020 NOSIG,LKPR,2024-03-22T04:00:00Z,50.101,14.26,6,4,210,7,,6+,30.12,,,,,,TRUE,,,,,CAVOK,,,,,,,,VFR,,,,,,,,,,,,METAR,364
LKPD 220400Z 27006KT 9999 OVC032 08/04 Q1021 NOSIG RMK BLU BLU,LKPD,2024-03-22T04:00:00Z,50.016,15.74,8,4,270,6,,6+,30.15,,,,,,TRUE,,,,,OVC,3200,,,,,,,VFR,,,,,,,,,,,,METAR,226
LKNA 220400Z 29007KT 7000 FEW014 BKN150 07/05 Q1020 NOSIG RMK WHT WHT,LKNA,2024-03-22T04:00:00Z,49.166,16.125,7,5,290,7,,4.35,30.12,,,,,,TRUE,,,,,FEW,1400,BKN,15000,,,,,MVFR,,,,,,,,,,,,METAR,460
LKMT 220400Z VRB02KT 9999 FEW024 BKN033 09/07 Q1019 NOSIG,LKMT,2024-03-22T04:00:00Z,49.696,18.111,9,7,VRB,2,,6+,30.09,,,,,,TRUE,,,,,FEW,2400,BKN,3300,,,,,VFR,,,,,,,,,,,,METAR,251
LKLN 220400Z AUTO 36002KT 9999 // FEW120 03/02 Q1022,LKLN,2024-03-22T04:00:00Z,49.675,13.275,3,2,360,2,,6+,30.18,,,TRUE,,,,,,,,FEW,12000,,,,,,,VFR,,,,,,,,,,,,METAR,353
LKKV 220400Z 29004KT 8000 FEW003 04/03 Q1020,LKKV,2024-03-22T04:00:00Z,50.202,12.91,4,3,290,4,,4.97,30.12,,,,,,,,,,,FEW,300,,,,,,,MVFR,,,,,,,,,,,,METAR,600
LKKB 220400Z 21004KT 9999 SCT026 BKN080 07/04 Q1020 NOSIG,LKKB,2024-03-22T04:00:00Z,50.123,14.538,7,4,210,4,,6+,30.12,,,,,,TRUE,,,,,SCT,2600,BKN,8000,,,,,VFR,,,,,,,,,,,,METAR,281
LKCV 220400Z 27004KT 9999 OVC031 08/05 Q1021 NOSIG RMK BLU BLU,LKCV,2024-03-22T04:00:00Z,49.94,15.382,8,5,270,4,,6+,30.15,,,,,,TRUE,,,,,OVC,3100,,,,,,,VFR,,,,,,,,,,,,METAR,234
LJPZ 220400Z AUTO VRB02KT 9999 NCD 07/04 Q1020,LJPZ,2024-03-22T04:00:00Z,45.473,13.615,7,4,VRB,2,,6+,30.12,,,TRUE,,,,,,,,CLR,,,,,,,,VFR,,,,,,,,,,,,METAR,2
LJMB 220400Z AUTO VRB01KT 9999 NSC 08/07 Q1021,LJMB,2024-03-22T04:00:00Z,46.48,15.682,8,7,VRB,1,,6+,30.15,,,TRUE,,,,,,,,CLR,,,,,,,,VFR,,,,,,,,,,,,METAR,263
LJLJ 220400Z 12003KT 0300 R30/0700N FG VV001 07/07 Q1021 NOSIG,LJLJ,2024-03-22T04:00:00Z,46.218,14.477,7,7,120,3,,0.19,30.15,,,,,,TRUE,,,,FG,OVX,0,,,,,,,LIFR,,,,,,,,,,,100,METAR,363
LJCE 220400Z AUTO 29002KT 9999 NSC 09/08 Q1021,LJCE,2024-03-22T04:00:00Z,45.899,15.523,9,8,290,2,,6+,30.15,,,TRUE,,,,,,,,CLR,,,,,,,,VFR,,,,,,,,,,,,METAR,153
LHBP 220400Z 08002KT CAVOK 07/03 Q1019 NOSIG,LHBP,2024-03-22T04:00:00Z,47.437,19.256,7,3,80,2,,6+,30.09,,,,,,TRUE,,,,,CAVOK,,,,,,,,VFR,,,,,,,,,,,,METAR,141
LGKP 220400Z AUTO 04004KT //// // ////// 13/07 Q1015 RE//,LGKP,2024-03-22T04:00:00Z,35.421,27.146,13,7,40,4,,,29.97,,,TRUE,,,,,,,,,,,,,,,,VFR,,,,,,,,,,,,METAR,20
LFYR 220400Z AUTO 00000KT CAVOK 05/04 Q1023,LFYR,2024-03-22T04:00:00Z,47.32,1.688,5,4,0,0,,6+,30.21,,,TRUE,,,,,,,,CAVOK,,,,,,,,VFR,,,,,,,,,,,,METAR,83
LFVP 220400Z AUTO 23022KT 9999 SCT043 BKN054 01/M03 Q1008,LFVP,2024-03-22T04:00:00Z,46.764,-56.169,1,-3,230,22,,6+,29.76,,,TRUE,,,,,,,,SCT,4300,BKN,5400,,,,,VFR,,,,,,,,,,,,METAR,5
LFTW 220400Z AUTO 35012KT CAVOK 17/07 Q1019 NOSIG,LFTW,2024-03-22T04:00:00Z,43.757,4.416,17,7,350,12,,6+,30.09,,,TRUE,,,TRUE,,,,,CAVOK,,,,,,,,VFR,,,,,,,,,,,,METAR,91
LFTH 220400Z AUTO 36003KT 7000 NSC 10/09 Q1020 TEMPO 3000 BR,LFTH,2024-03-22T04:00:00Z,43.094,6.146,10,9,360,3,,4.35,30.12,,,TRUE,,,,,,,,CLR,,,,,,,,MVFR,,,,,,,,,,,,METAR,3
LFSX 220400Z AUTO 25001KT CAVOK 07/06 Q1023,LFSX,2024-03-22T04:00:00Z,47.783,6.364,7,6,250,1,,6+,30.21,,,TRUE,,,,,,,,CAVOK,,,,,,,,VFR,,,,,,,,,,,,METAR,266
LFST 220400Z AUTO 13002KT CAVOK 09/08 Q1023 TEMPO 4000 BR,LFST,2024-03-22T04:00:00Z,48.549,7.64,9,8,130,2,,6+,30.21,,,TRUE,,,,,,,,CAVOK,,,,,,,,VFR,,,,,,,,,,,,METAR,149
LFSO 220400Z AUTO 17002KT CAVOK 09/06 Q1022 NOSIG,LFSO,2024-03-22T04:00:00Z,48.583,5.955,9,6,170,2,,6+,30.18,,,TRUE,,,TRUE,,,,,CAVOK,,,,,,,,VFR,,,,,,,,,,,,METAR,328
LFSN 220400Z AUTO 13002KT 8000 NSC 08/07 Q1023,LFSN,2024-03-22T04:00:00Z,48.692,6.231,8,7,130,2,,4.97,30.21,,,TRUE,,,,,,,,CLR,,,,,,,,MVFR,,,,,,,,,,,,METAR,214
LFSL 220400Z AUTO 00000KT CAVOK 08/06 Q1022 NOSIG,LFSL,2024-03-22T04:00:00Z,45.04,1.486,8,6,0,0,,6+,30.18,,,TRUE,,,TRUE,,,,,CAVOK,,,,,,,,VFR,,,,,,,,,,,,METAR,300
LFSI 220400Z AUTO 12003KT CAVOK 08/07 Q1022,LFSI,2024-03-22T04:00:00Z,48.631,4.904,8,7,120,3,,6+,30.18,,,TRUE,,,,,,,,CAVOK,,,,,,,,VFR,,,,,,,,,,,,METAR,136
LFSG 220400Z AUTO VRB02KT CAVOK 07/06 Q1022,LFSG,2024-03-22T04:00:00Z,48.325,6.07,7,6,VRB,2,,6+,30.18,,,TRUE,,,,,,,,CAVOK,,,,,,,,VFR,,,,,,,,,,,,METAR,320
LFSD 220400Z AUTO 31005KT CAVOK 11/08 Q1023,LFSD,2024-03-22T04:00:00Z,47.269,5.09,11,8,310,5,,6+,30.21,,,TRUE,,,,,,,,CAVOK,,,,,,,,VFR,,,,,,,,,,,,METAR,218
LFSB 220400Z AUTO VRB02KT CAVOK 09/07 Q1023 NOSIG,LFSB,2024-03-22T04:00:00Z,47.614,7.51,9,7,VRB,2,,6+,30.21,,,TRUE,,,TRUE,,,,,CAVOK,,,,,,,,VFR,,,,,,,,,,,,METAR,262
LFRZ 220400Z AUTO 07003KT 0400 R25/0450N FG VV/// 09/09 Q1023 NOSIG,LFRZ,2024-03-22T04:00:00Z,47.312,-2.163,9,9,70,3,,0.25,30.21,,,TRUE,,,TRUE,,,,FG,OVX,0,,,,,,,LIFR,,,,,,,,,,,,METAR,2
LFRV 220400Z AUTO /////KT 0350 FG VV/// 08/08 Q1023,LFRV,2024-03-22T04:00:00Z,47.722,-2.727,8,8,,,,0.22,30.21,,,TRUE,,,,,,,FG,OVX,0,,,,,,,LIFR,,,,,,,,,,,,METAR,132
LFRS 220400Z AUTO VRB03KT 4600 BR FEW002 08/07 Q1023 TEMPO 0500 FG VV///,LFRS,2024-03-22T04:00:00Z,47.15,-1.609,8,7,VRB,3,,2.86,30.21,,,TRUE,,,,,,,BR,FEW,200,,,,,,,IFR,,,,,,,,,,,,METAR,26
LFRQ 220400Z AUTO 33007KT 9999 OVC006 09/08 Q1024,LFRQ,2024-03-22T04:00:00Z,47.975,-4.168,9,8,330,7,,6+,30.24,,,TRUE,,,,,,,,OVC,600,,,,,,,IFR,,,,,,,,,,,,METAR,94
LFRN 220400Z AUTO VRB03KT 0750 0650 R28/0750N R10/1000U FG VV/// 08/08 Q1024 BECMG 0400 FG,LFRN,2024-03-22T04:00:00Z,48.069,-1.734,8,8,VRB,3,,0.47,30.24,,,TRUE,,,,,,,FG,OVX,0,,,,,,,LIFR,,,,,,,,,,,,METAR,35
LFRM 220400Z AUTO 00000KT CAVOK 06/05 Q1023,LFRM,2024-03-22T04:00:00Z,47.949,0.202,6,5,0,0,,6+,30.21,,,TRUE,,,,,,,,CAVOK,,,,,,,,VFR,,,,,,,,,,,,METAR,51
LFRL 220400Z AUTO 28008KT 240V310 9999 // OVC006 09/08 Q1024,LFRL,2024-03-22T04:00:00Z,48.279,-4.439,9,8,280,8,,6+,30.24,,,TRUE,,,,,,,,OVC,600,,,,,,,IFR,,,,,,,,,,,,METAR,80
LFRK 220400Z AUTO 25010KT 220V280 7000 OVC004 09/08 Q1023,LFRK,2024-03-22T04:00:00Z,49.18,-0.456,9,8,250,10,,4.35,30.21,,,TRUE,,,,,,,,OVC,400,,,,,,,LIFR,,,,,,,,,,,,METAR,66
LFRJ 220400Z AUTO 26009KT 9999 OVC006 09/08 Q1024,LFRJ,2024-03-22T04:00:00Z,48.527,-4.138,9,8,260,9,,6+,30.24,,,TRUE,,,,,,,,OVC,600,,,,,,,IFR,,,,,,,,,,,,METAR,109
LFRI 220400Z AUTO 03005KT 6000 NSC 09/08 Q1023,LFRI,2024-03-22T04:00:00Z,46.702,-1.379,9,8,30,5,,3.73,30.21,,,TRUE,,,,,,,,CLR,,,,,,,,MVFR,,,,,,,,,,,,METAR,89
LFRH 220400Z AUTO 30006KT 270V330 2000 R25/1000U BR VV/// 10/10 Q1024 TEMPO 0600 FG,LFRH,2024-03-22T04:00:00Z,47.761,-3.44,10,10,300,6,,1.24,30.24,,,TRUE,,,,,,,BR,OVX,0,,,,,,,IFR,,,,,,,,,,,,METAR,46
LFRG 220400Z AUTO 24006KT 3700 BR OVC002 08/08 Q1023,LFRG,2024-03-22T04:00:00Z,49.365,0.154,8,8,240,6,,2.3,30.21,,,TRUE,,,,,,,BR,OVC,200,,,,,,,LIFR,,,,,,,,,,,,METAR,146
LFRD 220400Z AUTO 25004KT 3000 BR VV/// 09/09 Q1024 TEMPO 0400 FG,LFRD,2024-03-22T04:00:00Z,48.589,-2.075,9,9,250,4,,1.86,30.24,,,TRUE,,,,,,,BR,OVX,0,,,,,,,IFR,,,,,,,,,,,,METAR,56
LFRC 220400Z AUTO 26012KT 230V300 9999 OVC008 09/08 Q1023,LFRC,2024-03-22T04:00:00Z,49.65,-1.47,9,8,260,12,,6+,30.21,,,TRUE,,,,,,,,OVC,800,,,,,,,IFR,,,,,,,,,,,,METAR,137
LFRB 220400Z AUTO 27006KT 240V300 9999 OVC008 09/08 Q1024 TEMPO 0400 FG VV///,LFRB,2024-03-22T04:00:00Z,48.444,-4.412,9,8,270,6,,6+,30.24,,,TRUE,,,,,,,,OVC,800,,,,,,,IFR,,,,,,,,,,,,METAR,91
LFQQ 220400Z AUTO 22009KT 190V250 9999 OVC008 10/09 Q1021 TEMPO BKN004,LFQQ,2024-03-22T04:00:00Z,50.562,3.089,10,9,220,9,,6+,30.15,,,TRUE,,,,,,,,OVC,800,,,,,,,IFR,,,,,,,,,,,,METAR,43
LFQB 220400Z AUTO 09003KT 4100 BR NSC 08/08 Q1023,LFQB,2024-03-22T04:00:00Z,48.325,4.02,8,8,90,3,,2.55,30.21,,,TRUE,,,,,,,BR,CLR,,,,,,,,IFR,,,,,,,,,,,,METAR,107
LFQA 220400Z AUTO 36003KT 320V060 6000 NSC 09/08 Q1022,LFQA,2024-03-22T04:00:00Z,49.21,4.155,9,8,360,3,,3.73,30.18,,,TRUE,,,,,,,,CLR,,,,,,,,MVFR,,,,,,,,,,,,METAR,92
LFPV 220400Z AUTO 28002KT CAVOK 10/07 Q1022 TEMPO 0500 FG VV///,LFPV,2024-03-22T04:00:00Z,48.77,2.205,10,7,280,2,,6+,30.18,,,TRUE,,,,,,,,CAVOK,,,,,,,,VFR,,,,,,,,,,,,METAR,171
LFPT 220400Z AUTO 32003KT 5000 BR NSC 08/08 Q1022,LFPT,2024-03-22T04:00:00Z,49.097,2.041,8,8,320,3,,3.11,30.18,,,TRUE,,,,,,,BR,CLR,,,,,,,,MVFR,,,,,,,,,,,,METAR,91
LFPO 220400Z AUTO VRB01KT 9000 NSC 08/06 Q1023,LFPO,2024-03-22T04:00:00Z,48.717,2.384,8,6,VRB,1,,5.59,30.21,,,TRUE,,,,,,,,CLR,,,,,,,,VFR,,,,,,,,,,,,METAR,88
LFPN 220400Z AUTO 00000KT 8000 NSC 07/07 Q1022,LFPN,2024-03-22T04:00:00Z,48.752,2.114,7,7,0,0,,4.97,30.18,,,TRUE,,,,,,,,CLR,,,,,,,,MVFR,,,,,,,,,,,,METAR,152
LFPM 220400Z AUTO 20002KT 8000 NSC 08/07 Q1022,LFPM,2024-03-22T04:00:00Z,48.611,2.68,8,7,200,2,,4.97,30.18,,,TRUE,,,,,,,,CLR,,,,,,,,MVFR,,,,,,,,,,,,METAR,91
LFPG 220400Z 30002KT 6000 NSC 10/09 Q1022 BECMG 3000 BR,LFPG,2024-03-22T04:00:00Z,49.015,2.534,10,9,300,2,,3.73,30.18,,,,,,,,,,,CLR,,,,,,,,MVFR,,,,,,,,,,,,METAR,107
LFPB 220400Z AUTO 22002KT 7000 NSC 10/08 Q1022 TEMPO 0400 FG VV///,LFPB,2024-03-22T04:00:00Z,48.967,2.428,10,8,220,2,,4.35,30.18,,,TRUE,,,,,,,,CLR,,,,,,,,MVFR,,,,,,,,,,,,METAR,50
LFOZ 220400Z AUTO 00000KT 4400 BR NSC 06/06 Q1023,LFOZ,2024-03-22T04:00:00Z,47.897,2.163,6,6,0,0,,2.73,30.21,,,TRUE,,,,,,,BR,CLR,,,,,,,,IFR,,,,,,,,,,,,METAR,121
LFOV 220400Z AUTO 35004KT 320V020 0300 FG VV/// 07/07 Q1023,LFOV,2024-03-22T04:00:00Z,48.031,-0.746,7,7,350,4,,0.19,30.21,,,TRUE,,,,,,,FG,OVX,0,,,,,,,LIFR,,,,,,,,,,,,METAR,99
LFOT 220400Z AUTO 34003KT CAVOK 08/07 Q1023 TEMPO 0600 FG VV///,LFOT,2024-03-22T04:00:00Z,47.444,0.728,8,7,340,3,,6+,30.21,,,TRUE,,,,,,,,CAVOK,,,,,,,,VFR,,,,,,,,,,,,METAR,107
LFOP 220400Z AUTO 27007KT 240V300 0550 0500 R22/0700N FG VV/// 08/08 Q1023,LFOP,2024-03-22T04:00:00Z,49.383,1.182,8,8,270,7,,0.34,30.21,,,TRUE,,,,,,,FG,OVX,0,,,,,,,LIFR,,,,,,,,,,,,METAR,149
LFOK 220400Z AUTO 18006KT 6000 NSC 08/07 Q1022 TEMPO 0400 FG VV///,LFOK,2024-03-22T04:00:00Z,48.777,4.165,8,7,180,6,,3.73,30.18,,,TRUE,,,,,,,,CLR,,,,,,,,MVFR,,,,,,,,,,,,METAR,166
LFOJ 220400Z AUTO 00000KT 4200 BR NSC 08/07 Q1022 TEMPO 0300 FG VV///,LFOJ,2024-03-22T04:00:00Z,47.985,1.754,8,7,0,0,,2.61,30.18,,,TRUE,,,,,,,BR,CLR,,,,,,,,IFR,,,,,,,,,,,,METAR,122
LFOH 220400Z AUTO 25010KT 6000 OVC005 09/09 Q1023,LFOH,2024-03-22T04:00:00Z,49.533,0.091,9,9,250,10,,3.73,30.21,,,TRUE,,,,,,,,OVC,500,,,,,,,IFR,,,,,,,,,,,,METAR,87
LFOE 220400Z AUTO 31004KT 280V350 0300 R22/0350N FG VV/// 07/07 Q1023,LFOE,2024-03-22T04:00:00Z,49.025,1.222,7,7,310,4,,0.19,30.21,,,TRUE,,,,,,,FG,OVX,0,,,,,,,LIFR,,,,,,,,,,,,METAR,132
LFOB 220400Z AUTO 31004KT 4400 BR NSC 08/08 Q1022 TEMPO 0500 FG VV///,LFOB,2024-03-22T04:00:00Z,49.454,2.113,8,8,310,4,,2.73,30.18,,,TRUE,,,,,,,BR,CLR,,,,,,,,IFR,,,,,,,,,,,,METAR,99
LFOA 220400Z AUTO 22002KT CAVOK 08/08 Q1023 TEMPO 0500 FG VV///,LFOA,2024-03-22T04:00:00Z,47.052,2.642,8,8,220,2,,6+,30.21,,,TRUE,,,,,,,,CAVOK,,,,,,,,VFR,,,,,,,,,,,,METAR,174
LFMY 220400Z AUTO 06005KT 010V100 CAVOK 16/07 Q1020,LFMY,2024-03-22T04:00:00Z,43.604,5.108,16,7,60,5,,6+,30.12,,,TRUE,,,,,,,,CAVOK,,,,,,,,VFR,,,,,,,,,,,,METAR,57
LFMV 220400Z AUTO 36007KT 330V030 CAVOK 14/08 Q1019 NOSIG,LFMV,2024-03-22T04:00:00Z,43.911,4.903,14,8,360,7,,6+,30.09,,,TRUE,,,TRUE,,,,,CAVOK,,,,,,,,VFR,,,,,,,,,,,,METAR,33
LFMU 220400Z AUTO VRB01KT CAVOK 11/10 Q1020 NOSIG,LFMU,2024-03-22T04:00:00Z,43.322,3.353,11,10,VRB,1,,6+,30.12,,,TRUE,,,TRUE,,,,,CAVOK,,,,,,,,VFR,,,,,,,,,,,,METAR,14
LFMT 220400Z AUTO 30006KT CAVOK 13/09 Q1020 NOSIG,LFMT,2024-03-22T04:00:00Z,43.577,3.963,13,9,300,6,,6+,30.12,,,TRUE,,,TRUE,,,,,CAVOK,,,,,,,,VFR,,,,,,,,,,,,METAR,1
LFMP 220400Z AUTO 33004KT 290V360 CAVOK 15/10 Q1020 NOSIG,LFMP,2024-03-22T04:00:00Z,42.737,2.873,15,10,330,4,,6+,30.12,,,TRUE,,,TRUE,,,,,CAVOK,,,,,,,,VFR,,,,,,,,,,,,METAR,41
LFMO 220400Z AUTO 32007KT CAVOK 15/08 Q1020 NOSIG,LFMO,2024-03-22T04:00:00Z,44.144,4.861,15,8,320,7,,6+,30.12,,,TRUE,,,TRUE,,,,,CAVOK,,,,,,,,VFR,,,,,,,,,,,,METAR,56
LFMN 220400Z 32006KT 9999 BKN016 13/10 Q1020 NOSIG,LFMN,2024-03-22T04:00:00Z,43.658,7.216,13,10,320,6,,6+,30.12,,,,,,TRUE,,,,,BKN,1600,,,,,,,MVFR,,,,,,,,,,,,METAR,4
LFML 220400Z AUTO 11004KT 010V170 CAVOK 11/07 Q1019 TEMPO 4000 BR,LFML,2024-03-22T04:00:00Z,43.438,5.216,11,7,110,4,,6+,30.09,,,TRUE,,,,,,,,CAVOK,,,,,,,,VFR,,,,,,,,,,,,METAR,20
LFMK 220400Z AUTO 22003KT CAVOK 11/10 Q1022 NOSIG,LFMK,2024-03-22T04:00:00Z,43.214,2.31,11,10,220,3,,6+,30.18,,,TRUE,,,TRUE,,,,,CAVOK,,,,,,,,VFR,,,,,,,,,,,,METAR,124
LFMI 220400Z AUTO 12004KT CAVOK 14/08 Q1019 BECMG 01010KT,LFMI,2024-03-22T04:00:00Z,43.516,4.935,14,8,120,4,,6+,30.09,,,TRUE,,,,,,,,CAVOK,,,,,,,,VFR,,,,,,,,,,,,METAR,20
LFMH 220400Z AUTO 00000KT CAVOK 07/06 Q1023,LFMH,2024-03-22T04:00:00Z,45.533,4.293,7,6,0,0,,6+,30.21,,,TRUE,,,,,,,,CAVOK,,,,,,,,VFR,,,,,,,,,,,,METAR,400
LFMD 220400Z AUTO 00000KT 9999 OVC014 14/11 Q1020 NOSIG,LFMD,2024-03-22T04:00:00Z,43.544,6.953,14,11,0,0,,6+,30.12,,,TRUE,,,TRUE,,,,,OVC,1400,,,,,,,MVFR,,,,,,,,,,,,METAR,2
LFMC 220400Z AUTO VRB02KT 9999 ////// 11/10 Q1020,LFMC,2024-03-22T04:00:00Z,43.383,6.386,11,10,VRB,2,,6+,30.12,,,TRUE,,,,,,,,,,,,,,,,VFR,,,,,,,,,,,,METAR,79
LFLY 220400Z AUTO VRB01KT 9999 // NSC 11/09 Q1023,LFLY,2024-03-22T04:00:00Z,45.726,4.938,11,9,VRB,1,,6+,30.21,,,TRUE,,,,,,,,CLR,,,,,,,,VFR,,,,,,,,,,,,METAR,197
LFLX 220400Z AUTO VRB01KT CAVOK 07/07 Q1023 TEMPO 0800 FG,LFLX,2024-03-22T04:00:00Z,46.87,1.741,7,7,VRB,1,,6+,30.21,,,TRUE,,,,,,,,CAVOK,,,,,,,,VFR,,,,,,,,,,,,METAR,157
LFLS 220400Z AUTO 06003KT 330V090 CAVOK 08/06 Q1022 NOSIG,LFLS,2024-03-22T04:00:00Z,45.363,5.329,8,6,60,3,,6+,30.18,,,TRUE,,,TRUE,,,,,CAVOK,,,,,,,,VFR,,,,,,,,,,,,METAR,386
LFLP 220400Z AUTO 36003KT CAVOK 08/05 Q1023 NOSIG,LFLP,2024-03-22T04:00:00Z,45.93,6.106,8,5,360,3,,6+,30.21,,,TRUE,,,TRUE,,,,,CAVOK,,,,,,,,VFR,,,,,,,,,,,,METAR,460
LFLN 220400Z AUTO 00000KT CAVOK 08/07 Q1023,LFLN,2024-03-22T04:00:00Z,46.412,4.025,8,7,0,0,,6+,30.21,,,TRUE,,,,,,,,CAVOK,,,,,,,,VFR,,,,,,,,,,,,METAR,238
LFLL 220400Z AUTO VRB03KT CAVOK 11/08 Q1022,LFLL,2024-03-22T04:00:00Z,45.726,5.078,11,8,VRB,3,,6+,30.18,,,TRUE,,,,,,,,CAVOK,,,,,,,,VFR,,,,,,,,,,,,METAR,234
LFLC 220400Z AUTO 32002KT CAVOK 08/06 Q1023 TEMPO 4000 BR,LFLC,2024-03-22T04:00:00Z,45.787,3.169,8,6,320,2,,6+,30.21,,,TRUE,,,,,,,,CAVOK,,,,,,,,VFR,,,,,,,,,,,,METAR,325
LFLB 220400Z AUTO 18002KT CAVOK 07/06 Q1023 NOSIG,LFLB,2024-03-22T04:00:00Z,45.637,5.883,7,6,180,2,,6+,30.21,,,TRUE,,,TRUE,,,,,CAVOK,,,,,,,,VFR,,,,,,,,,,,,METAR,234
LFKS 220400Z AUTO 32004KT 9999 OVC045 15/11 Q1020,LFKS,2024-03-22T04:00:00Z,41.924,9.406,15,11,320,4,,6+,30.12,,,TRUE,,,,,,,,OVC,4500,,,,,,,VFR,,,,,,,,,,,,METAR,22
LFKJ 220400Z AUTO 04005KT 9999 BKN018 09/08 Q1019 TEMPO BKN005,LFKJ,2024-03-22T04:00:00Z,41.924,8.803,9,8,40,5,,6+,30.09,,,TRUE,,,,,,,,BKN,1800,,,,,,,MVFR,,,,,,,,,,,,METAR,9
LFKF 220400Z AUTO 03003KT CAVOK 09/08 Q1019 NOSIG,LFKF,2024-03-22T04:00:00Z,41.501,9.098,9,8,30,3,,6+,30.09,,,TRUE,,,TRUE,,,,,CAVOK,,,,,,,,VFR,,,,,,,,,,,,METAR,15
LFKC 220400Z AUTO 16003KT CAVOK 09/07 Q1019 NOSIG,LFKC,2024-03-22T04:00:00Z,42.531,8.793,9,7,160,3,,6+,30.09,,,TRUE,,,TRUE,,,,,CAVOK,,,,,,,,VFR,,,,,,,,,,,,METAR,38
LFKB 220400Z AUTO 22004KT CAVOK 10/09 Q1020 TEMPO BKN005,LFKB,2024-03-22T04:00:00Z,42.553,9.484,10,9,220,4,,6+,30.12,,,TRUE,,,,,,,,CAVOK,,,,,,,,VFR,,,,,,,,,,,,METAR,7
LFJR 220400Z AUTO 00000KT 0650 0350 R26/0400D FG VV/// 05/05 Q1023,LFJR,2024-03-22T04:00:00Z,47.562,-0.317,5,5,0,0,,0.4,30.21,,,TRUE,,,,,,,FG,OVX,0,,,,,,,LIFR,,,,,,,,,,,,METAR,50
LFJL 220400Z AUTO 18007KT CAVOK 09/07 Q1022 TEMPO 3000 BR BKN001,LFJL,2024-03-22T04:00:00Z,48.982,6.251,9,7,180,7,,6+,30.18,,,TRUE,,,,,,,,CAVOK,,,,,,,,VFR,,,,,,,,,,,,METAR,259
LFGJ 220400Z AUTO 35003KT CAVOK 10/08 Q1023,LFGJ,2024-03-22T04:00:00Z,47.044,5.427,10,8,350,3,,6+,30.21,,,TRUE,,,,,,,,CAVOK,,,,,,,,VFR,,,,,,,,,,,,METAR,191
LFCR 220400Z AUTO 16002KT 9000 R31/1200D NSC 06/04 Q1023 TEMPO 4000 BR,LFCR,2024-03-22T04:00:00Z,44.41,2.483,6,4,160,2,,5.59,30.21,,,TRUE,,,,,,,,CLR,,,,,,,,VFR,,,,,,,,,,,,METAR,576
LFCK 220400Z AUTO 08003KT CAVOK 10/10 Q1023,LFCK,2024-03-22T04:00:00Z,43.556,2.289,10,10,80,3,,6+,30.21,,,TRUE,,,,,,,,CAVOK,,,,,,,,VFR,,,,,,,,,,,,METAR,223
LFBZ 220400Z AUTO VRB02KT 0300 R09/0325N R27/0375N FG VV/// 13/13 Q1022 NOSIG,LFBZ,2024-03-22T04:00:00Z,43.469,-1.534,13,13,VRB,2,,0.19,30.18,,,TRUE,,,TRUE,,,,FG,OVX,0,,,,,,,LIFR,,,,,,,,,,,,METAR,70
LFBY 220400Z AUTO VRB01KT 0100 // ////// 12/11 Q1022,LFBY,2024-03-22T04:00:00Z,43.69,-1.07,12,11,VRB,1,,0.06,30.18,,,TRUE,,,,,,,,,,,,,,,,LIFR,,,,,,,,,,,,METAR,32
LFBX 220400Z AUTO VRB02KT 3200 BR NSC 07/06 Q1022,LFBX,2024-03-22T04:00:00Z,45.196,0.815,7,6,VRB,2,,1.99,30.18,,,TRUE,,,,,,,BR,CLR,,,,,,,,IFR,,,,,,,,,,,,METAR,97
LFBU 220400Z AUTO 02005KT CAVOK 10/08 Q1023,LFBU,2024-03-22T04:00:00Z,45.728,0.22,10,8,20,5,,6+,30.21,,,TRUE,,,,,,,,CAVOK,,,,,,,,VFR,,,,,,,,,,,,METAR,124
LFBT 220400Z AUTO 15003KT CAVOK 10/09 Q1022 TEMPO 3000 BR VV///,LFBT,2024-03-22T04:00:00Z,43.189,,10,9,150,3,,6+,30.18,,,TRUE,,,,,,,,CAVOK,,,,,,,,VFR,,,,,,,,,,,,METAR,359
LFBP 220400Z AUTO 09002KT 9000 NCD 11/10 Q1022 TEMPO 0500 FG VV///,LFBP,2024-03-22T04:00:00Z,43.385,-0.416,11,10,90,2,,5.59,30.18,,,TRUE,,,,,,,,CLR,,,,,,,,VFR,,,,,,,,,,,,METAR,182
LFBO 220400Z AUTO 16003KT CAVOK 11/10 Q1022 TEMPO 3000 BR,LFBO,2024-03-22T04:00:00Z,43.621,1.379,11,10,160,3,,6+,30.18,,,TRUE,,,,,,,,CAVOK,,,,,,,,VFR,,,,,,,,,,,,METAR,150
LFBM 220400Z AUTO 00000KT CAVOK 10/09 Q1022 BECMG 0300 FG VV///,LFBM,2024-03-22T04:00:00Z,43.912,-0.507,10,9,0,0,,6+,30.18,,,TRUE,,,,,,,,CAVOK,,,,,,,,VFR,,,,,,,,,,,,METAR,56
LFBL 220400Z AUTO 03005KT CAVOK 12/08 Q1023 TEMPO 0300 FG VV///,LFBL,2024-03-22T04:00:00Z,45.863,1.179,12,8,30,5,,6+,30.21,,,TRUE,,,,,,,,CAVOK,,,,,,,,VFR,,,,,,,,,,,,METAR,402
LFBI 220400Z AUTO 30004KT CAVOK 09/08 Q1023 TEMPO 0400 FG VV///,LFBI,2024-03-22T04:00:00Z,46.584,0.309,9,8,300,4,,6+,30.21,,,TRUE,,,,,,,,CAVOK,,,,,,,,VFR,,,,,,,,,,,,METAR,117
LFBH 220400Z AUTO 05006KT CAVOK 10/09 Q1023 TEMPO 0400 FG VV///,LFBH,2024-03-22T04:00:00Z,46.178,-1.193,10,9,50,6,,6+,30.21,,,TRUE,,,,,,,,CAVOK,,,,,,,,VFR,,,,,,,,,,,,METAR,18
LFBG 220400Z AUTO 06003KT CAVOK 10/09 Q1023,LFBG,2024-03-22T04:00:00Z,45.665,-0.316,10,9,60,3,,6+,30.21,,,TRUE,,,,,,,,CAVOK,,,,,,,,VFR,,,,,,,,,,,,METAR,28
LFBF 220400Z AUTO VRB02KT 7000 NSC 11/10 Q1022,LFBF,2024-03-22T04:00:00Z,43.546,1.367,11,10,VRB,2,,4.35,30.18,,,TRUE,,,,,,,,CLR,,,,,,,,MVFR,,,,,,,,,,,,METAR,159
LFBE 220400Z AUTO 14001KT 0550 0450 R27/0650U FG VV/// 08/08 Q1022,LFBE,2024-03-22T04:00:00Z,44.826,0.516,8,8,140,1,,0.34,30.18,,,TRUE,,,,,,,FG,OVX,0,,,,,,,LIFR,,,,,,,,,,,,METAR,49
LFBD 220400Z AUTO 02002KT 7000 0400 R23/P2300 R05/0700U R29/P2300 BCFG NSC 12/11 Q1022 TEMPO 0300 FG OVC003,LFBD,2024-03-22T04:00:00Z,44.831,-0.691,12,11,20,2,,4.35,30.18,,,TRUE,,,,,,,BCFG,CLR,,,,,,,,MVFR,,,,,,,,,,,,METAR,48
LFBC 220400Z AUTO 03002KT 5000 1000 R24/1200D BR VV/// 09/09 Q1022 TEMPO 0700 FG BECMG NSC,LFBC,2024-03-22T04:00:00Z,44.533,-1.125,9,9,30,2,,3.11,30.18,,,TRUE,,,,,,,BR,OVX,0,,,,,,,MVFR,,,,,,,,,,,,METAR,22
LFBA 220400Z AUTO 00000KT 7000 NSC 10/09 Q1022,LFBA,2024-03-22T04:00:00Z,44.176,0.593,10,9,0,0,,4.35,30.18,,,TRUE,,,,,,,,CLR,,,,,,,,MVFR,,,,,,,,,,,,METAR,68
LFAT 220400Z AUTO 25007KT 220V280 9999 BKN004 OVC008 10/10 Q1022,LFAT,2024-03-22T04:00:00Z,50.515,1.623,10,10,250,7,,6+,30.18,,,TRUE,,,,,,,,BKN,400,OVC,800,,,,,LIFR,,,,,,,,,,,,METAR,2
LFAQ 220400Z AUTO 28009KT 5000 BR OVC004 09/08 Q1022,LFAQ,2024-03-22T04:00:00Z,49.972,2.704,9,8,280,9,,3.11,30.18,,,TRUE,,,,,,,BR,OVC,400,,,,,,,LIFR,,,,,,,,,,,,METAR,107
LFAC 220400Z AUTO 24014KT 9999 OVC009 10/09 Q1020,LFAC,2024-03-22T04:00:00Z,50.962,1.955,10,9,240,14,,6+,30.12,,,TRUE,,,,,,,,OVC,900,,,,,,,IFR,,,,,,,,,,,,METAR,3
LEZL 220400Z AUTO VRB02KT 9000 SCT040 15/13 Q1012,LEZL,2024-03-22T04:00:00Z,37.418,-5.893,15,13,VRB,2,,5.59,29.88,,,TRUE,,,,,,,,SCT,4000,,,,,,,VFR,,,,,,,,,,,,METAR,26
LEZG 220400Z 24002KT CAVOK 11/09 Q1022,LEZG,2024-03-22T04:00:00Z,41.661,-1.004,11,9,240,2,,6+,30.18,,,,,,,,,,,CAVOK,,,,,,,,VFR,,,,,,,,,,,,METAR,245
LEXJ 220400Z AUTO VRB01KT 2500 BR OVC003 13/13 Q1022,LEXJ,2024-03-22T04:00:00Z,43.429,-3.831,13,13,VRB,1,,1.55,30.18,,,TRUE,,,,,,,BR,OVC,300,,,,,,,LIFR,,,,,,,,,,,,METAR,1
LEVX 220400Z 20007KT 160V240 CAVOK 17/10 Q1018 NOSIG,LEVX,2024-03-22T04:00:00Z,42.239,-8.624,17,10,200,7,,6+,30.06,,,,,,TRUE,,,,,CAVOK,,,,,,,,VFR,,,,,,,,,,,,METAR,253
LEVT 220400Z 00000KT 0600 R04/1800D R22/0500D FG VV003 08/07 Q1023,LEVT,2024-03-22T04:00:00Z,42.872,-2.733,8,7,0,0,,0.37,30.21,,,,,,,,,,FG,OVX,0,,,,,,,LIFR,,,,,,,,,,,300,METAR,501
LEVS 220400Z AUTO 01003KT 340V050 CAVOK 14/08 Q1022,LEVS,2024-03-22T04:00:00Z,40.371,-3.785,14,8,10,3,,6+,30.18,,,TRUE,,,,,,,,CAVOK,,,,,,,,VFR,,,,,,,,,,,,METAR,683
LEVD 220400Z AUTO 09005KT CAVOK 10/07 Q1022,LEVD,2024-03-22T04:00:00Z,41.706,-4.852,10,7,90,5,,6+,30.18,,,TRUE,,,,,,,,CAVOK,,,,,,,,VFR,,,,,,,,,,,,METAR,844
LEVC 220400Z VRB01KT 9999 FEW020 10/09 Q1021 NOSIG,LEVC,2024-03-22T04:00:00Z,39.489,-0.482,10,9,VRB,1,,6+,30.15,,,,,,TRUE,,,,,FEW,2000,,,,,,,VFR,,,,,,,,,,,,METAR,58
LETU 220400Z AUTO 25005KT CAVOK 11/08 Q1022,LETU,2024-03-22T04:00:00Z,-99.99,-99.99,11,8,250,5,,6+,30.18,,,TRUE,,,,,,,,CAVOK,,,,,,,,VFR,,,,,,,,,,,,METAR,9999
LETO 220400Z 05005KT CAVOK 11/09 Q1022 NOSIG,LETO,2024-03-22T04:00:00Z,40.489,-3.451,11,9,50,5,,6+,30.18,,,,,,TRUE,,,,,CAVOK,,,,,,,,VFR,,,,,,,,,,,,METAR,598
LETL 220400Z AUTO 30003KT CAVOK 07/03 Q1024,LETL,2024-03-22T04:00:00Z,40.404,-1.218,7,3,300,3,,6+,30.24,,,TRUE,,,,,,,,CAVOK,,,,,,,,VFR,,,,,,,,,,,,METAR,1024
LEST 220400Z VRB03KT CAVOK 10/09 Q1020 NOSIG,LEST,2024-03-22T04:00:00Z,42.888,-8.411,10,9,VRB,3,,6+,30.12,,,,,,TRUE,,,,,CAVOK,,,,,,,,VFR,,,,,,,,,,,,METAR,363
LESO 220400Z AUTO 14004KT 2500 BR VV006 13/13 Q1022,LESO,2024-03-22T04:00:00Z,43.361,-1.787,13,13,140,4,,1.55,30.18,,,TRUE,,,,,,,BR,OVX,0,,,,,,,IFR,,,,,,,,,,,600,METAR,3
LESB 220400Z AUTO 32004KT CAVOK 12/07 Q1020,LESB,2024-03-22T04:00:00Z,39.599,2.703,12,7,320,4,,6+,30.12,,,TRUE,,,,,,,,CAVOK,,,,,,,,VFR,,,,,,,,,,,,METAR,48
LESA 220400Z AUTO 09011KT 9000 NCD 13/07 Q1021,LESA,2024-03-22T04:00:00Z,40.96,-5.498,13,7,90,11,,5.59,30.15,,,TRUE,,,,,,,,CLR,,,,,,,,VFR,,,,,,,,,,,,METAR,788
LERT 220400Z 05003KT 360V110 9000 BKN044 14/13 Q1012 NOSIG,LERT,2024-03-22T04:00:00Z,36.645,-6.349,14,13,50,3,,5.59,29.88,,,,,,TRUE,,,,,BKN,4400,,,,,,,VFR,,,,,,,,,,,,METAR,27
LERS 220400Z AUTO 02007KT 350V050 CAVOK 12/09 Q1021,LERS,2024-03-22T04:00:00Z,41.15,1.179,12,9,20,7,,6+,30.15,,,TRUE,,,,,,,,CAVOK,,,,,,,,VFR,,,,,,,,,,,,METAR,68
LEPP 220400Z AUTO 00000KT 9000 NCD 09/09 Q1022,LEPP,2024-03-22T04:00:00Z,42.777,-1.65,9,9,0,0,,5.59,30.18,,,TRUE,,,,,,,,CLR,,,,,,,,VFR,,,,,,,,,,,,METAR,448
LEPA 220400Z 03005KT CAVOK 10/09 Q1020 NOSIG,LEPA,2024-03-22T04:00:00Z,39.561,2.737,10,9,30,5,,6+,30.12,,,,,,TRUE,,,,,CAVOK,,,,,,,,VFR,,,,,,,,,,,,METAR,8
LEMI 220400Z AUTO 35011KT CAVOK 16/08 Q1019,LEMI,2024-03-22T04:00:00Z,37.803,-1.125,16,8,350,11,,6+,30.09,,,TRUE,,,,,,,,CAVOK,,,,,,,,VFR,,,,,,,,,,,,METAR,193
LEMH 220400Z AUTO 33003KT CAVOK 12/11 Q1020,LEMH,2024-03-22T04:00:00Z,39.855,4.216,12,11,330,3,,6+,30.12,,,TRUE,,,,,,,,CAVOK,,,,,,,,VFR,,,,,,,,,,,,METAR,82
LEMG 220400Z VRB02KT 9000 NSC 17/13 Q1013 NOSIG,LEMG,2024-03-22T04:00:00Z,36.666,-4.482,17,13,VRB,2,,5.59,29.91,,,,,,TRUE,,,,,CLR,,,,,,,,VFR,,,,,,,,,,,,METAR,5
LEMD 220400Z 00000KT CAVOK 11/08 Q1022 NOSIG,LEMD,2024-03-22T04:00:00Z,40.466,-3.555,11,8,0,0,,6+,30.18,,,,,,TRUE,,,,,CAVOK,,,,,,,,VFR,,,,,,,,,,,,METAR,589
LELO 220400Z AUTO 26003KT CAVOK 06/05 Q1023,LELO,2024-03-22T04:00:00Z,42.452,-2.331,6,5,260,3,,6+,30.21,,,TRUE,,,,,,,,CAVOK,,,,,,,,VFR,,,,,,,,,,,,METAR,352
LELN 220400Z AUTO 34005KT CAVOK 11/03 Q1023,LELN,2024-03-22T04:00:00Z,42.588,-5.651,11,3,340,5,,6+,30.21,,,TRUE,,,,,,,,CAVOK,,,,,,,,VFR,,,,,,,,,,,,METAR,911
LELL 220400Z AUTO VRB01KT CAVOK 10/08 Q1021,LELL,2024-03-22T04:00:00Z,41.521,2.105,10,8,VRB,1,,6+,30.15,,,TRUE,,,,,,,,CAVOK,,,,,,,,VFR,,,,,,,,,,,,METAR,136
LELC 220400Z AUTO 34004KT CAVOK 14/11 Q1019,LELC,2024-03-22T04:00:00Z,37.775,-0.812,14,11,340,4,,6+,30.09,,,TRUE,,,,,,,,CAVOK,,,,,,,,VFR,,,,,,,,,,,,METAR,3
LEIB 220400Z AUTO VRB01KT CAVOK 11/09 Q1020,LEIB,2024-03-22T04:00:00Z,38.876,1.384,11,9,VRB,1,,6+,30.12,,,TRUE,,,,,,,,CAVOK,,,,,,,,VFR,,,,,,,,,,,,METAR,4
LEHC 220400Z AUTO 00000KT CAVOK 09/07 Q1022,LEHC,2024-03-22T04:00:00Z,42.082,-0.324,9,7,0,0,,6+,30.18,,,TRUE,,,,,,,,CAVOK,,,,,,,,VFR,,,,,,,,,,,,METAR,540
LEGT 220400Z AUTO 03001KT CAVOK 12/09 Q1022,LEGT,2024-03-22T04:00:00Z,40.299,-3.723,12,9,30,1,,6+,30.18,,,TRUE,,,,,,,,CAVOK,,,,,,,,VFR,,,,,,,,,,,,METAR,619
LEGR 220400Z AUTO 16005KT 120V200 9000 OVC050 15/07 Q1015,LEGR,2024-03-22T04:00:00Z,37.19,-3.789,15,7,160,5,,5.59,29.97,,,TRUE,,,,,,,,OVC,5000,,,,,,,VFR,,,,,,,,,,,,METAR,560
LEGE 220400Z 27002KT CAVOK 10/09 Q1020,LEGE,2024-03-22T04:00:00Z,41.911,2.763,10,9,270,2,,6+,30.12,,,,,,,,,,,CAVOK,,,,,,,,VFR,,,,,,,,,,,,METAR,140
LEDA 220400Z AUTO 05003KT CAVOK 08/08 Q1022,LEDA,2024-03-22T04:00:00Z,41.734,0.538,8,8,50,3,,6+,30.18,,,TRUE,,,,,,,,CAVOK,,,,,,,,VFR,,,,,,,,,,,,METAR,352
LECO 220400Z AUTO VRB01KT 5000 BR BKN001 10/09 Q1020,LECO,2024-03-22T04:00:00Z,43.307,-8.372,10,9,VRB,1,,3.11,30.12,,,TRUE,,,,,,,BR,BKN,100,,,,,,,LIFR,,,,,,,,,,,,METAR,80
LECH 220400Z AUTO 21001KT 9000 NCD 10/08 Q1021,LECH,2024-03-22T04:00:00Z,40.211,0.067,10,8,210,1,,5.59,30.15,,,TRUE,,,,,,,,CLR,,,,,,,,VFR,,,,,,,,,,,,METAR,360
LEBT 220400Z AUTO 34003KT CAVOK 08/08 Q1020,LEBT,2024-03-22T04:00:00Z,39.58,-0.45,8,8,340,3,,6+,30.12,,,TRUE,,,,,,,,CAVOK,,,,,,,,VFR,,,,,,,,,,,,METAR,50
LEBR 220400Z AUTO VRB01KT CAVOK 09/08 Q1022,LEBR,2024-03-22T04:00:00Z,42.2,-1.43,9,8,VRB,1,,6+,30.18,,,TRUE,,,,,,,,CAVOK,,,,,,,,VFR,,,,,,,,,,,,METAR,347
LEBL 220400Z 32009KT CAVOK 13/10 Q1021 NOSIG,LEBL,2024-03-22T04:00:00Z,41.293,2.07,13,10,320,9,,6+,30.15,,,,,,TRUE,,,,,CAVOK,,,,,,,,VFR,,,,,,,,,,,,METAR,2
LEBG 220400Z AUTO 21003KT CAVOK 06/04 Q1023,LEBG,2024-03-22T04:00:00Z,42.356,-3.622,6,4,210,3,,6+,30.21,,,TRUE,,,,,,,,CAVOK,,,,,,,,VFR,,,,,,,,,,,,METAR,892
LEBB 220400Z VRB02KT 4000 BR OVC004 14/14 Q1022 TEMPO 2000 BKN002,LEBB,2024-03-22T04:00:00Z,43.298,-2.906,14,14,VRB,2,,2.49,30.18,,,,,,,,,,BR,OVC,400,,,,,,,LIFR,,,,,,,,,,,,METAR,38
LEBA 220400Z AUTO 07012KT 040V100 CAVOK 21/07 Q1012,LEBA,2024-03-22T04:00:00Z,37.842,-4.849,21,7,70,12,,6+,29.88,,,TRUE,,,,,,,,CAVOK,,,,,,,,VFR,,,,,,,,,,,,METAR,88
LEAS 220400Z AUTO 17002KT 9999 OVC005 13/12 Q1022,LEAS,2024-03-22T04:00:00Z,43.567,-6.044,13,12,170,2,,6+,30.18,,,TRUE,,,,,,,,OVC,500,,,,,,,IFR,,,,,,,,,,,,METAR,120
LEAM 220400Z 33007KT 290V030 CAVOK 22/08 Q1015,LEAM,2024-03-22T04:00:00Z,36.846,-2.357,22,8,330,7,,6+,29.97,,,,,,,,,,,CAVOK,,,,,,,,VFR,,,,,,,,,,,,METAR,16
LEAL 220400Z 27004KT CAVOK 14/08 Q1019 NOSIG,LEAL,2024-03-22T04:00:00Z,38.282,-0.558,14,8,270,4,,6+,30.09,,,,,,TRUE,,,,,CAVOK,,,,,,,,VFR,,,,,,,,,,,,METAR,26
LEAG 220400Z AUTO 11006KT 070V150 7000 BKN011/// OVC013/// 16/14 Q1014,LEAG,2024-03-22T04:00:00Z,36.129,-5.441,16,14,110,6,,4.35,29.94,,,TRUE,,,,,,,,BKN,1100,OVC,1300,,,,,MVFR,,,,,,,,,,,,METAR,4
LEAB 220400Z 00000KT CAVOK 07/04 Q1022 NOSIG,LEAB,2024-03-22T04:00:00Z,38.952,-1.863,7,4,0,0,,6+,30.18,,,,,,TRUE,,,,,CAVOK,,,,,,,,VFR,,,,,,,,,,,,METAR,704
LDZD 220400Z VRB02KT 9999 FEW040 07/07 Q1018,LDZD,2024-03-22T04:00:00Z,44.108,15.347,7,7,VRB,2,,6+,30.06,,,,,,,,,,,FEW,4000,,,,,,,VFR,,,,,,,,,,,,METAR,82
LDZA 220400Z VRB02KT CAVOK 11/09 Q1020 NOSIG,LDZA,2024-03-22T04:00:00Z,45.729,16.054,11,9,VRB,2,,6+,30.12,,,,,,TRUE,,,,,CAVOK,,,,,,,,VFR,,,,,,,,,,,,METAR,103
LDSP 220400Z AUTO 07004KT CAVOK 10/09 Q1018 NOSIG,LDSP,2024-03-22T04:00:00Z,43.539,16.301,10,9,70,4,,6+,30.06,,,TRUE,,,TRUE,,,,,CAVOK,,,,,,,,VFR,,,,,,,,,,,,METAR,16
LDRI 220400Z 05006KT 330V070 9999 SCT050 15/04 Q1019,LDRI,2024-03-22T04:00:00Z,45.218,14.573,15,4,50,6,,6+,30.09,,,,,,,,,,,SCT,5000,,,,,,,VFR,,,,,,,,,,,,METAR,80
LDPL 220400Z 07001KT CAVOK 08/06 Q1019,LDPL,2024-03-22T04:00:00Z,44.894,13.922,8,6,70,1,,6+,30.09,,,,,,,,,,,CAVOK,,,,,,,,VFR,,,,,,,,,,,,METAR,63
LDOS 220400Z 28005KT CAVOK 06/03 Q1020,LDOS,2024-03-22T04:00:00Z,45.463,18.81,6,3,280,5,,6+,30.12,,,,,,,,,,,CAVOK,,,,,,,,VFR,,,,,,,,,,,,METAR,82
LDDU 220400Z 04005KT 360V080 CAVOK 11/08 Q1018 NOSIG,LDDU,2024-03-22T04:00:00Z,42.56,18.269,11,8,40,5,,6+,30.06,,,,,,TRUE,,,,,CAVOK,,,,,,,,VFR,,,,,,,,,,,,METAR,156
LCPH 220400Z 02005KT 9999 FEW040 10/05 Q1010 NOSIG,LCPH,2024-03-22T04:00:00Z,34.715,32.479,10,5,20,5,,6+,29.82,,,,,,TRUE,,,,,FEW,4000,,,,,,,VFR,,,,,,,,,,,,METAR,8
LCLK 220400Z 29005KT 9999 FEW020 FEW025TCU 10/07 Q1010 NOSIG,LCLK,2024-03-22T04:00:00Z,34.874,33.617,10,7,290,5,,6+,29.82,,,,,,TRUE,,,,,FEW,2000,FEW,2500,,,,,VFR,,,,,,,,,,,,METAR,2
LBPL 220400Z 34004KT 9999 BKN100 02/M00 Q1019,LBPL,2024-03-22T04:00:00Z,43.453,24.504,2,0,340,4,,6+,30.09,,,,,,,,,,,BKN,10000,,,,,,,VFR,,,,,,,,,,,,METAR,93
LBPG 220400Z 30002KT 9999 FEW100 00/M03 Q1019,LBPG,2024-03-22T04:00:00Z,42.289,24.714,0,-3,300,2,,6+,30.09,,,,,,,,,,,FEW,10000,,,,,,,VFR,,,,,,,,,,,,METAR,198
LBIA 220400Z 04004KT 9999 SCT100 04/M00 Q1018,LBIA,2024-03-22T04:00:00Z,42.456,26.352,4,0,40,4,,6+,30.06,,,,,,,,,,,SCT,10000,,,,,,,VFR,,,,,,,,,,,,METAR,155
KQRH 220400Z AUTO 00000KT 9999 SCT020 BKN033 27/23 A2978 RMK AO2 SLP087 WND DATA ESTMD,KQRH,2024-03-22T04:00:00Z,-99.99,-99.99,27,23,0,0,,6+,29.78,1008.7,,TRUE,TRUE,,,,,,,SCT,2000,BKN,3300,,,,,VFR,,,,,,,,,,,,SPECI,9999
KMHV 220400Z AUTO 21005KT 10SM CLR 14/01 A3006 RMK AO2,KMHV,2024-03-22T04:00:00Z,35.0626,-118.157,14,1,210,5,,10+,30.06,,,TRUE,TRUE,,,,,,,CLR,,,,,,,,VFR,,,,,,,,,,,,METAR,841
KLFK 220400Z AUTO 08007KT 10SM -RA FEW004 OVC050 A2990 RMK AO2 P0000,KLFK,2024-03-22T04:00:00Z,31.2359,-94.7546,,,80,7,,10+,29.90,,,TRUE,TRUE,,,,,,-RA,FEW,400,OVC,5000,,,,,VFR,,,,,,0.005,,,,,,SPECI,87
KGZN 220400Z AUTO 24006KT 10SM CLR 12/12 A2986 RMK AO2,KGZN,2024-03-22T04:00:00Z,32.3682,-99.026,12,12,240,6,,10+,29.86,,,TRUE,TRUE,,,,,,,CLR,,,,,,,,VFR,,,,,,,,,,,,METAR,522
KGRF 220400Z AUTO 00000KT 10SM SCT024 BKN041 BKN050 11/10 A3004 RMK AO2 SLP177 $,KGRF,2024-03-22T04:00:00Z,47.079,-122.58,11,10,0,0,,10+,30.04,1017.7,,TRUE,TRUE,TRUE,,,,,,SCT,2400,BKN,4100,BKN,5000,,,VFR,,,,,,,,,,,,SPECI,91
HUEN 220400Z 24002KT 9999 FEW022 FEW024CB 22/21 Q1013 NOSIG,HUEN,2024-03-22T04:00:00Z,0.036,32.437,22,21,240,2,,6+,29.91,,,,,,TRUE,,,,,FEW,2200,FEW,2400,,,,,VFR,,,,,,,,,,,,METAR,1147
HKWJ 220400Z 14007KT 9999 BKN024 27/22 Q1008,HKWJ,2024-03-22T04:00:00Z,1.74,40.087,27,22,140,7,,6+,29.76,,,,,,,,,,,BKN,2400,,,,,,,MVFR,,,,,,,,,,,,METAR,254
HKNW 220400Z 00000KT 9999 BKN020 19/16 Q1021,HKNW,2024-03-22T04:00:00Z,-1.322,36.815,19,16,0,0,,6+,30.15,,,,,,,,,,,BKN,2000,,,,,,,MVFR,,,,,,,,,,,,METAR,1666
HKNK 220400Z 00000KT CAVOK 14/09,HKNK,2024-03-22T04:00:00Z,-0.298,36.159,14,9,0,0,,6+,0.00,,,,,,,,,,,CAVOK,,,,,,,,VFR,,,,,,,,,,,,METAR,1900
HKNI 220400Z 00000KT 9999 FEW016 14/11,HKNI,2024-03-22T04:00:00Z,-0.343,36.915,14,11,0,0,,6+,0.00,,,,,,,,,,,FEW,1600,,,,,,,VFR,,,,,,,,,,,,METAR,1769
HKMO 220400Z 22003KT 9999 FEW021 27/25 Q1008 NOSIG,HKMO,2024-03-22T04:00:00Z,-4.015,39.606,27,25,220,3,,6+,29.76,,,,,,TRUE,,,,,FEW,2100,,,,,,,VFR,,,,,,,,,,,,METAR,55
HKLO 220400Z 24003KT CAVOK 25/15 Q1007,HKLO,2024-03-22T04:00:00Z,3.122,35.609,25,15,240,3,,6+,29.73,,,,,,,,,,,CAVOK,,,,,,,,VFR,,,,,,,,,,,,METAR,503
HKJK 220400Z 03003KT 9999 FEW008 SCT018 18/17 Q1020 NOSIG,HKJK,2024-03-22T04:00:00Z,-1.319,36.928,18,17,30,3,,6+,30.12,,,,,,TRUE,,,,,FEW,800,SCT,1800,,,,,VFR,,,,,,,,,,,,METAR,1615
HKGO 220400Z AUTO 07007KT 13/13 Q1026 A30.29,HKGO,2024-03-22T04:00:00Z,-99.999,-99.999,13,13,70,7,,,30.30,,,TRUE,,,,,,,,,,,,,,,,VFR,,,,,,,,,,,,METAR,9999
HKGA 220400Z 18006KT 9999 BKN022 28/25 Q1009,HKGA,2024-03-22T04:00:00Z,-0.464,39.649,28,25,180,6,,6+,29.79,,,,,,,,,,,BKN,2200,,,,,,,MVFR,,,,,,,,,,,,METAR,147
HKEM 220400Z 34004KT 9999 SCT018 17/14,HKEM,2024-03-22T04:00:00Z,-0.573,37.497,17,14,340,4,,6+,0.00,,,,,,,,,,,SCT,1800,,,,,,,VFR,,,,,,,,,,,,METAR,1265
HKEL 220400Z 15005KT 9999 FEW014 BKN240 12/09 Q1022,HKEL,2024-03-22T04:00:00Z,0.404,35.239,12,9,150,5,,6+,30.18,,,,,,,,,,,FEW,1400,BKN,24000,,,,,VFR,,,,,,,,,,,,METAR,2116
HETR 220400Z 30017KT 6000 NSC 17/12 Q1011,HETR,2024-03-22T04:00:00Z,28.209,33.646,17,12,300,17,,3.73,29.85,,,,,,,,,,,CLR,,,,,,,,MVFR,,,,,,,,,,,,METAR,35
HESX 220400Z 27004KT CAVOK 08/06 Q1016 NOSIG,HESX,2024-03-22T04:00:00Z,30.108,30.896,8,6,270,4,,6+,30.00,,,,,,TRUE,,,,,CAVOK,,,,,,,,VFR,,,,,,,,,,,,METAR,168
HESW 220400Z 34005KT CAVOK 08/04 Q1018,HESW,2024-03-22T04:00:00Z,29.346,25.507,8,4,340,5,,6+,30.06,,,,,,,,,,,CAVOK,,,,,,,,VFR,,,,,,,,,,,,METAR,101
HESN 220400Z 33004KT CAVOK 18/M02 Q1011 NOSIG,HESN,2024-03-22T04:00:00Z,23.964,32.82,18,-2,330,4,,6+,29.85,,,,,,TRUE,,,,,CAVOK,,,,,,,,VFR,,,,,,,,,,,,METAR,197
HESH 220400Z 36011KT CAVOK 19/13 Q1010 NOSIG,HESH,2024-03-22T04:00:00Z,27.977,34.395,19,13,360,11,,6+,29.82,,,,,,TRUE,,,,,CAVOK,,,,,,,,VFR,,,,,,,,,,,,METAR,50
HESG 220400Z 32009KT CAVOK 15/09 Q1013 NOSIG,HESG,2024-03-22T04:00:00Z,26.343,31.743,15,9,320,9,,6+,29.91,,,,,,TRUE,,,,,CAVOK,,,,,,,,VFR,,,,,,,,,,,,METAR,70
HEPS 220400Z 24011KT 9999 SCT030 14/10 Q1014 NOSIG,HEPS,2024-03-22T04:00:00Z,31.279,32.238,14,10,240,11,,6+,29.94,,,,,,TRUE,,,,,SCT,3000,,,,,,,VFR,,,,,,,,,,,,METAR,2
HEMM 220400Z 32010KT 9999 FEW020 14/06 Q1018 NOSIG,HEMM,2024-03-22T04:00:00Z,31.325,27.222,14,6,320,10,,6+,30.06,,,,,,TRUE,,,,,FEW,2000,,,,,,,VFR,,,,,,,,,,,,METAR,26
HEMA 220400Z 32015KT CAVOK 19/14 Q1011 NOSIG,HEMA,2024-03-22T04:00:00Z,25.557,34.584,19,14,320,15,,6+,29.85,,,,,,TRUE,,,,,CAVOK,,,,,,,,VFR,,,,,,,,,,,,METAR,77
HELX 220400Z 30004KT CAVOK 16/03 Q1012 NOSIG,HELX,2024-03-22T04:00:00Z,25.671,32.706,16,3,300,4,,6+,29.88,,,,,,TRUE,,,,,CAVOK,,,,,,,,VFR,,,,,,,,,,,,METAR,86
HEGN 220400Z 31018KT CAVOK 17/09 Q1012 NOSIG,HEGN,2024-03-22T04:00:00Z,27.179,33.801,17,9,310,18,,6+,29.88,,,,,,TRUE,,,,,CAVOK,,,,,,,,VFR,,,,,,,,,,,,METAR,14
HECA 220400Z 31005KT CAVOK 14/07 Q1016 NOSIG,HECA,2024-03-22T04:00:00Z,30.133,31.405,14,7,310,5,,6+,30.00,,,,,,TRUE,,,,,CAVOK,,,,,,,,VFR,,,,,,,,,,,,METAR,142
HEBL 220400Z 00000KT CAVOK 15/01 Q1012 NOSIG,HEBL,2024-03-22T04:00:00Z,22.376,31.612,15,1,0,0,,6+,29.88,,,,,,TRUE,,,,,CAVOK,,,,,,,,VFR,,,,,,,,,,,,METAR,184
HEBA 220400Z 31007KT 9999 SCT020 13/08 Q1015 NOSIG,HEBA,2024-03-22T04:00:00Z,30.918,29.696,13,8,310,7,,6+,29.97,,,,,,TRUE,,,,,SCT,2000,,,,,,,VFR,,,,,,,,,,,,METAR,41
HEAT 220400Z 01012KT CAVOK 11/07 Q1018 NOSIG,HEAT,2024-03-22T04:00:00Z,27.049,31.014,11,7,10,12,,6+,30.06,,,,,,TRUE,,,,,CAVOK,,,,,,,,VFR,,,,,,,,,,,,METAR,229
HEAR 220400Z 29002KT 9999 SCT025 13/08 Q1014 NOSIG,HEAR,2024-03-22T04:00:00Z,31.041,33.817,13,8,290,2,,6+,29.94,,,,,,TRUE,,,,,SCT,2500,,,,,,,VFR,,,,,,,,,,,,METAR,36
HCMM 220400Z 11009KT 9999 SCT019 29/26 Q1009,HCMM,2024-03-22T04:00:00Z,2.015,45.305,29,26,110,9,,6+,29.79,,,,,,,,,,,SCT,1900,,,,,,,VFR,,,,,,,,,,,,METAR,6
HCMF 220400Z 15012KT CAVOK 27/24 Q1009,HCMF,2024-03-22T04:00:00Z,11.277,49.141,27,24,150,12,,6+,29.79,,,,,,,,,,,CAVOK,,,,,,,,VFR,,,,,,,,,,,,METAR,8
HBBA 220400Z 08002KT 9999 FEW020 BKN100 24/22 Q1011 NOSIG,HBBA,2024-03-22T04:00:00Z,-3.324,29.319,24,22,80,2,,6+,29.85,,,,,,TRUE,,,,,FEW,2000,BKN,10000,,,,,VFR,,,,,,,,,,,,METAR,777
GVSV 220400Z 05026KT 9000 FEW023 21/16 Q1013 NOSIG,GVSV,2024-03-22T04:00:00Z,16.833,-25.055,21,16,50,26,,5.59,29.91,,,,,,TRUE,,,,,FEW,2300,,,,,,,VFR,,,,,,,,,,,,METAR,16
GVNP 220400Z 02013KT 9000 FEW016 BKN100 21/17 Q1012 NOSIG,GVNP,2024-03-22T04:00:00Z,14.947,-23.484,21,17,20,13,,5.59,29.88,,,,,,TRUE,,,,,FEW,1600,BKN,10000,,,,,VFR,,,,,,,,,,,,METAR,70
GVAC 220400Z 03014KT 9000 BKN014 20/16 Q1013 NOSIG,GVAC,2024-03-22T04:00:00Z,16.742,-22.949,20,16,30,14,,5.59,29.91,,,,,,TRUE,,,,,BKN,1400,,,,,,,MVFR,,,,,,,,,,,,METAR,54
GQPP 220400Z 01017KT 7000 NSC 17/13 Q1013,GQPP,2024-03-22T04:00:00Z,20.929,-17.031,17,13,10,17,,4.35,29.91,,,,,,,,,,,CLR,,,,,,,,MVFR,,,,,,,,,,,,METAR,5
GQNO 220400Z 34014KT 8000 NSC 20/14 Q1009 NOSIG,GQNO,2024-03-22T04:00:00Z,18.31,-15.97,20,14,340,14,,4.97,29.79,,,,,,TRUE,,,,,CLR,,,,,,,,MVFR,,,,,,,,,,,,METAR,1
GOTT 220400Z 27004KT CAVOK 28/22 Q1007,GOTT,2024-03-22T04:00:00Z,13.733,-13.657,28,22,270,4,,6+,29.73,,,,,,,,,,,CAVOK,,,,,,,,VFR,,,,,,,,,,,,METAR,53
GOSS 220400Z 36006KT 290V030 CAVOK 19/17 Q1009,GOSS,2024-03-22T04:00:00Z,16.051,-16.461,19,17,360,6,,6+,29.79,,,,,,,,,,,CAVOK,,,,,,,,VFR,,,,,,,,,,,,METAR,3
GOSM 220400Z 26006KT CAVOK 29/07 Q1006,GOSM,2024-03-22T04:00:00Z,15.597,-13.326,29,7,260,6,,6+,29.70,,,,,,,,,,,CAVOK,,,,,,,,VFR,,,,,,,,,,,,METAR,28
GOOY 220400Z 32008KT CAVOK 21/19 Q1009,GOOY,2024-03-22T04:00:00Z,14.741,-17.49,21,19,320,8,,6+,29.79,,,,,,,,,,,CAVOK,,,,,,,,VFR,,,,,,,,,,,,METAR,21
GOOD 220400Z 32014KT CAVOK 20/20 Q1009,GOOD,2024-03-22T04:00:00Z,14.65,-16.23,20,20,320,14,,6+,29.79,,,,,,,,,,,CAVOK,,,,,,,,VFR,,,,,,,,,,,,METAR,9
GOGG 220400Z 30008KT 9999 SCT015 21/20 Q1010,GOGG,2024-03-22T04:00:00Z,12.556,-16.282,21,20,300,8,,6+,29.82,,,,,,,,,,,SCT,1500,,,,,,,VFR,,,,,,,,,,,,METAR,24
GOBD 220400Z 34009KT 7000 NSC 19/19 Q1009 NOSIG,GOBD,2024-03-22T04:00:00Z,14.671,-17.067,19,19,340,9,,4.35,29.79,,,,,,TRUE,,,,,CLR,,,,,,,,MVFR,,,,,,,,,,,,METAR,90
GMTT 220400Z 08026KT 9999 SCT021 18/16 Q1008 NOSIG,GMTT,2024-03-22T04:00:00Z,35.727,-5.917,18,16,80,26,,6+,29.76,,,,,,TRUE,,,,,SCT,2100,,,,,,,VFR,,,,,,,,,,,,METAR,19
GMTN 220400Z AUTO 08014KT 17/15 Q1012,GMTN,2024-03-22T04:00:00Z,35.594,-5.32,17,15,80,14,,,29.88,,,TRUE,,,,,,,,,,,,,,,,VFR,,,,,,,,,,,,METAR,10
GMTA 220400Z 26004KT 240V300 4000 BR SCT009 SCT034 BKN200 16/13 Q1011 NOSIG,GMTA,2024-03-22T04:00:00Z,35.177,-3.84,16,13,260,4,,2.49,29.85,,,,,,TRUE,,,,BR,SCT,900,SCT,3400,BKN,20000,,,IFR,,,,,,,,,,,,METAR,14
GMMZ 220400Z 13008KT 9999 FEW030 SCT100 16/M03 Q1009 NOSIG,GMMZ,2024-03-22T04:00:00Z,30.939,-6.909,16,-3,130,8,,6+,29.79,,,,,,TRUE,,,,,FEW,3000,SCT,10000,,,,,VFR,,,,,,,,,,,,METAR,1139
GMMX 220400Z 24005KT 8000 BKN026 SCT080 14/09 Q1009 NOSIG,GMMX,2024-03-22T04:00:00Z,31.607,-8.036,14,9,240,5,,4.97,29.79,,,,,,TRUE,,,,,BKN,2600,SCT,8000,,,,,MVFR,,,,,,,,,,,,METAR,465
GMMW 220400Z 07010KT 2000 BR SCT006 SCT027 OVC098 16/15 Q1013 NOSIG,GMMW,2024-03-22T04:00:00Z,34.993,-3.025,16,15,70,10,,1.24,29.91,,,,,,TRUE,,,,BR,SCT,600,SCT,2700,OVC,9800,,,IFR,,,,,,,,,,,,METAR,174
GMMN 220400Z 31004KT CAVOK 13/11 Q1009 NOSIG,GMMN,2024-03-22T04:00:00Z,33.367,-7.59,13,11,310,4,,6+,29.79,,,,,,TRUE,,,,,CAVOK,,,,,,,,VFR,,,,,,,,,,,,METAR,196
GMMI 220400Z AUTO VRB01KT 6000 SCT013 BKN026 12/12 Q1009 NOSIG,GMMI,2024-03-22T04:00:00Z,31.406,-9.687,12,12,VRB,1,,3.73,29.79,,,TRUE,,,TRUE,,,,,SCT,1300,BKN,2600,,,,,MVFR,,,,,,,,,,,,METAR,102
GMME 220400Z 00000KT 5000 SCT016 11/11 Q1008 NOSIG,GMME,2024-03-22T04:00:00Z,34.051,-6.752,11,11,0,0,,3.11,29.76,,,,,,TRUE,,,,,SCT,1600,,,,,,,MVFR,,,,,,,,,,,,METAR,84
GMMB 220400Z AUTO 03002KT 9999 FEW220/// 11/11 Q1009 NOSIG,GMMB,2024-03-22T04:00:00Z,33.655,-7.221,11,11,30,2,,6+,29.79,,,TRUE,,,TRUE,,,,,FEW,22000,,,,,,,VFR,,,,,,,,,,,,METAR,191
GMFO 220400Z 32006KT 230V040 9000 NSC 22/M01 Q1013 NOSIG,GMFO,2024-03-22T04:00:00Z,34.787,-1.924,22,-1,320,6,,5.59,29.91,,,,,,TRUE,,,,,CLR,,,,,,,,VFR,,,,,,,,,,,,METAR,452
GMFM 220400Z 05010KT 030V090 9999 FEW020 BKN100 13/11 Q1008 NOSIG,GMFM,2024-03-22T04:00:00Z,33.875,-5.52,13,11,50,10,,6+,29.76,,,,,,TRUE,,,,,FEW,2000,BKN,10000,,,,,VFR,,,,,,,,,,,,METAR,569
GMFK 220400Z VRB02KT 8000 NCD 19/M09 Q1013 NOSIG,GMFK,2024-03-22T04:00:00Z,31.946,-4.399,19,-9,VRB,2,,4.97,29.91,,,,,,TRUE,,,,,CLR,,,,,,,,MVFR,,,,,,,,,,,,METAR,1033
GMFF 220400Z 10007KT 080V140 9999 FEW026 SCT200 14/12 Q1009 NOSIG,GMFF,2024-03-22T04:00:00Z,33.929,-4.976,14,12,100,7,,6+,29.79,,,,,,TRUE,,,,,FEW,2600,SCT,20000,,,,,VFR,,,,,,,,,,,,METAR,575
GMFB 220400Z AUTO 12024KT 4000 SA BKN030 19/M05 Q1016 NOSIG,GMFB,2024-03-22T04:00:00Z,32.514,-1.978,19,-5,120,24,,2.49,30.00,,,TRUE,,,TRUE,,,,SA,BKN,3000,,,,,,,IFR,,,,,,,,,,,,METAR,1106
GMAG 220400Z AUTO 00000KT 0750 SCT009 BKN012 12/11 Q1010,GMAG,2024-03-22T04:00:00Z,29.031,-10.051,12,11,0,0,,0.47,29.82,,,TRUE,,,,,,,,SCT,900,BKN,1200,,,,,LIFR,,,,,,,,,,,,METAR,333
GMAD 220400Z 00000KT 9999 FEW020 SCT083 13/12 Q1009 NOSIG,GMAD,2024-03-22T04:00:00Z,30.325,-9.413,13,12,0,0,,6+,29.79,,,,,,TRUE,,,,,FEW,2000,SCT,8300,,,,,VFR,,,,,,,,,,,,METAR,66
GLRB 220400Z 00000KT 9999 BNK012 FEW023CB 26/25 Q1008 NOSIG RMK CB/N-SE,GLRB,2024-03-22T04:00:00Z,6.234,-10.362,26,25,0,0,,6+,29.76,,,,,,TRUE,,,,,FEW,2300,,,,,,,VFR,,,,,,,,,,,,METAR,12
GFLL 220400Z 27009KT 6000 HZ FEW012 28/23 Q1008,GFLL,2024-03-22T04:00:00Z,8.616,-13.195,28,23,270,9,,3.73,29.76,,,,,,,,,,HZ,FEW,1200,,,,,,,MVFR,,,,,,,,,,,,METAR,28
GEML 220400Z AUTO 11008KT 080V150 7000 OVC008 17/17 Q1014,GEML,2024-03-22T04:00:00Z,35.278,-2.956,17,17,110,8,,4.35,29.94,,,TRUE,,,,,,,,OVC,800,,,,,,,IFR,,,,,,,,,,,,METAR,48
GECE 220400Z AUTO 09015G29KT 060V150 //// SCT012 OVC014 17/15 Q1013,GECE,2024-03-22T04:00:00Z,35.893,-5.306,17,15,90,15,29,,29.91,,,TRUE,,,,,,,,SCT,1200,OVC,1400,,,,,MVFR,,,,,,,,,,,,METAR,2
GCXO 220400Z AUTO 30023KT 9999 SCT017 BKN024 OVC059 12/10 Q1012,GCXO,2024-03-22T04:00:00Z,28.483,-16.342,12,10,300,23,,6+,29.88,,,TRUE,,,,,,,,SCT,1700,BKN,2400,OVC,5900,,,MVFR,,,,,,,,,,,,METAR,623
GCTS 220400Z 36006KT 9999 FEW040 16/09 Q1012 NOSIG,GCTS,2024-03-22T04:00:00Z,28.047,-16.561,16,9,360,6,,6+,29.88,,,,,,TRUE,,,,,FEW,4000,,,,,,,VFR,,,,,,,,,,,,METAR,59
GCRR 220400Z AUTO 25003KT 230V290 CAVOK 16/10 Q1010,GCRR,2024-03-22T04:00:00Z,28.952,-13.6,16,10,250,3,,6+,29.82,,,TRUE,,,,,,,,CAVOK,,,,,,,,VFR,,,,,,,,,,,,METAR,9
GCLP 220400Z 31005KT 240V360 9999 FEW030 17/09 Q1012 NOSIG,GCLP,2024-03-22T04:00:00Z,27.923,-15.389,17,9,310,5,,6+,29.88,,,,,,TRUE,,,,,FEW,3000,,,,,,,VFR,,,,,,,,,,,,METAR,16
GCLA 220400Z AUTO VRB04KT 9999 SCT090 17/08 Q1013,GCLA,2024-03-22T04:00:00Z,28.633,-17.755,17,8,VRB,4,,6+,29.91,,,TRUE,,,,,,,,SCT,9000,,,,,,,VFR,,,,,,,,,,,,METAR,20
GCHI 220400Z AUTO 34018KT CAVOK 18/11 Q1014,GCHI,2024-03-22T04:00:00Z,27.819,-17.889,18,11,340,18,,6+,29.94,,,TRUE,,,,,,,,CAVOK,,,,,,,,VFR,,,,,,,,,,,,METAR,21
GCGM 220400Z AUTO VRB03KT 9999 SCT036 SCT044 16/08 Q1013 RMK R09/35005KT 310V050 ARP/VRB04KT,GCGM,2024-03-22T04:00:00Z,28.032,-17.211,16,8,VRB,3,,6+,29.91,,,TRUE,,,,,,,,SCT,3600,SCT,4400,,,,,VFR,,,,,,,,,,,,METAR,217
GCFV 220400Z AUTO VRB02KT CAVOK 14/10 Q1011,GCFV,2024-03-22T04:00:00Z,28.445,-13.863,14,10,VRB,2,,6+,29.85,,,TRUE,,,,,,,,CAVOK,,,,,,,,VFR,,,,,,,,,,,,METAR,11
GBYD 220400Z 29006KT 9000 NSC 20/18 Q1009,GBYD,2024-03-22T04:00:00Z,13.341,-16.653,20,18,290,6,,5.59,29.79,,,,,,,,,,,CLR,,,,,,,,VFR,,,,,,,,,,,,METAR,29
GABS 220400Z 10005KT CAVOK 30/12 Q1008 NOSIG,GABS,2024-03-22T04:00:00Z,12.534,-7.95,30,12,100,5,,6+,29.76,,,,,,TRUE,,,,,CAVOK,,,,,,,,VFR,,,,,,,,,,,,METAR,375
FYWE 220400Z AUTO 10010KT //// // ////// 18/13 Q1026,FYWE,2024-03-22T04:00:00Z,-22.612,17.08,18,13,100,10,,,30.30,,,TRUE,,,,,,,,,,,,,,,,VFR,,,,,,,,,,,,METAR,1700
FYWB 220400Z AUTO 01008KT //// // ////// 23/18 Q1009,FYWB,2024-03-22T04:00:00Z,-22.98,14.645,23,18,10,8,,,29.79,,,TRUE,,,,,,,,,,,,,,,,VFR,,,,,,,,,,,,METAR,87
FYOG 220400Z AUTO 13003KT 100V160 2700 BR ///////// 15/15 Q1011,FYOG,2024-03-22T04:00:00Z,-28.585,16.447,15,15,130,3,,1.68,29.85,,,TRUE,,,,,,,BR,,,,,,,,,IFR,,,,,,,,,,,,METAR,6
FYOA 220400Z AUTO 05002KT //// // ////// 21/12 Q1013,FYOA,2024-03-22T04:00:00Z,-17.878,15.953,21,12,50,2,,,29.91,,,TRUE,,,,,,,,,,,,,,,,VFR,,,,,,,,,,,,METAR,1099
FYLZ 220400Z AUTO /////KT //// // ////// 18/15 Q1009,FYLZ,2024-03-22T04:00:00Z,-26.687,15.243,18,15,,,,,29.79,,,TRUE,,,,,,,,,,,,,,,,VFR,,,,,,,,,,,,METAR,129
FYKT 220400Z AUTO 03008KT //// // ////// 25/12 Q1018,FYKT,2024-03-22T04:00:00Z,-26.54,18.111,25,12,30,8,,,30.06,,,TRUE,,,,,,,,,,,,,,,,VFR,,,,,,,,,,,,METAR,1064
FYKM 220400Z AUTO 00000KT //// // ////// 16/11 Q1016,FYKM,2024-03-22T04:00:00Z,-17.634,24.177,16,11,0,0,,,30.00,,,TRUE,,,,,,,,,,,,,,,,VFR,,,,,,,,,,,,METAR,959
FYGF 220400Z AUTO 01004KT //// // ////// 19/07 Q1020,FYGF,2024-03-22T04:00:00Z,-19.599,18.116,19,7,10,4,,,30.12,,,TRUE,,,,,,,,,,,,,,,,VFR,,,,,,,,,,,,METAR,1407
FWKI 220400Z 18009KT 9999 FEW006 BKN016 BKN070 18/17 Q1019 NOSIG,FWKI,2024-03-22T04:00:00Z,-13.789,33.781,18,17,180,9,,6+,30.09,,,,,,TRUE,,,,,FEW,600,BKN,1600,BKN,7000,,,MVFR,,,,,,,,,,,,METAR,1225
FVRG 220400Z 15004KT 120V180 CAVOK 15/14 Q1023 NOSIG,FVRG,2024-03-22T04:00:00Z,-17.921,31.1,15,14,150,4,,6+,30.21,,,,,,TRUE,,,,,CAVOK,,,,,,,,VFR,,,,,,,,,,,,METAR,1490
FVMV 220400Z 12004KT 9999 BKN015 19/16 Q1021,FVMV,2024-03-22T04:00:00Z,-20.055,30.859,19,16,120,4,,6+,30.15,,,,,,,,,,,BKN,1500,,,,,,,MVFR,,,,,,,,,,,,METAR,1103
FVKB 220400Z 00000KT CAVOK 20/18 Q1017 NOSIG,FVKB,2024-03-22T04:00:00Z,-16.52,28.885,20,18,0,0,,6+,30.03,,,,,,TRUE,,,,,CAVOK,,,,,,,,VFR,,,,,,,,,,,,METAR,515
FVJN 220400Z 14010KT 9999 SCT009 16/15 Q1023 TEMPO BKN010,FVJN,2024-03-22T04:00:00Z,-20.021,28.627,16,15,140,10,,6+,30.21,,,,,,,,,,,SCT,900,,,,,,,VFR,,,,,,,,,,,,METAR,1331
FVFA 220400Z 11009KT CAVOK 21/14 Q1019 NOSIG,FVFA,2024-03-22T04:00:00Z,-18.096,25.839,21,14,110,9,,6+,30.09,,,,,,TRUE,,,,,CAVOK,,,,,,,,VFR,,,,,,,,,,,,METAR,1069
FVCZ 220400Z 00000KT CAVOK 19/18 Q1023,FVCZ,2024-03-22T04:00:00Z,-21.008,31.578,19,18,0,0,,6+,30.21,,,,,,,,,,,CAVOK,,,,,,,,VFR,,,,,,,,,,,,METAR,436
FTTJ 220400Z 03006KT 7000 NSC 26/M08 Q1007 NOSIG,FTTJ,2024-03-22T04:00:00Z,12.134,15.034,26,-8,30,6,,4.35,29.73,,,,,,TRUE,,,,,CLR,,,,,,,,MVFR,,,,,,,,,,,,METAR,295
FSIA 220400Z 29003KT 240V310 9999 -SHRA FEW019TCU SCT020 27/25 Q1009 NOSIG,FSIA,2024-03-22T04:00:00Z,-4.674,55.522,27,25,290,3,,6+,29.79,,,,,,TRUE,,,,-SHRA,FEW,1900,SCT,2000,,,,,VFR,,,,,,,,,,,,METAR,3
FQXA 220400Z 13004KT 100V160 9999 SCT010 BKN020 22/22 Q1018,FQXA,2024-03-22T04:00:00Z,-25.038,33.627,22,22,130,4,,6+,30.06,,,,,,,,,,,SCT,1000,BKN,2000,,,,,MVFR,,,,,,,,,,,,METAR,3
FQTT 220400Z 16005KT 9999 BKN020 24/21 Q1016,FQTT,2024-03-22T04:00:00Z,-16.108,33.64,24,21,160,5,,6+,30.00,,,,,,,,,,,BKN,2000,,,,,,,MVFR,,,,,,,,,,,,METAR,146
FQPB 220400Z 22006KT 9999 SCT020 FEW025CB BKN100 25/24 Q1011 RMK CB TO NE/E,FQPB,2024-03-22T04:00:00Z,-12.989,40.525,25,24,220,6,,6+,29.85,,,,,,,,,,,SCT,2000,FEW,2500,BKN,10000,,,VFR,,,,,,,,,,,,METAR,101
FQNP 220400Z 21005KT 9999 BKN020 SCT/// 22/22 Q1014,FQNP,2024-03-22T04:00:00Z,-15.106,39.282,22,22,210,5,,6+,29.94,,,,,,,,,,,BKN,2000,,,,,,,MVFR,,,,,,,,,,,,METAR,434
FQNC 220400Z 24012KT 5000 TSRA SCT010 BKN020 FEW025CB OVC080 25/24 Q1011 RMK CB TO SE/S/SW,FQNC,2024-03-22T04:00:00Z,-14.488,40.712,25,24,240,12,,3.11,29.85,,,,,,,,,,TSRA,SCT,1000,BKN,2000,FEW,2500,OVC,8000,MVFR,,,,,,,,,,,,METAR,112
FQMA 220400Z 20005KT 9999 BKN020 23/19 Q1018 NOSIG,FQMA,2024-03-22T04:00:00Z,-25.921,32.573,23,19,200,5,,6+,30.06,,,,,,TRUE,,,,,BKN,2000,,,,,,,MVFR,,,,,,,,,,,,METAR,34
FQLC 220400Z 15012KT 4000 BR BKN002 BKN014 FEW020CB 18/17 Q1020 RMK CB TO SE/S/SW/W/NW,FQLC,2024-03-22T04:00:00Z,-13.271,35.265,18,17,150,12,,2.49,30.12,,,,,,,,,,BR,BKN,200,BKN,1400,FEW,2000,,,LIFR,,,,,,,,,,,,METAR,1362
FQCH 220400Z /////KT 9999 FEW010 SCT015 19/19 Q1020,FQCH,2024-03-22T04:00:00Z,-19.148,33.428,19,19,,,,6+,30.12,,,,,,,,,,,FEW,1000,SCT,1500,,,,,VFR,,,,,,,,,,,,METAR,695
FQBR 220400Z /////KT 9999 FEW020 24/23 Q1014,FQBR,2024-03-22T04:00:00Z,-19.796,34.908,24,23,,,,6+,29.94,,,,,,,,,,,FEW,2000,,,,,,,VFR,,,,,,,,,,,,METAR,14
FNUB 220400Z AUTO 34004KT 310V030 //// // NCD 17/17 Q1022,FNUB,2024-03-22T04:00:00Z,-14.925,13.575,17,17,340,4,,,30.18,,,TRUE,,,,,,,,CLR,,,,,,,,VFR,,,,,,,,,,,,METAR,1749
FNLU 220400Z AUTO 15003KT CAVOK 26/24 Q1008,FNLU,2024-03-22T04:00:00Z,-8.858,13.231,26,24,150,3,,6+,29.76,,,TRUE,,,,,,,,CAVOK,,,,,,,,VFR,,,,,,,,,,,,METAR,75
FNHU 220400Z AUTO 30002KT //// // NCD 19/17 Q1019,FNHU,2024-03-22T04:00:00Z,-12.809,15.761,19,17,300,2,,,30.09,,,TRUE,,,,,,,,CLR,,,,,,,,VFR,,,,,,,,,,,,METAR,1697
FNGI 220400Z AUTO 11005KT 070V130 CAVOK 20/12 Q1016,FNGI,2024-03-22T04:00:00Z,-17.044,15.684,20,12,110,5,,6+,30.00,,,TRUE,,,,,,,,CAVOK,,,,,,,,VFR,,,,,,,,,,,,METAR,1116
FNCT 220400Z AUTO 29009KT 9999 BKN004 BKN009 OVC026 26/25 Q1010,FNCT,2024-03-22T04:00:00Z,-12.479,13.487,26,25,290,9,,6+,29.82,,,TRUE,,,,,,,,BKN,400,BKN,900,OVC,2600,,,LIFR,,,,,,,,,,,,METAR,6
FNCA 220400Z AUTO VRB02KT 9999 NCD 26/25 Q1007,FNCA,2024-03-22T04:00:00Z,-5.59,12.188,26,25,VRB,2,,6+,29.73,,,TRUE,,,,,,,,CLR,,,,,,,,VFR,,,,,,,,,,,,METAR,14
FMSD 220400Z 12012KT 9999 -SHRA SCT016CB BKN033 25/24 Q1014,FMSD,2024-03-22T04:00:00Z,-25.038,46.956,25,24,120,12,,6+,29.94,,,,,,,,,,-SHRA,SCT,1600,BKN,3300,,,,,VFR,,,,,,,,,,,,METAR,7
FMNN 220400Z 18002KT 9999 SCT020 SCT100 26/// Q1009,FMNN,2024-03-22T04:00:00Z,-13.317,48.31,,,180,2,,6+,29.79,,,,,,,,,,,SCT,2000,SCT,10000,,,,,VFR,,,,,,,,,,,,METAR,10
FMNM 220400Z 17005KT 9999 FEW010 FEW020CB 25/25 Q1010 NOSIG,FMNM,2024-03-22T04:00:00Z,-15.667,46.352,25,25,170,5,,6+,29.82,,,,,,TRUE,,,,,FEW,1000,FEW,2000,,,,,VFR,,,,,,,,,,,,METAR,18
FMNA 220400Z 14010KT 9999 FEW020 BKN230 26/22 Q1009,FMNA,2024-03-22T04:00:00Z,-12.35,49.293,26,22,140,10,,6+,29.79,,,,,,,,,,,FEW,2000,BKN,23000,,,,,VFR,,,,,,,,,,,,METAR,108
FMMT 220400Z 27004KT 220V290 9999 FEW017TCU 25/24 Q1011 NOSIG,FMMT,2024-03-22T04:00:00Z,-18.11,49.392,25,24,270,4,,6+,29.85,,,,,,TRUE,,,,,FEW,1700,,,,,,,VFR,,,,,,,,,,,,METAR,13
FMEP 220400Z AUTO 13011KT 9999 BKN094 OVC110 28/23 Q1012 BECMG 12018G28KT,FMEP,2024-03-22T04:00:00Z,-21.32,55.425,28,23,130,11,,6+,29.88,,,TRUE,,,,,,,,BKN,9400,OVC,11000,,,,,VFR,,,,,,,,,,,,METAR,21
FMEE 220400Z AUTO 12010KT 9999 FEW039 27/22 Q1012 NOSIG,FMEE,2024-03-22T04:00:00Z,-20.887,55.51,27,22,120,10,,6+,29.88,,,TRUE,,,TRUE,,,,,FEW,3900,,,,,,,VFR,,,,,,,,,,,,METAR,20
FMCZ 220400Z AUTO 25005KT 9999 FEW021 28/26 Q1009 NOSIG,FMCZ,2024-03-22T04:00:00Z,-12.805,45.281,28,26,250,5,,6+,29.79,,,TRUE,,,TRUE,,,,,FEW,2100,,,,,,,VFR,,,,,,,,,,,,METAR,7
FKYS 220400Z 25004KT 220V280 6000 FEW003 BKN006 23/22 Q1013 NOSIG,FKYS,2024-03-22T04:00:00Z,3.833,11.521,23,22,250,4,,3.73,29.91,,,,,,TRUE,,,,,FEW,300,BKN,600,,,,,IFR,,,,,,,,,,,,METAR,694
FKKR 220400Z 00000KT 5000 HZ NSC 27/05 Q1006 NOSIG,FKKR,2024-03-22T04:00:00Z,9.336,13.37,27,5,0,0,,3.11,29.70,,,,,,TRUE,,,,HZ,CLR,,,,,,,,MVFR,,,,,,,,,,,,METAR,223
FKKD 220400Z 00000KT 7000 BKN013 FEW016CB 26/26 Q1007 NOSIG,FKKD,2024-03-22T04:00:00Z,4.006,9.72,26,26,0,0,,4.35,29.73,,,,,,TRUE,,,,,BKN,1300,FEW,1600,,,,,MVFR,,,,,,,,,,,,METAR,10
FIMP 220400Z 08005KT 9999 SCT015 SCT250 27/24 Q1013,FIMP,2024-03-22T04:00:00Z,-20.434,57.684,27,24,80,5,,6+,29.91,,,,,,,,,,,SCT,1500,SCT,25000,,,,,VFR,,,,,,,,,,,,METAR,57
FGBT 220400Z 00000KT 9999 FEW010 27/27 Q1007,FGBT,2024-03-22T04:00:00Z,1.905,9.806,27,27,0,0,,6+,29.73,,,,,,,,,,,FEW,1000,,,,,,,VFR,,,,,,,,,,,,METAR,2
FEFF 220400Z 00000KT CAVOK 24/23 Q1007 NOSIG,FEFF,2024-03-22T04:00:00Z,4.399,18.519,24,23,0,0,,6+,29.73,,,,,,TRUE,,,,,CAVOK,,,,,,,,VFR,,,,,,,,,,,,METAR,364
FCOD 220400Z 28004KT 7000 TS FEW030CB 25/25 Q1009,FCOD,2024-03-22T04:00:00Z,-1.226,15.91,25,25,280,4,,4.35,29.79,,,,,,,,,,TS,FEW,3000,,,,,,,MVFR,,,,,,,,,,,,METAR,327
FCBB 220400Z 00000KT 9000 FEW016 25/23 Q1010 NOSIG,FCBB,2024-03-22T04:00:00Z,-4.252,15.253,25,23,0,0,,5.59,29.82,,,,,,TRUE,,,,,FEW,1600,,,,,,,VFR,,,,,,,,,,,,METAR,316
FAWB 220400Z AUTO 34002KT //// // ////// 17/16 Q1023,FAWB,2024-03-22T04:00:00Z,-25.654,28.224,17,16,340,2,,,30.21,,,TRUE,,,,,,,,,,,,,,,,VFR,,,,,,,,,,,,METAR,1245
FAUT 220400Z AUTO 00000KT //// // ////// 16/15 Q1016,FAUT,2024-03-22T04:00:00Z,-31.546,28.673,16,15,0,0,,,30.00,,,TRUE,,,,,,,,,,,,,,,,VFR,,,,,,,,,,,,METAR,735
FAUP 220400Z 01006KT CAVOK 23/11 Q1017 NOSIG,FAUP,2024-03-22T04:00:00Z,-28.399,21.26,23,11,10,6,,6+,30.03,,,,,,TRUE,,,,,CAVOK,,,,,,,,VFR,,,,,,,,,,,,METAR,845
FAPP 220400Z AUTO 32002KT //// // ////// 16/16 Q1026,FAPP,2024-03-22T04:00:00Z,-23.845,29.459,16,16,320,2,,,30.30,,,TRUE,,,,,,,,,,,,,,,,VFR,,,,,,,,,,,,METAR,1238
FAPE 220400Z 03003KT 0900 R26/1000N FG VV001 19/19 Q1010 TEMPO 1500 BR,FAPE,2024-03-22T04:00:00Z,-33.985,25.617,19,19,30,3,,0.56,29.82,,,,,,,,,,FG,OVX,0,,,,,,,LIFR,,,,,,,,,,,100,METAR,58
FAOR 220400Z 29005KT 9999 FEW015 16/13 Q1025 NOSIG,FAOR,2024-03-22T04:00:00Z,-26.139,28.246,16,13,290,5,,6+,30.27,,,,,,TRUE,,,,,FEW,1500,,,,,,,VFR,,,,,,,,,,,,METAR,1684
FAMM 220400Z 04013KT 9999 TS BKN020 FEW040CB 18/14 Q1024 RETS TEMPO 5000 TSRA,FAMM,2024-03-22T04:00:00Z,-25.798,25.548,18,14,40,13,,6+,30.24,,,,,,,,,,TS,BKN,2000,FEW,4000,,,,,MVFR,,,,,,,,,,,,METAR,1280
FALW 220400Z AUTO 21003KT //// // ////// 15/14 Q1011,FALW,2024-03-22T04:00:00Z,-32.972,18.158,15,14,210,3,,,29.85,,,TRUE,,,,,,,,,,,,,,,,VFR,,,,,,,,,,,,METAR,31
FALE 220400Z 01005KT CAVOK 20/18 Q1018 NOSIG,FALE,2024-03-22T04:00:00Z,-29.602,31.13,20,18,10,5,,6+,30.06,,,,,,TRUE,,,,,CAVOK,,,,,,,,VFR,,,,,,,,,,,,METAR,109
FALA 220400Z 29003KT 9999 FEW020 16/14 Q1025 NOSIG,FALA,2024-03-22T04:00:00Z,-25.939,27.926,16,14,290,3,,6+,30.27,,,,,,TRUE,,,,,FEW,2000,,,,,,,VFR,,,,,,,,,,,,METAR,1365
FAKN 220400Z 00000KT 3000 BCFG SCT001 BKN010 17/17 Q1024 NOSIG,FAKN,2024-03-22T04:00:00Z,-25.383,31.106,17,17,0,0,,1.86,30.24,,,,,,TRUE,,,,BCFG,SCT,100,BKN,1000,,,,,IFR,,,,,,,,,,,,METAR,864
FAKM 220400Z 03006KT CAVOK 19/15 Q1021,FAKM,2024-03-22T04:00:00Z,-28.803,24.765,19,15,30,6,,6+,30.15,,,,,,,,,,,CAVOK,,,,,,,,VFR,,,,,,,,,,,,METAR,1203
FAHS 220400Z AUTO 15003KT //// // ////// 19/19 Q1021,FAHS,2024-03-22T04:00:00Z,-24.381,31.044,19,19,150,3,,,30.15,,,TRUE,,,,,,,,,,,,,,,,VFR,,,,,,,,,,,,METAR,532
FAGG 220400Z 30003KT CAVOK 17/15 Q1010,FAGG,2024-03-22T04:00:00Z,-34.006,22.379,17,15,300,3,,6+,29.82,,,,,,,,,,,CAVOK,,,,,,,,VFR,,,,,,,,,,,,METAR,196
FAEL 220400Z 03008KT CAVOK 20/19 Q1013,FAEL,2024-03-22T04:00:00Z,-33.036,27.826,20,19,30,8,,6+,29.91,,,,,,,,,,,CAVOK,,,,,,,,VFR,,,,,,,,,,,,METAR,127
FABL 220400Z 00000KT CAVOK 13/11 Q1024 NOSIG,FABL,2024-03-22T04:00:00Z,-29.093,26.302,13,11,0,0,,6+,30.24,,,,,,TRUE,,,,,CAVOK,,,,,,,,VFR,,,,,,,,,,,,METAR,1348
EPZG 220400Z 27008KT 240V300 9999 FEW014 OVC019 07/07 Q1019,EPZG,2024-03-22T04:00:00Z,52.137,15.779,7,7,270,8,,6+,30.09,,,,,,,,,,,FEW,1400,OVC,1900,,,,,MVFR,,,,,,,,,,,,METAR,59
EPWR 220400Z 27010KT 9999 BKN008 BKN010 08/07 Q1019,EPWR,2024-03-22T04:00:00Z,51.1032,16.8998,8,7,270,10,,6+,30.09,,,,,,,,,,,BKN,800,BKN,1000,,,,,IFR,,,,,,,,,,,,METAR,118
EPWA 220400Z 33009KT 2800 -RA BR BKN002 08/08 Q1016 TEMPO 1500,EPWA,2024-03-22T04:00:00Z,52.163,20.961,8,8,330,9,,1.74,30.00,,,,,,,,,,-RA BR,BKN,200,,,,,,,LIFR,,,,,,,,,,,,METAR,107
EPSY 220400Z 31003KT 4400 BR BKN003 OVC022 05/04 Q1016,EPSY,2024-03-22T04:00:00Z,53.482,20.938,5,4,310,3,,2.73,30.00,,,,,,,,,,BR,BKN,300,OVC,2200,,,,,LIFR,,,,,,,,,,,,METAR,136
EPSC 220400Z 17006KT 8000 FEW011 06/05 Q1017,EPSC,2024-03-22T04:00:00Z,53.585,14.902,6,5,170,6,,4.97,30.03,,,,,,,,,,,FEW,1100,,,,,,,MVFR,,,,,,,,,,,,METAR,47
EPRZ 220400Z 17004KT 9999 -SHRA FEW026CB BKN036 06/04 Q1017,EPRZ,2024-03-22T04:00:00Z,50.112,22.025,6,4,170,4,,6+,30.03,,,,,,,,,,-SHRA,FEW,2600,BKN,3600,,,,,VFR,,,,,,,,,,,,METAR,206
EPRA 220400Z 28008KT 7000 BKN012 07/06 Q1016,EPRA,2024-03-22T04:00:00Z,51.39,21.211,7,6,280,8,,4.35,30.00,,,,,,,,,,,BKN,1200,,,,,,,MVFR,,,,,,,,,,,,METAR,182
EPPO 220400Z 31009KT 9999 OVC015 07/05 Q1018,EPPO,2024-03-22T04:00:00Z,52.417,16.835,7,5,310,9,,6+,30.06,,,,,,,,,,,OVC,1500,,,,,,,MVFR,,,,,,,,,,,,METAR,87
EPMO 220400Z 32003KT 2500 BR BKN006 OVC022 06/06 Q1017,EPMO,2024-03-22T04:00:00Z,52.452,20.642,6,6,320,3,,1.55,30.03,,,,,,,,,,BR,BKN,600,OVC,2200,,,,,IFR,,,,,,,,,,,,METAR,102
EPLL 220400Z 27009KT 7000 -RA BKN010 08/07 Q1017,EPLL,2024-03-22T04:00:00Z,51.724,19.401,8,7,270,9,,4.35,30.03,,,,,,,,,,-RA,BKN,1000,,,,,,,MVFR,,,,,,,,,,,,METAR,176
EPLB 220400Z 23003KT 190V250 9999 BKN012 OVC017 05/04 Q1016,EPLB,2024-03-22T04:00:00Z,51.239,22.714,5,4,230,3,,6+,30.00,,,,,,,,,,,BKN,1200,OVC,1700,,,,,MVFR,,,,,,,,,,,,METAR,206
EPKT 220400Z 27007KT 9999 FEW010 BKN023 08/07 Q1018,EPKT,2024-03-22T04:00:00Z,50.478,19.085,8,7,270,7,,6+,30.06,,,,,,,,,,,FEW,1000,BKN,2300,,,,,MVFR,,,,,,,,,,,,METAR,296
EPKK 220400Z 24005KT 200V270 9999 FEW039 08/06 Q1018,EPKK,2024-03-22T04:00:00Z,50.078,19.797,8,6,240,5,,6+,30.06,,,,,,,,,,,FEW,3900,,,,,,,VFR,,,,,,,,,,,,METAR,237
EPGD 220400Z 24005KT 7000 OVC005 04/03 Q1016,EPGD,2024-03-22T04:00:00Z,54.379,18.466,4,3,240,5,,4.35,30.00,,,,,,,,,,,OVC,500,,,,,,,IFR,,,,,,,,,,,,METAR,136
EPBY 220400Z 28006KT 4500 BR OVC005 06/05 Q1017,EPBY,2024-03-22T04:00:00Z,53.0962,17.9949,6,5,280,6,,2.8,30.03,,,,,,,,,,BR,OVC,500,,,,,,,IFR,,,,,,,,,,,,METAR,66
EINN 220400Z 26007KT 9999 FEW030 07/04 Q1021 NOSIG,EINN,2024-03-22T04:00:00Z,52.702,-8.925,7,4,260,7,,6+,30.15,,,,,,TRUE,,,,,FEW,3000,,,,,,,VFR,,,,,,,,,,,,METAR,20
EIME 220400Z 25015KT 9999 FEW015 BKN220 07/04 Q1018,EIME,2024-03-22T04:00:00Z,53.306,-6.442,7,4,250,15,,6+,30.06,,,,,,,,,,,FEW,1500,BKN,22000,,,,,VFR,,,,,,,,,,,,METAR,90
EIDW 220400Z 26013KT 9999 FEW015 SCT240 07/04 Q1018 NOSIG,EIDW,2024-03-22T04:00:00Z,53.422,-6.298,7,4,260,13,,6+,30.06,,,,,,TRUE,,,,,FEW,1500,SCT,24000,,,,,VFR,,,,,,,,,,,,METAR,75
EICK 220400Z 30009KT 9999 FEW033 BKN200 07/04 Q1021 NOSIG,EICK,2024-03-22T04:00:00Z,51.848,-8.479,7,4,300,9,,6+,30.15,,,,,,TRUE,,,,,FEW,3300,BKN,20000,,,,,VFR,,,,,,,,,,,,METAR,158
DXXX 220400Z 26005KT 9999 TS FEW012 FEW020CB 27/23 Q1008 BECMG NSW,DXXX,2024-03-22T04:00:00Z,6.166,1.254,27,23,260,5,,6+,29.76,,,,,,,,,,TS,FEW,1200,FEW,2000,,,,,VFR,,,,,,,,,,,,METAR,22
DTTZ 220400Z 10007KT CAVOK 16/12 Q1017,DTTZ,2024-03-22T04:00:00Z,33.94,8.111,16,12,100,7,,6+,30.03,,,,,,,,,,,CAVOK,,,,,,,,VFR,,,,,,,,,,,,METAR,87
DTTX 220400Z 29003KT CAVOK 13/12 Q1018,DTTX,2024-03-22T04:00:00Z,34.718,10.691,13,12,290,3,,6+,30.06,,,,,,,,,,,CAVOK,,,,,,,,VFR,,,,,,,,,,,,METAR,17
DTTR 220400Z AUTO 08006KT NCD 16/05 Q1018,DTTR,2024-03-22T04:00:00Z,31.703,9.257,16,5,80,6,,,30.06,,,TRUE,,,,,,,,CLR,,,,,,,,VFR,,,,,,,,,,,,METAR,253
DTTN 220400Z AUTO 21003KT NCD 06/05 Q1018,DTTN,2024-03-22T04:00:00Z,36.483,8.8,6,5,210,3,,,30.06,,,TRUE,,,,,,,,CLR,,,,,,,,VFR,,,,,,,,,,,,METAR,145
DTTL 220400Z 22003KT 190V270 8000 FEW020 14/13 Q1018,DTTL,2024-03-22T04:00:00Z,36.85,11.083,14,13,220,3,,4.97,30.06,,,,,,,,,,,FEW,2000,,,,,,,MVFR,,,,,,,,,,,,METAR,18
DTTK 220400Z VRB02KT 8000 FEW023 12/11 Q1018,DTTK,2024-03-22T04:00:00Z,35.667,10.1,12,11,VRB,2,,4.97,30.06,,,,,,,,,,,FEW,2300,,,,,,,MVFR,,,,,,,,,,,,METAR,65
DTTJ 220400Z 10005KT 8000 FEW023 15/13 Q1017 NOSIG,DTTJ,2024-03-22T04:00:00Z,33.875,10.775,15,13,100,5,,4.97,30.03,,,,,,TRUE,,,,,FEW,2300,,,,,,,MVFR,,,,,,,,,,,,METAR,3
DTTF 220400Z 05006KT 8000 NSC 13/09 Q1018,DTTF,2024-03-22T04:00:00Z,34.422,8.822,13,9,50,6,,4.97,30.06,,,,,,,,,,,CLR,,,,,,,,MVFR,,,,,,,,,,,,METAR,314
DTTD 220400Z AUTO 29003KT 250V320 NCD 14/10 Q1018,DTTD,2024-03-22T04:00:00Z,32.312,10.386,14,10,290,3,,,30.06,,,TRUE,,,,,,,,CLR,,,,,,,,VFR,,,,,,,,,,,,METAR,306
DTTB 220400Z 00000KT 6000 NSC 10/10 Q1018,DTTB,2024-03-22T04:00:00Z,37.245,9.791,10,10,0,0,,3.73,30.06,,,,,,,,,,,CLR,,,,,,,,MVFR,,,,,,,,,,,,METAR,4
DTTA 220400Z 20001KT 9999 FEW026 13/12 Q1018,DTTA,2024-03-22T04:00:00Z,36.851,10.227,13,12,200,1,,6+,30.06,,,,,,,,,,,FEW,2600,,,,,,,VFR,,,,,,,,,,,,METAR,4
DTNH 220400Z 31003KT 9999 FEW026 09/09 Q1018 NOSIG,DTNH,2024-03-22T04:00:00Z,36.074,10.436,9,9,310,3,,6+,30.06,,,,,,TRUE,,,,,FEW,2600,,,,,,,VFR,,,,,,,,,,,,METAR,1
DTMB 220400Z 17004KT 8000 NSC 13/12 Q1018,DTMB,2024-03-22T04:00:00Z,35.758,10.755,13,12,170,4,,4.97,30.06,,,,,,,,,,,CLR,,,,,,,,MVFR,,,,,,,,,,,,METAR,1
DTKA 220400Z 02001KT 9999 FEW020 10/09 Q1019 NOSIG,DTKA,2024-03-22T04:00:00Z,36.98,8.877,10,9,20,1,,6+,30.09,,,,,,TRUE,,,,,FEW,2000,,,,,,,VFR,,,,,,,,,,,,METAR,70
DRRN 220400Z 35005KT 3800 DU NSC 29/M04 Q1008 BECMG 5000,DRRN,2024-03-22T04:00:00Z,13.483,2.17,29,-4,350,5,,2.36,29.76,,,,,,,,,,DU,CLR,,,,,,,,IFR,,,,,,,,,,,,METAR,223
DNMN 220400Z 00000KT 8000 NSC 29/14 Q1006,DNMN,2024-03-22T04:00:00Z,9.652,6.462,29,14,0,0,,4.97,29.70,,,,,,,,,,,CLR,,,,,,,,MVFR,,,,,,,,,,,,METAR,268
DNKN 220400Z 00000KT CAVOK 25/06 Q1012 NOSIG,DNKN,2024-03-22T04:00:00Z,12.048,8.525,25,6,0,0,,6+,29.88,,,,,,TRUE,,,,,CAVOK,,,,,,,,VFR,,,,,,,,,,,,METAR,471
DNEN 220400Z 14003KT 6000 NSC 29/25 Q1008 NOSIG,DNEN,2024-03-22T04:00:00Z,6.474,7.562,29,25,140,3,,3.73,29.76,,,,,,TRUE,,,,,CLR,,,,,,,,MVFR,,,,,,,,,,,,METAR,142
DNAK 220400Z 00000KT 9999 BKN011 27/26 Q1009,DNAK,2024-03-22T04:00:00Z,7.247,5.301,27,26,0,0,,6+,29.79,,,,,,,,,,,BKN,1100,,,,,,,MVFR,,,,,,,,,,,,METAR,328
DNAA 220400Z 08003KT 3000 HZ NSC 27/18 Q1009 TEMPO 1500 HZ,DNAA,2024-03-22T04:00:00Z,9.007,7.263,27,18,80,3,,1.86,29.79,,,,,,,,,,HZ,CLR,,,,,,,,IFR,,,,,,,,,,,,METAR,338
DGAA 220400Z 25007KT CAVOK 28/25 Q1008 NOSIG,DGAA,2024-03-22T04:00:00Z,5.6,-0.17,28,25,250,7,,6+,29.76,,,,,,TRUE,,,,,CAVOK,,,,,,,,VFR,,,,,,,,,,,,METAR,68
DFOO 220400Z 20003KT 4000 DU NSC 30/18 Q1009,DFOO,2024-03-22T04:00:00Z,11.163,-4.322,30,18,200,3,,2.49,29.79,,,,,,,,,,DU,CLR,,,,,,,,IFR,,,,,,,,,,,,METAR,461
DFFD 220400Z 07003KT 4000 DU NSC 30/04 Q1008 NOSIG,DFFD,2024-03-22T04:00:00Z,12.356,-1.512,30,4,70,3,,2.49,29.76,,,,,,TRUE,,,,DU,CLR,,,,,,,,IFR,,,,,,,,,,,,METAR,309
DBBB 220400Z 23005KT 9999 FEW008 26/24 Q1006 NOSIG,DBBB,2024-03-22T04:00:00Z,6.357,2.384,26,24,230,5,,6+,29.70,,,,,,TRUE,,,,,FEW,800,,,,,,,VFR,,,,,,,,,,,,METAR,4
DAUZ 220400Z 09007KT CAVOK 15/M00 Q1018,DAUZ,2024-03-22T04:00:00Z,28.052,9.643,15,0,90,7,,6+,30.06,,,,,,,,,,,CAVOK,,,,,,,,VFR,,,,,,,,,,,,METAR,567
DAUU 220400Z 36005KT CAVOK 17/06 Q1017,DAUU,2024-03-22T04:00:00Z,31.917,5.413,17,6,360,5,,6+,30.03,,,,,,,,,,,CAVOK,,,,,,,,VFR,,,,,,,,,,,,METAR,147
DAUT 220400Z 10014KT 8000 NSC 20/M10 Q1011,DAUT,2024-03-22T04:00:00Z,29.237,0.276,20,-10,100,14,,4.97,29.85,,,,,,,,,,,CLR,,,,,,,,MVFR,,,,,,,,,,,,METAR,307
DAUO 220400Z 10003KT CAVOK 15/11 Q1018,DAUO,2024-03-22T04:00:00Z,33.513,6.782,15,11,100,3,,6+,30.06,,,,,,,,,,,CAVOK,,,,,,,,VFR,,,,,,,,,,,,METAR,55
DAUL 220400Z 07008KT 8000 FEW033 BKN080 14/04 Q1020,DAUL,2024-03-22T04:00:00Z,33.764,2.928,14,4,70,8,,4.97,30.12,,,,,,,,,,,FEW,3300,BKN,8000,,,,,MVFR,,,,,,,,,,,,METAR,755
DAUK 220400Z 35003KT CAVOK 15/07 Q1017,DAUK,2024-03-22T04:00:00Z,33.068,6.089,15,7,350,3,,6+,30.03,,,,,,,,,,,CAVOK,,,,,,,,VFR,,,,,,,,,,,,METAR,83
DAUI 220400Z 08010KT CAVOK 23/M11 Q1011,DAUI,2024-03-22T04:00:00Z,27.251,2.512,23,-11,80,10,,6+,29.85,,,,,,,,,,,CAVOK,,,,,,,,VFR,,,,,,,,,,,,METAR,271
DAUH 220400Z 05005KT CAVOK 18/03 Q1016,DAUH,2024-03-22T04:00:00Z,31.673,6.14,18,3,50,5,,6+,30.00,,,,,,,,,,,CAVOK,,,,,,,,VFR,,,,,,,,,,,,METAR,141
DAUG 220400Z 03006KT CAVOK 17/06 Q1019,DAUG,2024-03-22T04:00:00Z,32.384,3.794,17,6,30,6,,6+,30.09,,,,,,,,,,,CAVOK,,,,,,,,VFR,,,,,,,,,,,,METAR,444
DAUE 220400Z 08007KT 040V120 CAVOK 21/00 Q1016,DAUE,2024-03-22T04:00:00Z,30.571,2.86,21,0,80,7,,6+,30.00,,,,,,,,,,,CAVOK,,,,,,,,VFR,,,,,,,,,,,,METAR,396
DAUB 220400Z 34003KT CAVOK 18/05 Q1018,DAUB,2024-03-22T04:00:00Z,34.793,5.738,18,5,340,3,,6+,30.06,,,,,,,,,,,CAVOK,,,,,,,,VFR,,,,,,,,,,,,METAR,75
DAUA 220400Z 11010KT 8000 NSC 19/M13 Q1010,DAUA,2024-03-22T04:00:00Z,27.839,-0.186,19,-13,110,10,,4.97,29.82,,,,,,,,,,,CLR,,,,,,,,MVFR,,,,,,,,,,,,METAR,278
DAOY 220400Z 11019KT 4000 DRSA NSC 15/01 Q1020,DAOY,2024-03-22T04:00:00Z,33.721,1.091,15,1,110,19,,2.49,30.12,,,,,,,,,,DRSA,CLR,,,,,,,,IFR,,,,,,,,,,,,METAR,1340
DAOV 220400Z 13012KT 7000 NSC 22/03 Q1016,DAOV,2024-03-22T04:00:00Z,35.208,0.147,22,3,130,12,,4.35,30.00,,,,,,,,,,,CLR,,,,,,,,MVFR,,,,,,,,,,,,METAR,506
DAOR 220400Z 11024KT 2000 BLDU NSC 22/M09 Q1013,DAOR,2024-03-22T04:00:00Z,31.65,-2.261,22,-9,110,24,,1.24,29.91,,,,,,,,,,BLDU,CLR,,,,,,,,IFR,,,,,,,,,,,,METAR,809
DAOO 220400Z VRB02KT 9999 SCT023 SCT233 19/08 Q1014,DAOO,2024-03-22T04:00:00Z,35.623,-0.624,19,8,VRB,2,,6+,29.94,,,,,,,,,,,SCT,2300,SCT,23300,,,,,VFR,,,,,,,,,,,,METAR,87
DAON 220400Z 08004KT 8000 FEW030 SCT233 25/01 Q1013,DAON,2024-03-22T04:00:00Z,35.013,-1.457,25,1,80,4,,4.97,29.91,,,,,,,,,,,FEW,3000,SCT,23300,,,,,MVFR,,,,,,,,,,,,METAR,245
DAOL 220400Z 08010KT 8000 FEW026 SCT200 26/02 Q1014,DAOL,2024-03-22T04:00:00Z,35.542,-0.532,26,2,80,10,,4.97,29.94,,,,,,,,,,,FEW,2600,SCT,20000,,,,,MVFR,,,,,,,,,,,,METAR,103
DAOI 220400Z 06012KT 8000 SCT026 SCT233 20/05 Q1017,DAOI,2024-03-22T04:00:00Z,36.213,1.332,20,5,60,12,,4.97,30.03,,,,,,,,,,,SCT,2600,SCT,23300,,,,,MVFR,,,,,,,,,,,,METAR,141
DAOF 220400Z 29015KT CAVOK 12/07 Q1009,DAOF,2024-03-22T04:00:00Z,27.7,-8.167,12,7,290,15,,6+,29.79,,,,,,,,,,,CAVOK,,,,,,,,VFR,,,,,,,,,,,,METAR,441
DAOB 220400Z 08005KT 9000 NSC 12/04 Q1021,DAOB,2024-03-22T04:00:00Z,35.345,1.476,12,4,80,5,,5.59,30.15,,,,,,,,,,,CLR,,,,,,,,VFR,,,,,,,,,,,,METAR,976
DABT 220400Z 13004KT CAVOK 08/05 Q1021,DABT,2024-03-22T04:00:00Z,35.752,6.309,8,5,130,4,,6+,30.15,,,,,,,,,,,CAVOK,,,,,,,,VFR,,,,,,,,,,,,METAR,813
DABS 220400Z 30002KT 8000 NSC 09/03 Q1020,DABS,2024-03-22T04:00:00Z,35.432,8.121,9,3,300,2,,4.97,30.12,,,,,,,,,,,CLR,,,,,,,,MVFR,,,,,,,,,,,,METAR,806
DABC 220400Z VRB02KT CAVOK 10/08 Q1021,DABC,2024-03-22T04:00:00Z,36.278,6.629,10,8,VRB,2,,6+,30.15,,,,,,,,,,,CAVOK,,,,,,,,VFR,,,,,,,,,,,,METAR,686
DABB 220400Z 07003KT 4000 BR FEW010 12/12 Q1018,DABB,2024-03-22T04:00:00Z,36.822,7.809,12,12,70,3,,2.49,30.06,,,,,,,,,,BR,FEW,1000,,,,,,,IFR,,,,,,,,,,,,METAR,3
DAAY 220400Z 18004KT 6000 FEW033 SCT100 15/01 Q1022,DAAY,2024-03-22T04:00:00Z,33.532,-0.248,15,1,180,4,,3.73,30.18,,,,,,,,,,,FEW,3300,SCT,10000,,,,,MVFR,,,,,,,,,,,,METAR,1116
DAAV 220400Z 36002KT 8000 NSC 13/12 Q1018,DAAV,2024-03-22T04:00:00Z,36.795,5.877,13,12,360,2,,4.97,30.06,,,,,,,,,,,CLR,,,,,,,,MVFR,,,,,,,,,,,,METAR,11
DAAT 220400Z 10007KT CAVOK 14/M14 Q1020,DAAT,2024-03-22T04:00:00Z,22.824,5.452,14,-14,100,7,,6+,30.12,,,,,,,,,,,CAVOK,,,,,,,,VFR,,,,,,,,,,,,METAR,1372
DAAS 220400Z 01004KT CAVOK 10/07 Q1022,DAAS,2024-03-22T04:00:00Z,36.18,5.33,10,7,10,4,,6+,30.18,,,,,,,,,,,CAVOK,,,,,,,,VFR,,,,,,,,,,,,METAR,1012
DAAP 220400Z 10005KT CAVOK 16/M04 Q1016,DAAP,2024-03-22T04:00:00Z,26.724,8.622,16,-4,100,5,,6+,30.00,,,,,,,,,,,CAVOK,,,,,,,,VFR,,,,,,,,,,,,METAR,542
DAAJ 220400Z 09012KT CAVOK 16/M08 Q1019,DAAJ,2024-03-22T04:00:00Z,24.286,9.464,16,-8,90,12,,6+,30.09,,,,,,,,,,,CAVOK,,,,,,,,VFR,,,,,,,,,,,,METAR,962
DAAG 220400Z 08003KT 7000 FEW020 SCT100 12/11 Q1017,DAAG,2024-03-22T04:00:00Z,36.691,3.215,12,11,80,3,,4.35,30.03,,,,,,,,,,,FEW,2000,SCT,10000,,,,,MVFR,,,,,,,,,,,,METAR,18
DAAE 220400Z 25010KT CAVOK 17/11 Q1018,DAAE,2024-03-22T04:00:00Z,36.712,5.07,17,11,250,10,,6+,30.06,,,,,,,,,,,CAVOK,,,,,,,,VFR,,,,,,,,,,,,METAR,1
CZZJ 220400Z AUTO 04003KT M06/M07 RMK AO1 1PAST HR SOG 07 1017 SLP291 P0000 T10571074 50001,CZZJ,2024-03-22T04:00:00Z,53.583,-116.462,-5.7,-7.4,40,3,,,0.00,1029.1,,TRUE,TRUE,,,,,,,,,,,,,,,VFR,0.01,,,,,0.005,,,,,,METAR,927
CZTB 220400Z AUTO 27003KT M11/M14 RMK AO1 SLP263 T11101144 51007,CZTB,2024-03-22T04:00:00Z,48.369,-89.327,-11,-14.4,270,3,,,0.00,1026.3,,TRUE,TRUE,,,,,,,,,,,,,,,VFR,0.07,,,,,,,,,,,METAR,197
CZSP 220400Z AUTO 23017G23KT M03/M07 RMK AO1 2PAST HR 3010 PK WND 23030/0310 SLP010 P0001 T10291067 50002,CZSP,2024-03-22T04:00:00Z,46.45,-62.576,-2.9,-6.7,230,17,23,,0.00,1001,,TRUE,TRUE,,,,,,,,,,,,,,,VFR,0.02,,,,,0.01,,,,,,METAR,31
CZSM 220400Z AUTO 00000KT M20/M26 RMK AO1 SOG 40 2008 SLP394 T12001256,CZSM,2024-03-22T04:00:00Z,60.026,-111.929,-20,-25.6,0,0,,,0.00,1039.4,,TRUE,TRUE,,,,,,,,,,,,,,,VFR,,,,,,,,,,,,METAR,203
CZSJ 220400Z AUTO 32005KT 9SM CLR M19/M27 A3019 RMK SLP259,CZSJ,2024-03-22T04:00:00Z,53.063,-93.344,-19,-27,320,5,,9,30.19,1025.9,,TRUE,,,,,,,,CLR,,,,,,,,VFR,,,,,,,,,,,,METAR,286
CZRP 220400Z AUTO 28020KT M26/M29 RMK AO1 SOG 67 8004 PK WND 31023/0323 SLP310 T12641290,CZRP,2024-03-22T04:00:00Z,75.377,-105.715,-26.4,-29,280,20,,,0.00,1031,,TRUE,TRUE,,,,,,,,,,,,,,,VFR,,,,,,,,,,,,METAR,6
CZOL 220400Z AUTO 36005KT M08/M10 RMK AO1 5PAST HR M P0002 T10811104 50005,CZOL,2024-03-22T04:00:00Z,53.642,-113.364,-8.1,-10.4,360,5,,,0.00,,,TRUE,TRUE,,,,,,,,,,,,,,,VFR,0.05,,,,,0.02,,,,,,METAR,645
CZMU 220400Z AUTO 12008KT M08/M10 RMK AO1 T10771098 50004,CZMU,2024-03-22T04:00:00Z,53.563,-112.296,-7.7,-9.8,120,8,,,0.00,,,TRUE,TRUE,,,,,,,,,,,,,,,VFR,0.04,,,,,,,,,,,METAR,682
CZMJ 220400Z AUTO 04009KT M07/M13 RMK AO1 SLP303 T10721133 51023,CZMJ,2024-03-22T04:00:00Z,50.332,-105.538,-7.2,-13.3,40,9,,,0.00,1030.3,,TRUE,TRUE,,,,,,,,,,,,,,,VFR,0.23,,,,,,,,,,,METAR,571
CZMD 220400Z AUTO 00000KT 9SM BKN055 BKN069 BKN089 M21/M25 A3018 RMK SLP255,CZMD,2024-03-22T04:00:00Z,53.439,-91.766,-21,-25,0,0,,9,30.18,1025.5,,TRUE,,,,,,,,BKN,5500,BKN,6900,BKN,8900,,,VFR,,,,,,,,,,,,METAR,276
CZKD 220400Z AUTO 32007KT M21/M26 RMK AO1 SOG 37 1015 SLP279 T12121264,CZKD,2024-03-22T04:00:00Z,56.037,-96.51,-21.2,-26.4,320,7,,,0.00,1027.9,,TRUE,TRUE,,,,,,,,,,,,,,,VFR,,,,,,,,,,,,METAR,190
CZHY 220400Z AUTO 00000KT M26/M29 RMK AO1 SOG 12 3001 SLP401 T12591290,CZHY,2024-03-22T04:00:00Z,60.839,-115.781,-25.9,-29,0,0,,,0.00,1040.1,,TRUE,TRUE,,,,,,,,,,,,,,,VFR,,,,,,,,,,,,METAR,159
CZFS 220400Z AUTO 10004KT M14/M25 RMK AO1 SOG 26 5000 SLP373 T11361253,CZFS,2024-03-22T04:00:00Z,61.76,-121.23,-13.6,-25.3,100,4,,,0.00,1037.3,,TRUE,TRUE,,,,,,,,,,,,,,,VFR,,,,,,,,,,,,METAR,174
CZEV 220400Z AUTO 16007KT M11/M16 RMK AO1 SOG 83 8014 SLP222 T11051163,CZEV,2024-03-22T04:00:00Z,68.313,-133.496,-10.5,-16.3,160,7,,,0.00,1022.2,,TRUE,TRUE,,,,,,,,,,,,,,,VFR,,,,,,,,,,,,METAR,92
CZEL 220400Z AUTO 00000KT M10/M11 RMK AO1 SLP289 T10961113 51010,CZEL,2024-03-22T04:00:00Z,43.642,-80.412,-9.6,-11.3,0,0,,,0.00,1028.9,,TRUE,TRUE,,,,,,,,,,,,,,,VFR,0.1,,,,,,,,,,,METAR,370
CZDB 220400Z AUTO 26019G29KT M02/M07 RMK AO1 PK WND 26031/0345 SLP041 T10241070 51017,CZDB,2024-03-22T04:00:00Z,45.422,-63.466,-2.4,-7,260,19,29,,0.00,1004.1,,TRUE,TRUE,,,,,,,,,,,,,,,VFR,0.17,,,,,,,,,,,METAR,38
CZCR 220400Z AUTO 24011G17KT M04/M04 RMK AO1 3PAST HR SOG 14 1011 PK WND 25017/0358 SLP948 P0001 T10401040 50011,CZCR,2024-03-22T04:00:00Z,47.99,-66.334,-4,-4,240,11,17,,0.00,994.8,,TRUE,TRUE,,,,,,,,,,,,,,,VFR,0.11,,,,,0.01,,,,,,METAR,39
CYZY 220400Z AUTO VRB02KT 9SM FEW076 OVC098 M03/M12 A3020 RMK ICE SLP268,CYZY,2024-03-22T04:00:00Z,55.303,-123.135,-3,-12,VRB,2,,9,30.20,1026.8,,TRUE,,,,,,,,FEW,7600,OVC,9800,,,,,VFR,,,,,,,,,,,,METAR,694
CYZX 220400Z 24021G32KT 12SM -SHSN DRSN OVC030 M03/M08 A2973 RMK SC8 DENSITY ALT -1850FT SLP071,CYZX,2024-03-22T04:00:00Z,44.985,-64.912,-3,-8,240,21,32,12,29.73,1007.1,,,,,,,,,-SHSN DRSN,OVC,3000,,,,,,,MVFR,,,,,,,,,,,,METAR,28
CYZV 220400Z 34009KT 12SM -SN FEW010 SCT025 OVC040 M00/M02 A2941 RMK SF1SC3SC4 SLP964,CYZV,2024-03-22T04:00:00Z,50.217,-66.26,0,-2,340,9,,12,29.41,996.4,,,,,,,,,-SN,FEW,1000,SCT,2500,OVC,4000,,,VFR,,,,,,,,,,,,METAR,43
CYZU 220400Z 05007KT 10SM -SN BKN030 BKN070 M08/M13 A3030 RMK SC6AC1 LAST STFD OBS/NXT 221200Z SLP312,CYZU,2024-03-22T04:00:00Z,54.142,-115.785,-8,-13,50,7,,10+,30.30,1031.2,,,,,,,,,-SN,BKN,3000,BKN,7000,,,,,MVFR,,,,,,,,,,,,METAR,785
CYZT 220400Z 25003KT 15SM BKN059 08/06 A3003 RMK SC7 SLP172,CYZT,2024-03-22T04:00:00Z,50.685,-127.369,8,6,250,3,,15,30.03,1017.2,,,,,,,,,,BKN,5900,,,,,,,VFR,,,,,,,,,,,,METAR,13
CYZR 220400Z AUTO 13005KT 9SM OVC220 M06/M10 A3033 RMK SLP281,CYZR,2024-03-22T04:00:00Z,42.995,-82.307,-6,-10,130,5,,9,30.33,1028.1,,TRUE,,,,,,,,OVC,22000,,,,,,,VFR,,,,,,,,,,,,METAR,181
CYZP 220400Z AUTO 14002KT 9SM CLR 04/02 A3007 RMK SLP186,CYZP,2024-03-22T04:00:00Z,53.254,-131.814,4,2,140,2,,9,30.07,1018.6,,TRUE,,,,,,,,CLR,,,,,,,,VFR,,,,,,,,,,,,METAR,7
CYZH 220400Z AUTO 05003KT 010V090 9SM CLR M11/M15 A3039 RMK SLP338,CYZH,2024-03-22T04:00:00Z,55.293,-114.773,-11,-15,50,3,,9,30.39,1033.8,,TRUE,,,,,,,,CLR,,,,,,,,VFR,,,,,,,,,,,,METAR,583
CYZF 220400Z 26004KT 15SM SKC M24/M29 A3061 RMK SLP400,CYZF,2024-03-22T04:00:00Z,62.475,-114.448,-24,-29,260,4,,15,30.61,1040,,,,,,,,,,SKC,,,,,,,,VFR,,,,,,,,,,,,METAR,202
CYZE 220400Z AUTO 33004KT 9SM CLR M08/M12 A3031 RMK SLP279,CYZE,2024-03-22T04:00:00Z,45.885,-82.57,-8,-12,330,4,,9,30.31,1027.9,,TRUE,,,,,,,,CLR,,,,,,,,VFR,,,,,,,,,,,,METAR,189
CYYZ 220400Z 24006KT 15SM FEW040 M07/M13 A3036 RMK SC1 SC TR SLP293,CYYZ,2024-03-22T04:00:00Z,43.679,-79.629,-7,-13,240,6,,15,30.36,1029.3,,,,,,,,,,FEW,4000,,,,,,,VFR,,,,,,,,,,,,METAR,171
CYYW 220400Z AUTO 00000KT 9SM CLR M24/M28 A3020 RMK SLP279,CYYW,2024-03-22T04:00:00Z,50.296,-88.912,-24,-28,0,0,,9,30.20,1027.9,,TRUE,,,,,,,,CLR,,,,,,,,VFR,,,,,,,,,,,,METAR,320
CYYU 220400Z 12002KT 15SM SKC M21/M25 A3027 RMK SLP277,CYYU,2024-03-22T04:00:00Z,49.416,-82.47,-21,-25,120,2,,15,30.27,1027.7,,,,,,,,,,SKC,,,,,,,,VFR,,,,,,,,,,,,METAR,228
CYYT 220400Z 23012G18KT 12SM RA SCT005 OVC160 04/04 A2973 RMK SF4AC4 SLP077,CYYT,2024-03-22T04:00:00Z,47.627,-52.748,4,4,230,12,18,12,29.73,1007.7,,,,,,,,,RA,SCT,500,OVC,16000,,,,,VFR,,,,,,,,,,,,METAR,128
CYYR 220400Z 05022G30KT 15SM -SHSN FEW012 OVC020 M02/M04 A2970 RMK SF1SC7 DENSITY ALT -1630FT CIG EST SLP061,CYYR,2024-03-22T04:00:00Z,53.32,-60.417,-2,-4,50,22,30,15,29.70,1006.1,,,,,,,,,-SHSN,FEW,1200,OVC,2000,,,,,MVFR,,,,,,,,,,,,METAR,42
CYYL 220400Z AUTO 34008KT 9SM CLR M23/M28 A3034 RMK SLP325,CYYL,2024-03-22T04:00:00Z,56.863,-101.073,-23,-28,340,8,,9,30.34,1032.5,,TRUE,,,,,,,,CLR,,,,,,,,VFR,,,,,,,,,,,,METAR,351
CYYJ 220400Z 05003KT 20SM BKN062 BKN080 OVC110 10/08 A3006 RMK SC5AC2AC1 SLP181,CYYJ,2024-03-22T04:00:00Z,48.642,-123.433,10,8,50,3,,20,30.06,1018.1,,,,,,,,,,BKN,6200,BKN,8000,OVC,11000,,,VFR,,,,,,,,,,,,METAR,16
CYYG 220400Z 23022G31KT 15SM -SHSN OVC027 M03/M09 A2954 RMK SC8 CVCTV CLD EMBD SLP006,CYYG,2024-03-22T04:00:00Z,46.289,-63.128,-3,-9,230,22,31,15,29.54,1000.6,,,,,,,,,-SHSN,OVC,2700,,,,,,,MVFR,,,,,,,,,,,,METAR,48
CYYF 220400Z 00000KT 15SM SCT072 BKN100 08/01 A3002 RMK AC4AC3 SLP175,CYYF,2024-03-22T04:00:00Z,49.46,-119.606,8,1,0,0,,15,30.02,1017.5,,,,,,,,,,SCT,7200,BKN,10000,,,,,VFR,,,,,,,,,,,,METAR,342
CYYE 220400Z 00000KT 15SM BKN036 M09/M15 A3046 RMK SC5 SLP352,CYYE,2024-03-22T04:00:00Z,58.839,-122.59,-9,-15,0,0,,15,30.46,1035.2,,,,,,,,,,BKN,3600,,,,,,,VFR,,,,,,,,,,,,METAR,379
CYYD 220400Z AUTO 00000KT 9SM CLR 03/M04 A3001 RMK SLP186,CYYD,2024-03-22T04:00:00Z,54.823,-127.185,3,-4,0,0,,9,30.01,1018.6,,TRUE,,,,,,,,CLR,,,,,,,,VFR,,,,,,,,,,,,METAR,527
CYYC 220400Z 10005KT 8SM FEW012 BKN063 M08/M11 A3019 RMK SF1SC7 SF TR SLP298,CYYC,2024-03-22T04:00:00Z,51.116,-114.011,-8,-11,100,5,,8,30.19,1029.8,,,,,,,,,,FEW,1200,BKN,6300,,,,,VFR,,,,,,,,,,,,METAR,1085
CYYB 220400Z AUTO 05006KT 9SM CLR M13/M20 A3026 RMK SLP280,CYYB,2024-03-22T04:00:00Z,46.365,-79.423,-13,-20,50,6,,9,30.26,1028,,TRUE,,,,,,,,CLR,,,,,,,,VFR,,,,,,,,,,,,METAR,360
CYXY 220400Z 26007KT 40SM BKN230 01/M06 A3006 RMK CI6 SLP224,CYXY,2024-03-22T04:00:00Z,60.71,-135.059,1,-6,260,7,,40,30.06,1022.4,,,,,,,,,,BKN,23000,,,,,,,VFR,,,,,,,,,,,,METAR,677
CYXX 220400Z 02005KT 15SM FEW067 SCT160 BKN180 BKN220 10/06 A3007 RMK AC1AS2AS3CI1 SLP184,CYXX,2024-03-22T04:00:00Z,49.027,-122.377,10,6,20,5,,15,30.07,1018.4,,,,,,,,,,FEW,6700,SCT,16000,BKN,18000,BKN,22000,VFR,,,,,,,,,,,,METAR,54
CYXU 220400Z 12003KT 15SM SKC M09/M11 A3033 RMK FROIN SLP291,CYXU,2024-03-22T04:00:00Z,43.039,-81.162,-9,-11,120,3,,15,30.33,1029.1,,,,,,,,,,SKC,,,,,,,,VFR,,,,,,,,,,,,METAR,278
CYXT 220400Z 00000KT 15SM FEW230 06/M03 A3004 RMK CI1 CI TR SLP182,CYXT,2024-03-22T04:00:00Z,54.471,-128.577,6,-3,0,0,,15,30.04,1018.2,,,,,,,,,,FEW,23000,,,,,,,VFR,,,,,,,,,,,,METAR,213
CYXS 220400Z AUTO 02009KT 9SM BKN081 01/M08 A3009 RMK SLP226,CYXS,2024-03-22T04:00:00Z,53.884,-122.677,1,-8,20,9,,9,30.09,1022.6,,TRUE,,,,,,,,BKN,8100,,,,,,,VFR,,,,,,,,,,,,METAR,685
CYXR 220400Z AUTO 25004KT 8SM CLR M17/M21 A3030 RMK SLP288,CYXR,2024-03-22T04:00:00Z,47.698,-79.852,-17,-21,250,4,,8,30.30,1028.8,,TRUE,,,,,,,,CLR,,,,,,,,VFR,,,,,,,,,,,,METAR,244
CYXL 220400Z VRB02KT 15SM SKC M19/M22 A3020 RMK SLP269,CYXL,2024-03-22T04:00:00Z,50.114,-91.905,-19,-22,VRB,2,,15,30.20,1026.9,,,,,,,,,,SKC,,,,,,,,VFR,,,,,,,,,,,,METAR,381
CYXJ 220400Z 12005KT 15SM FEW025 OVC045 M07/M11 A3035 RMK SC2SC6 SLP331,CYXJ,2024-03-22T04:00:00Z,56.247,-120.737,-7,-11,120,5,,15,30.35,1033.1,,,,,,,,,,FEW,2500,OVC,4500,,,,,VFR,,,,,,,,,,,,METAR,700
CYXH 220400Z AUTO 05003KT 9SM -SN BKN120 BKN140 M07/M08 A3026 RMK SLP290,CYXH,2024-03-22T04:00:00Z,50.018,-110.717,-7,-8,50,3,,9,30.26,1029,,TRUE,,,,,,,-SN,BKN,12000,BKN,14000,,,,,VFR,,,,,,,,,,,,METAR,717
CYXE 220400Z 30005KT 15SM SCT076 BKN120 M10/M15 A3033 RMK AC3AC3 SLP315,CYXE,2024-03-22T04:00:00Z,52.172,-106.695,-10,-15,300,5,,15,30.33,1031.5,,,,,,,,,,SCT,7600,BKN,12000,,,,,VFR,,,,,,,,,,,,METAR,504
CYWL 220400Z 35007KT 15SM BKN210 03/M10 A3002 RMK CI3 SLP203,CYWL,2024-03-22T04:00:00Z,52.186,-122.066,3,-10,350,7,,15,30.02,1020.3,,,,,,,,,,BKN,21000,,,,,,,VFR,,,,,,,,,,,,METAR,942
CYWH 220400Z 36005KT 15SM FEW020 OVC070 10/06 A3006 RMK SC2AC6 LAST STFD OBS/NXT 221300Z SLP181,CYWH,2024-03-22T04:00:00Z,48.423,-123.387,10,6,360,5,,15,30.06,1018.1,,,,,,,,,,FEW,2000,OVC,7000,,,,,VFR,,,,,,,,,,,,METAR,4
CYWG 220400Z 34010KT 15SM FEW120 BKN160 M07/M14 A3030 RMK AC2AC3 SLP280,CYWG,2024-03-22T04:00:00Z,49.916,-97.249,-7,-14,340,10,,15,30.30,1028,,,,,,,,,,FEW,12000,BKN,16000,,,,,VFR,,,,,,,,,,,,METAR,238
CYWE 220400Z AUTO 05003KT 9SM CLR M24/M28 A3052 RMK SLP402,CYWE,2024-03-22T04:00:00Z,64.192,-114.078,-24,-28,50,3,,9,30.52,1040.2,,TRUE,,,,,,,,CLR,,,,,,,,VFR,,,,,,,,,,,,METAR,374
CYVV 220400Z 15004KT 15SM BKN020 M06/M11 A3031 RMK SC6 SLP280,CYVV,2024-03-22T04:00:00Z,44.745,-81.107,-6,-11,150,4,,15,30.31,1028,,,,,,,,,,BKN,2000,,,,,,,MVFR,,,,,,,,,,,,METAR,221
CYVT 220400Z AUTO 05006KT 010V080 9SM CLR M17/M25 A3042 RMK SLP352,CYVT,2024-03-22T04:00:00Z,55.842,-108.418,-17,-25,50,6,,9,30.42,1035.2,,TRUE,,,,,,,,CLR,,,,,,,,VFR,,,,,,,,,,,,METAR,438
CYVR 220400Z 11004KT 15SM FEW100 SCT120 BKN170 BKN200 10/06 A3007 RMK AC1AC3AC3CI1 CI TR SLP184,CYVR,2024-03-22T04:00:00Z,49.183,-123.168,10,6,110,4,,15,30.07,1018.4,,,,,,,,,,FEW,10000,SCT,12000,BKN,17000,BKN,20000,VFR,,,,,,,,,,,,METAR,2
CYVQ 220400Z 11013G21KT 30SM DRSN FEW250 M08/M16 A3032 RMK CI1 SLP279,CYVQ,2024-03-22T04:00:00Z,65.278,-126.796,-8,-16,110,13,21,30,30.32,1027.9,,,,,,,,,DRSN,FEW,25000,,,,,,,VFR,,,,,,,,,,,,METAR,63
CYVP 220400Z 33007KT 15SM BKN055 OVC080 M06/M08 A2999 RMK SC5AC3 SLP160,CYVP,2024-03-22T04:00:00Z,58.1,-68.415,-6,-8,330,7,,15,29.99,1016,,,,,,,,,,BKN,5500,OVC,8000,,,,,VFR,,,,,,,,,,,,METAR,28
CYVO 220400Z AUTO 29003KT 9SM CLR M20/M22 A3025 RMK SLP284,CYVO,2024-03-22T04:00:00Z,48.056,-77.779,-20,-22,290,3,,9,30.25,1028.4,,TRUE,,,,,,,,CLR,,,,,,,,VFR,,,,,,,,,,,,METAR,329
CYVM 220400Z AUTO VRB02KT 9SM CLR M25/M28 A3038 RMK SLP290,CYVM,2024-03-22T04:00:00Z,67.552,-64.026,-25,-28,VRB,2,,9,30.38,1029,,TRUE,,,,,,,,CLR,,,,,,,,VFR,,,,,,,,,,,,METAR,3
CYVL 220400Z AUTO 16006KT 9SM CLR M15/M21 A3030 RMK SLP304,CYVL,2024-03-22T04:00:00Z,67.021,-126.129,-15,-21,160,6,,9,30.30,1030.4,,TRUE,,,,,,,,CLR,,,,,,,,VFR,,,,,,,,,,,,METAR,261
CYVC 220400Z 35007KT 15SM FEW140 M14/M23 A3040 RMK AC1 SLP334,CYVC,2024-03-22T04:00:00Z,55.15,-105.264,-14,-23,350,7,,15,30.40,1033.4,,,,,,,,,,FEW,14000,,,,,,,VFR,,,,,,,,,,,,METAR,378
CYUY 220400Z 00000KT 15SM SKC M22/M25 A3028 RMK SLP288,CYUY,2024-03-22T04:00:00Z,48.209,-78.83,-22,-25,0,0,,15,30.28,1028.8,,,,,,,,,,SKC,,,,,,,,VFR,,,,,,,,,,,,METAR,304
CYUL 220400Z 30017G24KT 15SM FEW045 M08/M18 A3025 RMK SC1 SC TR SLP247,CYUL,2024-03-22T04:00:00Z,45.468,-73.742,-8,-18,300,17,24,15,30.25,1024.7,,,,,,,,,,FEW,4500,,,,,,,VFR,,,,,,,,,,,,METAR,31
CYUB 220400Z 16016G23KT 7SM SCT170 M12/M16 A3013 RMK AS3 SLP204,CYUB,2024-03-22T04:00:00Z,69.434,-133.026,-12,-16,160,16,23,7,30.13,1020.4,,,,,,,,,,SCT,17000,,,,,,,VFR,,,,,,,,,,,,METAR,5
CYTZ 220400Z AUTO 31012KT 9SM CLR M05/M13 A3038 RMK SLP293,CYTZ,2024-03-22T04:00:00Z,43.627,-79.397,-5,-13,310,12,,9,30.38,1029.3,,TRUE,,,,,,,,CLR,,,,,,,,VFR,,,,,,,,,,,,METAR,76
CYTS 220400Z 00000KT 15SM SKC M22/M24 A3028 RMK SLP288,CYTS,2024-03-22T04:00:00Z,48.568,-81.378,-22,-24,0,0,,15,30.28,1028.8,,,,,,,,,,SKC,,,,,,,,VFR,,,,,,,,,,,,METAR,290
CYTR 220400Z 31004KT 15SM SKC M07/M14 A3036 RMK DENSITY ALT -2965FT SLP288,CYTR,2024-03-22T04:00:00Z,44.115,-77.531,-7,-14,310,4,,15,30.36,1028.8,,,,,,,,,,SKC,,,,,,,,VFR,,,,,,,,,,,,METAR,80
CYTH 220400Z 32008KT 15SM SKC M21/M28 A3030 RMK SLP292,CYTH,2024-03-22T04:00:00Z,55.803,-97.846,-21,-28,320,8,,15,30.30,1029.2,,,,,,,,,,SKC,,,,,,,,VFR,,,,,,,,,,,,METAR,212
CYTE 220400Z AUTO /////KT RMK WIND MISG CLD MISG WX MISG VIS MISG PCPN MISG PRES MISG T MISG DP MISG ICE MISG DENSITY ALT MISG,CYTE,2024-03-22T04:00:00Z,64.23,-76.528,,,,,,,0.00,,,TRUE,,,,,,,,,,,,,,,,VFR,,,,,,,,,,,,METAR,49
CYSJ 220400Z 26012G22KT 15SM BKN025 BKN062 OVC110 M05/M10 A2970 RMK SC5SC2AC1 SLP064,CYSJ,2024-03-22T04:00:00Z,45.309,-65.886,-5,-10,260,12,22,15,29.70,1006.4,,,,,,,,,,BKN,2500,BKN,6200,OVC,11000,,,MVFR,,,,,,,,,,,,METAR,89
CYSF 220400Z AUTO 28003KT 240V330 9SM FEW066 M23/M27 A3053 RMK SLP374,CYSF,2024-03-22T04:00:00Z,59.252,-105.837,-23,-27,280,3,,9,30.53,1037.4,,TRUE,,,,,,,,FEW,6600,,,,,,,VFR,,,,,,,,,,,,METAR,238
CYSC 220400Z AUTO 28020G25KT 9SM OVC037 M09/M16 A3007 RMK SLP202,CYSC,2024-03-22T04:00:00Z,45.44,-71.692,-9,-16,280,20,25,9,30.07,1020.2,,TRUE,,,,,,,,OVC,3700,,,,,,,VFR,,,,,,,,,,,,METAR,236
CYSB 220400Z 04010KT 15SM SKC M13/M18 A3026 RMK SLP279,CYSB,2024-03-22T04:00:00Z,46.622,-80.799,-13,-18,40,10,,15,30.26,1027.9,,,,,,,,,,SKC,,,,,,,,VFR,,,,,,,,,,,,METAR,349
CYRV 220400Z AUTO 00000KT 9SM BKN100 05/M00 A3000 RMK SLP176,CYRV,2024-03-22T04:00:00Z,50.958,-118.176,5,0,0,0,,9,30.00,1017.6,,TRUE,,,,,,,,BKN,10000,,,,,,,VFR,,,,,,,,,,,,METAR,456
CYRT 220400Z 36015KT 15SM IC DRSN FEW029 M24/M27 A3024 RMK SC1 SC TR SLP246,CYRT,2024-03-22T04:00:00Z,62.811,-92.1,-24,-27,360,15,,15,30.24,1024.6,,,,,,,,,IC DRSN,FEW,2900,,,,,,,VFR,,,,,,,,,,,,METAR,29
CYRQ 220400Z AUTO 29008KT 270V340 9SM FEW041 M09/M17 A3015 RMK SLP216,CYRQ,2024-03-22T04:00:00Z,46.358,-72.68,-9,-17,290,8,,9,30.15,1021.6,,TRUE,,,,,,,,FEW,4100,,,,,,,VFR,,,,,,,,,,,,METAR,58
CYRJ 220400Z 30019G28KT 2SM -SN DRSN OVC016 M13/M17 A3002 RMK SC8 SLP185,CYRJ,2024-03-22T04:00:00Z,48.523,-72.266,-13,-17,300,19,28,2,30.02,1018.5,,,,,,,,,-SN DRSN,OVC,1600,,,,,,,IFR,,,,,,,,,,,,METAR,173
CYRB 220400Z 35005KT 25SM SKC M32/M35 A3026 RMK SLP262,CYRB,2024-03-22T04:00:00Z,74.713,-94.982,-32,-35,350,5,,25,30.26,1026.2,,,,,,,,,,SKC,,,,,,,,VFR,,,,,,,,,,,,METAR,59
CYQZ 220400Z AUTO VRB02KT 9SM CLR 03/M09 A3007 RMK SLP212,CYQZ,2024-03-22T04:00:00Z,53.027,-122.506,3,-9,VRB,2,,9,30.07,1021.2,,TRUE,,,,,,,,CLR,,,,,,,,VFR,,,,,,,,,,,,METAR,548
CYQY 220400Z 22012G21KT 15SM FEW015 FEW080 M01/M05 A2962 RMK CU1AC1 SLP037,CYQY,2024-03-22T04:00:00Z,46.166,-60.049,-1,-5,220,12,21,15,29.62,1003.7,,,,,,,,,,FEW,1500,FEW,8000,,,,,VFR,,,,,,,,,,,,METAR,58
CYQW 220400Z AUTO 27004KT 250V320 9SM BKN046 BKN066 BKN077 M10/M16 A3035 RMK SLP327,CYQW,2024-03-22T04:00:00Z,52.769,-108.251,-10,-16,270,4,,9,30.35,1032.7,,TRUE,,,,,,,,BKN,4600,BKN,6600,BKN,7700,,,VFR,,,,,,,,,,,,METAR,545
CYQV 220400Z AUTO 28007KT 9SM FEW086 SCT150 M12/M17 A3027 RMK SLP298,CYQV,2024-03-22T04:00:00Z,51.26,-102.461,-12,-17,280,7,,9,30.27,1029.8,,TRUE,,,,,,,,FEW,8600,SCT,15000,,,,,VFR,,,,,,,,,,,,METAR,493
CYQU 220400Z 02005KT 15SM -SN BKN053 M09/M12 A3035 RMK SC6 SLP327,CYQU,2024-03-22T04:00:00Z,55.182,-118.882,-9,-12,20,5,,15,30.35,1032.7,,,,,,,,,-SN,BKN,5300,,,,,,,VFR,,,,,,,,,,,,METAR,668
CYQT 220400Z 26003KT 15SM FEW180 BKN220 M11/M15 A3025 RMK AC2CI4 SLP262,CYQT,2024-03-22T04:00:00Z,48.374,-89.33,-11,-15,260,3,,15,30.25,1026.2,,,,,,,,,,FEW,18000,BKN,22000,,,,,VFR,,,,,,,,,,,,METAR,197
CYQR 220400Z 03007KT 15SM SCT130 BKN240 M08/M15 A3027 RMK AC3CI4 SLP293,CYQR,2024-03-22T04:00:00Z,50.427,-104.67,-8,-15,30,7,,15,30.27,1029.3,,,,,,,,,,SCT,13000,BKN,24000,,,,,VFR,,,,,,,,,,,,METAR,576
CYQQ 220400Z 00000KT 20SM SCT065 BKN180 09/07 A3007 RMK SC3AC3 DENSITY ALT -688FT SLP184,CYQQ,2024-03-22T04:00:00Z,49.712,-124.895,9,7,0,0,,20,30.07,1018.4,,,,,,,,,,SCT,6500,BKN,18000,,,,,VFR,,,,,,,,,,,,METAR,24
CYQM 220400Z 25024G35KT 6SM -SN DRSN SCT025 BKN030 OVC040 M05/M09 A2955 RMK SC4SC3SC1 SLP013,CYQM,2024-03-22T04:00:00Z,46.107,-64.682,-5,-9,250,24,35,6,29.55,1001.3,,,,,,,,,-SN DRSN,SCT,2500,BKN,3000,OVC,4000,,,MVFR,,,,,,,,,,,,METAR,67
CYQL 220400Z 22004KT 6SM -SN BKN013 OVC020 M07/M08 A3023 RMK SC6SC2 LAST STFD OBS/NXT 221200Z SLP297,CYQL,2024-03-22T04:00:00Z,49.627,-112.792,-7,-8,220,4,,6,30.23,1029.7,,,,,,,,,-SN,BKN,1300,OVC,2000,,,,,MVFR,,,,,,,,,,,,METAR,923
CYQK 220400Z 34005KT 20SM FEW140 BKN190 M11/M21 A3022 RMK AC1AC5 SLP270,CYQK,2024-03-22T04:00:00Z,49.791,-94.361,-11,-21,340,5,,20,30.22,1027,,,,,,,,,,FEW,14000,BKN,19000,,,,,VFR,,,,,,,,,,,,METAR,413
CYQI 220400Z 30024G33KT 15SM BKN030 M02/M09 A2987 RMK SC7 SLP119,CYQI,2024-03-22T04:00:00Z,43.831,-66.088,-2,-9,300,24,33,15,29.87,1011.9,,,,,,,,,,BKN,3000,,,,,,,MVFR,,,,,,,,,,,,METAR,37
CYQH 220400Z 08005KT 40SM FEW045 M10/M16 A3025 RMK SC1 SC TR SLP299,CYQH,2024-03-22T04:00:00Z,60.116,-128.832,-10,-16,80,5,,40,30.25,1029.9,,,,,,,,,,FEW,4500,,,,,,,VFR,,,,,,,,,,,,METAR,692
CYQG 220400Z AUTO 12005KT 9SM CLR M04/M08 A3031 RMK SLP277,CYQG,2024-03-22T04:00:00Z,42.269,-82.963,-4,-8,120,5,,9,30.31,1027.7,,TRUE,,,,,,,,CLR,,,,,,,,VFR,,,,,,,,,,,,METAR,189
CYQF 220400Z AUTO 18002KT 9SM OVC039 M11/M13 A3023 RMK SLP305,CYQF,2024-03-22T04:00:00Z,52.179,-113.903,-11,-13,180,2,,9,30.23,1030.5,,TRUE,,,,,,,,OVC,3900,,,,,,,VFR,,,,,,,,,,,,METAR,912
CYQD 220400Z AUTO 31005KT 9SM CLR M13/M22 A3034 RMK SLP302,CYQD,2024-03-22T04:00:00Z,53.975,-101.089,-13,-22,310,5,,9,30.34,1030.2,,TRUE,,,,,,,,CLR,,,,,,,,VFR,,,,,,,,,,,,METAR,268
CYQB 220400Z 26014G25KT 15SM FEW035 BKN080 M10/M16 A3001 RMK SC1AC6 SLP171,CYQB,2024-03-22T04:00:00Z,46.791,-71.396,-10,-16,260,14,25,15,30.01,1017.1,,,,,,,,,,FEW,3500,BKN,8000,,,,,VFR,,,,,,,,,,,,METAR,73
CYQA 220400Z AUTO 00000KT 9SM CLR M14/M16 A3029 RMK SLP281,CYQA,2024-03-22T04:00:00Z,44.971,-79.303,-14,-16,0,0,,9,30.29,1028.1,,TRUE,,,,,,,,CLR,,,,,,,,VFR,,,,,,,,,,,,METAR,277
CYPY 220400Z AUTO 07003KT 9SM CLR M23/M26 A3057 RMK SLP387,CYPY,2024-03-22T04:00:00Z,58.766,-111.117,-23,-26,70,3,,9,30.57,1038.7,,TRUE,,,,,,,,CLR,,,,,,,,VFR,,,,,,,,,,,,METAR,225
CYPR 220400Z AUTO 00000KT 9SM CLR 05/03 A3006 RMK SLP182,CYPR,2024-03-22T04:00:00Z,54.291,-130.451,5,3,0,0,,9,30.06,1018.2,,TRUE,,,,,,,,CLR,,,,,,,,VFR,,,,,,,,,,,,METAR,30
CYPQ 220400Z AUTO 31004KT 9SM CLR M09/M14 A3033 RMK SLP287,CYPQ,2024-03-22T04:00:00Z,44.232,-78.36,-9,-14,310,4,,9,30.33,1028.7,,TRUE,,,,,,,,CLR,,,,,,,,VFR,,,,,,,,,,,,METAR,190
CYPO 220400Z AUTO 20004KT 9SM CLR M27/M31 A3025 RMK SLP256,CYPO,2024-03-22T04:00:00Z,54.988,-85.439,-27,-31,200,4,,9,30.25,1025.6,,TRUE,,,,,,,,CLR,,,,,,,,VFR,,,,,,,,,,,,METAR,49
CYPL 220400Z AUTO 27005KT 9SM CLR M16/M25 A3015 RMK SLP252,CYPL,2024-03-22T04:00:00Z,51.449,-90.218,-16,-25,270,5,,9,30.15,1025.2,,TRUE,,,,,,,,CLR,,,,,,,,VFR,,,,,,,,,,,,METAR,390
CYPH 220400Z AUTO 26014KT 8SM CLR M20/M22 A3007 RMK SLP189,CYPH,2024-03-22T04:00:00Z,58.47,-78.08,-20,-22,260,14,,8,30.07,1018.9,,TRUE,,,,,,,,CLR,,,,,,,,VFR,,,,,,,,,,,,METAR,24
CYPE 220400Z 36006KT 15SM BKN039 M09/M14 A3040 RMK SC7 SLP341,CYPE,2024-03-22T04:00:00Z,56.228,-117.453,-9,-14,360,6,,15,30.40,1034.1,,,,,,,,,,BKN,3900,,,,,,,VFR,,,,,,,,,,,,METAR,572
CYPA 220400Z 01006KT 15SM FEW150 BKN270 M10/M21 A3034 RMK AC1CI4 SLP315,CYPA,2024-03-22T04:00:00Z,53.217,-105.679,-10,-21,10,6,,15,30.34,1031.5,,,,,,,,,,FEW,15000,BKN,27000,,,,,VFR,,,,,,,,,,,,METAR,428
CYOW 220400Z 32010KT 15SM SKC M09/M20 A3031 RMK SLP274,CYOW,2024-03-22T04:00:00Z,45.307,-75.66,-9,-20,320,10,,15,30.31,1027.4,,,,,,,,,,SKC,,,,,,,,VFR,,,,,,,,,,,,METAR,111
CYOO 220400Z AUTO 24002KT 9SM OVC042 M06/M12 A3035 RMK SLP289,CYOO,2024-03-22T04:00:00Z,43.921,-78.899,-6,-12,240,2,,9,30.35,1028.9,,TRUE,,,,,,,,OVC,4200,,,,,,,VFR,,,,,,,,,,,,METAR,136
CYOJ 220400Z AUTO 36003KT 9SM CLR M16/M23 A3051 RMK SLP371,CYOJ,2024-03-22T04:00:00Z,58.628,-117.174,-16,-23,360,3,,9,30.51,1037.1,,TRUE,,,,,,,,CLR,,,,,,,,VFR,,,,,,,,,,,,METAR,339
CYOD 220400Z 03007KT 15SM SCT040 M10/M16 A3037 RMK SC4 DENSITY ALT -1618FT SLP330,CYOD,2024-03-22T04:00:00Z,54.41,-110.287,-10,-16,30,7,,15,30.37,1033,,,,,,,,,,SCT,4000,,,,,,,VFR,,,,,,,,,,,,METAR,540
CYNM 220400Z AUTO 30003KT 9SM CLR M25/M29 A3027 RMK SLP285,CYNM,2024-03-22T04:00:00Z,49.759,-77.793,-25,-29,300,3,,9,30.27,1028.5,,TRUE,,,,,,,,CLR,,,,,,,,VFR,,,,,,,,,,,,METAR,276
CYNE 220400Z AUTO 31004KT 9SM CLR M17/M26 A3030 RMK SLP289,CYNE,2024-03-22T04:00:00Z,53.958,-97.845,-17,-26,310,4,,9,30.30,1028.9,,TRUE,,,,,,,,CLR,,,,,,,,VFR,,,,,,,,,,,,METAR,220
CYNA 220400Z AUTO 16008KT 9SM BKN091 M02/M05 A2938 RMK SLP950,CYNA,2024-03-22T04:00:00Z,50.19,-61.789,-2,-5,160,8,,9,29.38,995,,TRUE,,,,,,,,BKN,9100,,,,,,,VFR,,,,,,,,,,,,METAR,9
CYMX 220400Z 31006KT 250V350 25SM FEW050 M09/M19 A3024 RMK SC1 SC TR SLP250,CYMX,2024-03-22T04:00:00Z,45.68,-74.038,-9,-19,310,6,,25,30.24,1025,,,,,,,,,,FEW,5000,,,,,,,VFR,,,,,,,,,,,,METAR,78
CYMT 220400Z AUTO 28011G20KT 9SM CLR M20/M24 A3010 RMK SLP237,CYMT,2024-03-22T04:00:00Z,49.779,-74.527,-20,-24,280,11,20,9,30.10,1023.7,,TRUE,,,,,,,,CLR,,,,,,,,VFR,,,,,,,,,,,,METAR,388
CYMO 220400Z AUTO 18002KT 9SM CLR M23/M26 A3037 RMK SLP287,CYMO,2024-03-22T04:00:00Z,51.292,-80.607,-23,-26,180,2,,9,30.37,1028.7,,TRUE,,,,,,,,CLR,,,,,,,,VFR,,,,,,,,,,,,METAR,8
CYMM 220400Z AUTO 01007KT 9SM CLR M13/M23 A3049 RMK SLP363,CYMM,2024-03-22T04:00:00Z,56.65,-111.221,-13,-23,10,7,,9,30.49,1036.3,,TRUE,,,,,,,,CLR,,,,,,,,VFR,,,,,,,,,,,,METAR,371
CYMA 220400Z 36007KT 350V080 20SM BKN230 M01/M13 A3011 RMK CI6 SLP238,CYMA,2024-03-22T04:00:00Z,63.616,-135.88,-1,-13,360,7,,20,30.11,1023.8,,,,,,,,,,BKN,23000,,,,,,,VFR,,,,,,,,,,,,METAR,519
CYLW 220400Z AUTO VRB02KT 9SM OVC091 08/01 A3001 RMK SLP174,CYLW,2024-03-22T04:00:00Z,49.953,-119.375,8,1,VRB,2,,9,30.01,1017.4,,TRUE,,,,,,,,OVC,9100,,,,,,,VFR,,,,,,,,,,,,METAR,420
CYLL 220400Z 15002KT 15SM FEW041 SCT070 BKN086 M11/M13 A3031 RMK SC2AC2AC1 LAST STFD OBS/NXT 221300Z SLP320,CYLL,2024-03-22T04:00:00Z,53.312,-110.074,-11,-13,150,2,,15,30.31,1032,,,,,,,,,,FEW,4100,SCT,7000,BKN,8600,,,VFR,,,,,,,,,,,,METAR,664
CYLH 220400Z AUTO 00000KT 9SM OVC071 M23/M25 A3019 RMK SLP256,CYLH,2024-03-22T04:00:00Z,52.196,-87.936,-23,-25,0,0,,9,30.19,1025.6,,TRUE,,,,,,,,OVC,7100,,,,,,,VFR,,,,,,,,,,,,METAR,245
CYKY 220400Z 10006KT 15SM BKN080 M09/M15 A3028 RMK AC7 SLP306,CYKY,2024-03-22T04:00:00Z,51.517,-109.175,-9,-15,100,6,,15,30.28,1030.6,,,,,,,,,,BKN,8000,,,,,,,VFR,,,,,,,,,,,,METAR,692
CYKP 220400Z AUTO 15005KT 9SM CLR M19/M21 A3023 RMK SLP267,CYKP,2024-03-22T04:00:00Z,51.659,-85.901,-19,-21,150,5,,9,30.23,1026.7,,TRUE,,,,,,,,CLR,,,,,,,,VFR,,,,,,,,,,,,METAR,181
CYKL 220400Z AUTO 07007KT 9SM OVC032 M03/M07 A2976 RMK SLP109,CYKL,2024-03-22T04:00:00Z,54.803,-66.804,-3,-7,70,7,,9,29.76,1010.9,,TRUE,,,,,,,,OVC,3200,,,,,,,VFR,,,,,,,,,,,,METAR,507
CYKJ 220400Z AUTO 30003KT 9SM CLR M25/M28 A3038 RMK SLP354,CYKJ,2024-03-22T04:00:00Z,57.256,-105.618,-25,-28,300,3,,9,30.38,1035.4,,TRUE,,,,,,,,CLR,,,,,,,,VFR,,,,,,,,,,,,METAR,519
CYKF 220400Z AUTO 00000KT 9SM CLR M10/M11 A3033 RMK SLP293,CYKF,2024-03-22T04:00:00Z,43.462,-80.386,-10,-11,0,0,,9,30.33,1029.3,,TRUE,,,,,,,,CLR,,,,,,,,VFR,,,,,,,,,,,,METAR,312
CYKA 220400Z VRB06KT 40SM FEW200 08/M01 A3001 RMK CI2 SLP175,CYKA,2024-03-22T04:00:00Z,50.704,-120.444,8,-1,VRB,6,,40,30.01,1017.5,,,,,,,,,,FEW,20000,,,,,,,VFR,,,,,,,,,,,,METAR,344
CYIV 220400Z AUTO 26002KT 9SM CLR M20/M27 A3022 RMK SLP265,CYIV,2024-03-22T04:00:00Z,53.857,-94.655,-20,-27,260,2,,9,30.22,1026.5,,TRUE,,,,,,,,CLR,,,,,,,,VFR,,,,,,,,,,,,METAR,234
CYIO 220400Z AUTO 18005KT 9SM CLR M30/M33 A3031 RMK SLP278,CYIO,2024-03-22T04:00:00Z,72.694,-77.957,-30,-33,180,5,,9,30.31,1027.8,,TRUE,,,,,,,,CLR,,,,,,,,VFR,,,,,,,,,,,,METAR,61
CYIN 220400Z AUTO 23004KT 9SM FEW066 M04/M07 A3001 RMK SLP202,CYIN,2024-03-22T04:00:00Z,51.265,-121.681,-4,-7,230,4,,9,30.01,1020.2,,TRUE,,,,,,,,FEW,6600,,,,,,,VFR,,,,,,,,,,,,METAR,1127
CYHZ 220400Z 25022G31KT 15SM BKN031 M02/M07 A2967 RMK SC7 SLP057,CYHZ,2024-03-22T04:00:00Z,44.8781,-63.5136,-2,-7,250,22,31,15,29.67,1005.7,,,,,,,,,,BKN,3100,,,,,,,VFR,,,,,,,,,,,,METAR,136
CYHY 220400Z 00000KT 15SM FEW220 M26/M30 A3064 RMK CI1 SLP406,CYHY,2024-03-22T04:00:00Z,60.839,-115.781,-26,-30,0,0,,15,30.64,1040.6,,,,,,,,,,FEW,22000,,,,,,,VFR,,,,,,,,,,,,METAR,159
CYHU 220400Z AUTO 30014G25KT 9SM CLR M08/M18 A3023 RMK SLP239,CYHU,2024-03-22T04:00:00Z,45.516,-73.415,-8,-18,300,14,25,9,30.23,1023.9,,TRUE,,,,,,,,CLR,,,,,,,,VFR,,,,,,,,,,,,METAR,26
CYHM 220400Z 01002KT 15SM FEW250 M07/M11 A3034 RMK CI1 CI TR FROIN SLP291,CYHM,2024-03-22T04:00:00Z,43.173,-79.936,-7,-11,10,2,,15,30.34,1029.1,,,,,,,,,,FEW,25000,,,,,,,VFR,,,,,,,,,,,,METAR,237
CYHE 220400Z AUTO 00000KT 9SM SCT066 08/05 A3008 RMK SLP190,CYHE,2024-03-22T04:00:00Z,49.37,-121.493,8,5,0,0,,9,30.08,1019,,TRUE,,,,,,,,SCT,6600,,,,,,,VFR,,,,,,,,,,,,METAR,43
CYHD 220400Z AUTO 27004KT 9SM CLR M11/M22 A3019 RMK SLP263,CYHD,2024-03-22T04:00:00Z,49.83,-92.74,-11,-22,270,4,,9,30.19,1026.3,,TRUE,,,,,,,,CLR,,,,,,,,VFR,,,,,,,,,,,,METAR,414
CYGX 220400Z 28007KT 10SM -SN OVC081 M23/M26 A3025 RMK AS8 SLP267,CYGX,2024-03-22T04:00:00Z,56.359,-94.704,-23,-26,280,7,,10+,30.25,1026.7,,,,,,,,,-SN,OVC,8100,,,,,,,VFR,,,,,,,,,,,,METAR,145
CYGW 220400Z AUTO 26007KT 9SM CLR M23/M26 A3029 RMK SLP263,CYGW,2024-03-22T04:00:00Z,55.283,-77.76,-23,-26,260,7,,9,30.29,1026.3,,TRUE,,,,,,,,CLR,,,,,,,,VFR,,,,,,,,,,,,METAR,13
CYGP 220400Z 04002KT 15SM BKN055 M04/M04 A2930 RMK SC7 FROIN SLP925,CYGP,2024-03-22T04:00:00Z,48.777,-64.478,-4,-4,40,2,,15,29.30,992.5,,,,,,,,,,BKN,5500,,,,,,,VFR,,,,,,,,,,,,METAR,31
CYGL 220400Z 26005KT 15SM -SN SCT027 BKN100 BKN240 M26/M29 A3024 RMK SC4AC1CI2 SLP269,CYGL,2024-03-22T04:00:00Z,53.625,-77.7,-26,-29,260,5,,15,30.24,1026.9,,,,,,,,,-SN,SCT,2700,BKN,10000,BKN,24000,,,VFR,,,,,,,,,,,,METAR,192
CYFS 220400Z 12004KT 090V170 15SM FEW250 M13/M26 A3056 RMK CI1 CI TR SLP373,CYFS,2024-03-22T04:00:00Z,61.76,-121.23,-13,-26,120,4,,15,30.56,1037.3,,,,,,,,,,FEW,25000,,,,,,,VFR,,,,,,,,,,,,METAR,174
CYEV 220400Z 17011G16KT 15SM FEW160 BKN250 M11/M17 A3014 RMK AC2CI5 SLP218,CYEV,2024-03-22T04:00:00Z,68.309,-133.5,-11,-17,170,11,16,15,30.14,1021.8,,,,,,,,,,FEW,16000,BKN,25000,,,,,VFR,,,,,,,,,,,,METAR,74
CYET 220400Z AUTO 04003KT 1SM -SN VV016 M06/M07 A3022 RMK SLP290,CYET,2024-03-22T04:00:00Z,53.58,-116.455,-6,-7,40,3,,1,30.22,1029,,TRUE,,,,,,,-SN,OVX,0,,,,,,,IFR,,,,,,,,,,,1600,METAR,925
CYER 220400Z AUTO 36004KT 9SM SCT240 M28/M30 A3027 RMK SLP256,CYER,2024-03-22T04:00:00Z,56.019,-87.675,-28,-30,360,4,,9,30.27,1025.6,,TRUE,,,,,,,,SCT,24000,,,,,,,VFR,,,,,,,,,,,,METAR,11
CYEK 220400Z AUTO 35019G25KT 5/8SM -SN VV004 M23/M26 A3027 RMK SLP255,CYEK,2024-03-22T04:00:00Z,61.098,-94.072,-23,-26,350,19,25,0.63,30.27,1025.5,,TRUE,,,,,,,-SN,OVX,0,,,,,,,LIFR,,,,,,,,,,,400,METAR,7
CYDN 220400Z AUTO 25004KT 9SM SCT130 M10/M17 A3029 RMK SLP288,CYDN,2024-03-22T04:00:00Z,51.1,-100.057,-10,-17,250,4,,9,30.29,1028.8,,TRUE,,,,,,,,SCT,13000,,,,,,,VFR,,,,,,,,,,,,METAR,302
CYDL 220400Z AUTO 36008KT 310V030 9SM CLR 01/M08 A3008 RMK SLP219,CYDL,2024-03-22T04:00:00Z,58.426,-130.025,1,-8,360,8,,9,30.08,1021.9,,TRUE,,,,,,,,CLR,,,,,,,,VFR,,,,,,,,,,,,METAR,804
CYDF 220400Z 18007KT 15SM OVC037 00/M03 A2956 RMK SC8 SLP014,CYDF,2024-03-22T04:00:00Z,49.212,-57.394,0,-3,180,7,,15,29.56,1001.4,,,,,,,,,,OVC,3700,,,,,,,VFR,,,,,,,,,,,,METAR,15
CYDB 220400Z AUTO 00000KT 9SM CLR M03/M09 A3002 RMK SLP225,CYDB,2024-03-22T04:00:00Z,61.37,-139.032,-3,-9,0,0,,9,30.02,1022.5,,TRUE,,,,,,,,CLR,,,,,,,,VFR,,,,,,,,,,,,METAR,807
CYCY 220400Z AUTO 31002KT 9SM CLR M32/M35 A3034 RMK SLP281,CYCY,2024-03-22T04:00:00Z,70.484,-68.515,-32,-35,310,2,,9,30.34,1028.1,,TRUE,,,,,,,,CLR,,,,,,,,VFR,,,,,,,,,,,,METAR,73
CYCO 220400Z 23010KT 15SM SKC M25/M30 A3059 RMK SLP363,CYCO,2024-03-22T04:00:00Z,67.817,-115.135,-25,-30,230,10,,15,30.59,1036.3,,,,,,,,,,SKC,,,,,,,,VFR,,,,,,,,,,,,METAR,20
CYCK 220400Z AUTO 15004KT 9SM CLR M04/M08 A3033 RMK SLP281,CYCK,2024-03-22T04:00:00Z,42.307,-82.085,-4,-8,150,4,,9,30.33,1028.1,,TRUE,,,,,,,,CLR,,,,,,,,VFR,,,,,,,,,,,,METAR,196
CYCG 220400Z 00000KT 15SM BKN095 06/M01 A3001 RMK AC5 LAST STFD OBS/NXT 221300Z SLP174,CYCG,2024-03-22T04:00:00Z,49.295,-117.634,6,-1,0,0,,15,30.01,1017.4,,,,,,,,,,BKN,9500,,,,,,,VFR,,,,,,,,,,,,METAR,487
CYCD 220400Z 25002KT 15SM SCT065 OVC090 09/07 A3007 RMK SC4AC4 LAST STFD OBS/NEXT 221300Z SLP186,CYCD,2024-03-22T04:00:00Z,49.052,-123.874,9,7,250,2,,15,30.07,1018.6,,,,,,,,,,SCT,6500,OVC,9000,,,,,VFR,,,,,,,,,,,,METAR,30
CYCB 220400Z 30009KT 11SM IC FEW009 FEW015 SCT110 M26/M30 A3052 RMK SF1SC1AC2 SLP342,CYCB,2024-03-22T04:00:00Z,69.106,-105.116,-26,-30,300,9,,11,30.52,1034.2,,,,,,,,,IC,FEW,900,FEW,1500,SCT,11000,,,VFR,,,,,,,,,,,,METAR,19
CYBU 220400Z AUTO 35010KT 9SM CLR M11/M22 A3035 RMK SLP315,CYBU,2024-03-22T04:00:00Z,53.333,-104.005,-11,-22,350,10,,9,30.35,1031.5,,TRUE,,,,,,,,CLR,,,,,,,,VFR,,,,,,,,,,,,METAR,369
CYBR 220400Z 06009KT 15SM BKN100 OVC250 M08/M15 A3027 RMK AC6CI2 SLP288,CYBR,2024-03-22T04:00:00Z,49.91,-99.945,-8,-15,60,9,,15,30.27,1028.8,,,,,,,,,,BKN,10000,OVC,25000,,,,,VFR,,,,,,,,,,,,METAR,405
CYBQ 220400Z AUTO 33012G17KT 9SM OVC071 M24/M28 A3030 RMK SLP305,CYBQ,2024-03-22T04:00:00Z,58.707,-98.511,-24,-28,330,12,17,9,30.30,1030.5,,TRUE,,,,,,,,OVC,7100,,,,,,,VFR,,,,,,,,,,,,METAR,272
CYBL 220400Z 00000KT 15SM FEW065 SCT160 BKN220 07/07 A3007 RMK SC1AC3CI2 LAST STFD OBS/NXT 221300Z SLP187,CYBL,2024-03-22T04:00:00Z,49.951,-125.269,7,7,0,0,,15,30.07,1018.7,,,,,,,,,,FEW,6500,SCT,16000,BKN,22000,,,VFR,,,,,,,,,,,,METAR,94
CYBK 220400Z 33016KT 15SM IC DRSN FEW140 M28/M32 A3041 RMK AC1 SLP305,CYBK,2024-03-22T04:00:00Z,64.306,-96.078,-28,-32,330,16,,15,30.41,1030.5,,,,,,,,,IC DRSN,FEW,14000,,,,,,,VFR,,,,,,,,,,,,METAR,14
CYBG 220400Z 28025G35KT 1/2SM R11/5000FT -SHSN BLSN OVC017 M12/M14 A2995 RMK SN5SC3 DENSITY ALT -2862FT VIS VRB 1/4-3/4 /S04/ SLP157,CYBG,2024-03-22T04:00:00Z,48.331,-70.989,-12,-14,280,25,35,0.5,29.95,1015.7,,,,,,,,,-SHSN BLSN,OVC,1700,,,,,,,LIFR,,,,,,,,,,,,METAR,151
CYAT 220400Z AUTO 16003KT 8SM CLR M27/M30 A3033 RMK SLP274,CYAT,2024-03-22T04:00:00Z,52.927,-82.432,-27,-30,160,3,,8,30.33,1027.4,,TRUE,,,,,,,,CLR,,,,,,,,VFR,,,,,,,,,,,,METAR,4
CYAM 220400Z 00000KT 15SM SCT220 M14/M15 A3030 RMK CS4 HALO FROIN SLP280,CYAM,2024-03-22T04:00:00Z,46.484,-84.504,-14,-15,0,0,,15,30.30,1028,,,,,,,,,,SCT,22000,,,,,,,VFR,,,,,,,,,,,,METAR,186
CXZV 220400Z AUTO 34007KT 01/M02 RMK AO1 SOG 61 7023 SLP960 T00051016 50002,CXZV,2024-03-22T04:00:00Z,50.217,-66.26,0.5,-1.6,340,7,,,0.00,996,,TRUE,TRUE,,,,,,,,,,,,,,,VFR,0.02,,,,,,,,,,,METAR,43
CXZC 220400Z AUTO 16001KT M28/M32 RMK AO1 SOG 06 3003 SLP291 T12771322,CXZC,2024-03-22T04:00:00Z,51.292,-80.618,-27.7,-32.2,160,1,,,0.00,1029.1,,TRUE,TRUE,,,,,,,,,,,,,,,VFR,,,,,,,,,,,,METAR,8
CXYH 220400Z AUTO 23002KT M14/M17 RMK AO1 SLP329 T11371172 56001,CXYH,2024-03-22T04:00:00Z,61.242,-123.742,-13.7,-17.2,230,2,,,0.00,1032.9,,TRUE,TRUE,,,,,,,,,,,,,,,VFR,-0.01,,,,,,,,,,,METAR,197
CXWN 220400Z AUTO 35003KT M07/M14 RMK AO1 SLP278 T10691136 53014,CXWN,2024-03-22T04:00:00Z,49.889,-97.13,-6.9,-13.6,350,3,,,0.00,1027.8,,TRUE,TRUE,,,,,,,,,,,,,,,VFR,0.14,,,,,,,,,,,METAR,232
CXWM 220400Z AUTO 27004KT M08/M10 RMK AO1 T10751097 50006,CXWM,2024-03-22T04:00:00Z,49.495,-112.113,-7.5,-9.7,270,4,,,0.00,,,TRUE,TRUE,,,,,,,,,,,,,,,VFR,0.06,,,,,,,,,,,METAR,947
CXVW 220400Z AUTO 06008KT M08/M14 RMK AO1 SLP314 T10831138 51016,CXVW,2024-03-22T04:00:00Z,55.098,-117.199,-8.3,-13.8,60,8,,,0.00,1031.4,,TRUE,TRUE,,,,,,,,,,,,,,,VFR,0.16,,,,,,,,,,,METAR,696
CXVN 220400Z AUTO 31004KT M04/M12 RMK AO1 SLP297 T10371123 51009,CXVN,2024-03-22T04:00:00Z,43.183,-79.4,-3.7,-12.3,310,4,,,0.00,1029.7,,TRUE,TRUE,,,,,,,,,,,,,,,VFR,0.09,,,,,,,,,,,METAR,86
CXVM 220400Z AUTO 13004KT M10/M12 RMK AO1 T10991118,CXVM,2024-03-22T04:00:00Z,53.344,-110.882,-9.9,-11.8,130,4,,,0.00,,,TRUE,TRUE,,,,,,,,,,,,,,,VFR,,,,,,,,,,,,METAR,622
CXTV 220400Z AUTO 18023KT M12/M15 RMK AO1 SOG 75 6027 PK WND 17027/0352 SLP197 T11181152,CXTV,2024-03-22T04:00:00Z,68.746,-133.502,-11.8,-15.2,180,23,,,0.00,1019.7,,TRUE,TRUE,,,,,,,,,,,,,,,VFR,,,,,,,,,,,,METAR,91
CXTP 220400Z AUTO 22010KT 02/02 RMK AO1 8PAST HR SOG 33 5009 PK WND 21020/0349 SLP047 P0003 T00180018 50054,CXTP,2024-03-22T04:00:00Z,48.557,-53.975,1.8,1.8,220,10,,,0.00,1004.7,,TRUE,TRUE,,,,,,,,,,,,,,,VFR,0.54,,,,,0.03,,,,,,METAR,104
CXTO 220400Z AUTO M05/M13 RMK AO1 SLP290 T10461131 53008,CXTO,2024-03-22T04:00:00Z,43.667,-79.4,-4.6,-13.1,,,,,0.00,1029,,TRUE,TRUE,,,,,,,,,,,,,,,VFR,0.08,,,,,,,,,,,METAR,115
CXTN 220400Z AUTO 18018KT M17/M23 RMK AO1 SOG 53 6013 PK WND 18021/0354 SLP324 T11681230,CXTN,2024-03-22T04:00:00Z,69.199,-122.359,-16.8,-23,180,18,,,0.00,1032.4,,TRUE,TRUE,,,,,,,,,,,,,,,VFR,,,,,,,,,,,,METAR,564
CXTH 220400Z AUTO 11008KT M09/M09 RMK AO1 T10911092,CXTH,2024-03-22T04:00:00Z,53.625,-111.678,-9.1,-9.2,110,8,,,0.00,,,TRUE,TRUE,,,,,,,,,,,,,,,VFR,,,,,,,,,,,,METAR,679
CXTD 220400Z AUTO 22014G23KT M01/M06 RMK AO1 PK WND 23026/0347 SLP038 T10121060 53010,CXTD,2024-03-22T04:00:00Z,45.608,-61.68,-1.2,-6,220,14,23,,0.00,1003.8,,TRUE,TRUE,,,,,,,,,,,,,,,VFR,0.1,,,,,,,,,,,METAR,58
CXSL 220400Z AUTO 12007KT M08/M09 RMK AO1 T10771092,CXSL,2024-03-22T04:00:00Z,54.278,-112.499,-7.7,-9.2,120,7,,,0.00,,,TRUE,TRUE,,,,,,,,,,,,,,,VFR,,,,,,,,,,,,METAR,680
CXSH 220400Z AUTO 32009G18KT M10/M18 RMK AO1 PK WND 32018/0359 SLP212 T11031183 51027,CXSH,2024-03-22T04:00:00Z,46.564,-72.733,-10.3,-18.3,320,9,18,,0.00,1021.2,,TRUE,TRUE,,,,,,,,,,,,,,,VFR,0.27,,,,,,,,,,,METAR,106
CXSE 220400Z AUTO 29014KT RMK AO1 SOG 40 0001,CXSE,2024-03-22T04:00:00Z,73.766,-105.296,,,290,14,,,0.00,,,TRUE,TRUE,,,,,,,,,,,,,,,VFR,,,,,,,,,,,,METAR,11
CXSC 220400Z AUTO 08005KT M08/M10 RMK AO1 T10821095 50004,CXSC,2024-03-22T04:00:00Z,50.304,-110.089,-8.2,-9.5,80,5,,,0.00,,,TRUE,TRUE,,,,,,,,,,,,,,,VFR,0.04,,,,,,,,,,,METAR,809
CXRL 220400Z AUTO 10006KT M09/M11 RMK AO1 T10881108 50004,CXRL,2024-03-22T04:00:00Z,54.503,-111.691,-8.8,-10.8,100,6,,,0.00,,,TRUE,TRUE,,,,,,,,,,,,,,,VFR,0.04,,,,,,,,,,,METAR,585
CXRH 220400Z AUTO 19006KT M00/M02 RMK AO1 2PAST HR SOG 06 0012 SLP006 P0001 T10021017 50011,CXRH,2024-03-22T04:00:00Z,49.57,-57.878,-0.2,-1.7,190,6,,,0.00,1000.6,,TRUE,TRUE,,,,,,,,,,,,,,,VFR,0.11,,,,,0.01,,,,,,METAR,68
CXRB 220400Z AUTO 35004KT M34/M37 RMK AO1 SLP259 T13381368 51009,CXRB,2024-03-22T04:00:00Z,74.716,-94.983,-33.8,-36.8,350,4,,,0.00,1025.9,,TRUE,TRUE,,,,,,,,,,,,,,,VFR,0.09,,,,,,,,,,,METAR,30
CXPL 220400Z AUTO 15006KT M08/M09 RMK AO1 T10821094,CXPL,2024-03-22T04:00:00Z,51.128,-111.705,-8.2,-9.4,150,6,,,0.00,,,TRUE,TRUE,,,,,,,,,,,,,,,VFR,,,,,,,,,,,,METAR,735
CXPC 220400Z AUTO M10/M13 RMK AO1 SOG 11 3006 SLP280 T11031134,CXPC,2024-03-22T04:00:00Z,45.344,-80.044,-10.3,-13.4,,,,,0.00,1028,,TRUE,TRUE,,,,,,,,,,,,,,,VFR,,,,,,,,,,,,METAR,176
CXPA 220400Z AUTO 01007KT M08/M12 RMK AO1 T10751121,CXPA,2024-03-22T04:00:00Z,55.621,-118.293,-7.5,-12.1,10,7,,,0.00,,,TRUE,TRUE,,,,,,,,,,,,,,,VFR,,,,,,,,,,,,METAR,628
CXOY 220400Z AUTO 13008KT M08/M10 RMK AO1 T10791099,CXOY,2024-03-22T04:00:00Z,51.366,-110.343,-7.9,-9.9,130,8,,,0.00,,,TRUE,TRUE,,,,,,,,,,,,,,,VFR,,,,,,,,,,,,METAR,784
CXOX 220400Z AUTO 01009KT M13/M24 RMK AO1 SOG 15 3019 SLP325 T11341237,CXOX,2024-03-22T04:00:00Z,55.146,-105.27,-13.4,-23.7,10,9,,,0.00,1032.5,,TRUE,TRUE,,,,,,,,,,,,,,,VFR,,,,,,,,,,,,METAR,381
CXOL 220400Z AUTO 21004KT M10/M12 RMK AO1 T11001119,CXOL,2024-03-22T04:00:00Z,51.76,-114.077,-10,-11.9,210,4,,,0.00,,,TRUE,TRUE,,,,,,,,,,,,,,,VFR,,,,,,,,,,,,METAR,1026
CXNP 220400Z AUTO 23019G28KT M03/M09 RMK AO1 PK WND 23032/0324 SLP033 T10331091 51020,CXNP,2024-03-22T04:00:00Z,45.76,-64.241,-3.3,-9.1,230,19,28,,0.00,1003.3,,TRUE,TRUE,,,,,,,,,,,,,,,VFR,0.2,,,,,,,,,,,METAR,19
CXNM 220400Z AUTO 21013G21KT M05/M07 RMK AO1 SOG 99 PK WND 21021/0359 T10471066 50003,CXNM,2024-03-22T04:00:00Z,46.818,-60.673,-4.7,-6.6,210,13,21,,0.00,,,TRUE,TRUE,,,,,,,,,,,,,,,VFR,0.03,,,,,,,,,,,METAR,452
CXMY 220400Z AUTO M01/M06 RMK AO1 T10101058,CXMY,2024-03-22T04:00:00Z,44.984,-62.484,-1,-5.8,,,,,0.00,,,TRUE,TRUE,,,,,,,,,,,,,,,VFR,,,,,,,,,,,,METAR,37
CXMO 220400Z AUTO 29003KT M09/M10 RMK AO1 T10871097 50004,CXMO,2024-03-22T04:00:00Z,51.671,-112.678,-8.7,-9.7,290,3,,,0.00,,,TRUE,TRUE,,,,,,,,,,,,,,,VFR,0.04,,,,,,,,,,,METAR,837
CXMM 220400Z AUTO 01006KT M12/M23 RMK AO1 SOG 01 1023 SLP362 T11231233,CXMM,2024-03-22T04:00:00Z,56.649,-111.221,-12.3,-23.3,10,6,,,0.00,1036.2,,TRUE,TRUE,,,,,,,,,,,,,,,VFR,,,,,,,,,,,,METAR,372
CXMI 220400Z AUTO M00/M07 RMK AO1 27 0318Z 1014 SLP062 T10041070,CXMI,2024-03-22T04:00:00Z,44.602,-63.534,-0.4,-7,,,,,0.00,1006.2,,TRUE,TRUE,,,,,,,,,,,,,,,VFR,,,,,,,,,,,,METAR,15
CXMG 220400Z AUTO 03009KT M11/M17 RMK AO1 T11061171,CXMG,2024-03-22T04:00:00Z,56.974,-117.451,-10.6,-17.1,30,9,,,0.00,,,TRUE,TRUE,,,,,,,,,,,,,,,VFR,,,,,,,,,,,,METAR,467
CXMD 220400Z AUTO 02008KT M07/M13 RMK AO1 SLP269 T10661127 51021,CXMD,2024-03-22T04:00:00Z,49.188,-98.084,-6.6,-12.7,20,8,,,0.00,1026.9,,TRUE,TRUE,,,,,,,,,,,,,,,VFR,0.21,,,,,,,,,,,METAR,297
CXLL 220400Z AUTO 24001KT M19/M22 RMK AO1 SOG 49 5001 SLP363 T11871222,CXLL,2024-03-22T04:00:00Z,61.125,-122.851,-18.7,-22.2,240,1,,,0.00,1036.3,,TRUE,TRUE,,,,,,,,,,,,,,,VFR,,,,,,,,,,,,METAR,180
CXLB 220400Z AUTO 27023G28KT M01/M07 RMK AO1 PK WND 27035/0340 SLP068 T10071067 52019,CXLB,2024-03-22T04:00:00Z,44.36,-64.296,-0.7,-6.7,270,23,28,,0.00,1006.8,,TRUE,TRUE,,,,,,,,,,,,,,,VFR,0.19,,,,,,,,,,,METAR,4
CXKT 220400Z AUTO 24013G23KT M03/M07 RMK AO1 3021 PK WND 22026/0319 SLP057 T10281071 50004,CXKT,2024-03-22T04:00:00Z,45.067,-64.478,-2.8,-7.1,240,13,23,,0.00,1005.7,,TRUE,TRUE,,,,,,,,,,,,,,,VFR,0.04,,,,,,,,,,,METAR,48
CXKM 220400Z AUTO 11008KT M09/M10 RMK AO1 T10861103,CXKM,2024-03-22T04:00:00Z,52.849,-111.873,-8.6,-10.3,110,8,,,0.00,,,TRUE,TRUE,,,,,,,,,,,,,,,VFR,,,,,,,,,,,,METAR,679
CXKI 220400Z AUTO 00000KT M25/M27 RMK AO1 SOG 08 3005 SLP279 T12481274,CXKI,2024-03-22T04:00:00Z,48.15,-80,-24.8,-27.4,0,0,,,0.00,1027.9,,TRUE,TRUE,,,,,,,,,,,,,,,VFR,,,,,,,,,,,,METAR,328
CXKE 220400Z AUTO 32006KT M08/M18 RMK AO1 SLP274 T10771180 53025,CXKE,2024-03-22T04:00:00Z,45.005,-75.637,-7.7,-18,320,6,,,0.00,1027.4,,TRUE,TRUE,,,,,,,,,,,,,,,VFR,0.25,,,,,,,,,,,METAR,99
CXKA 220400Z AUTO 13001KT M22/M24 RMK AO1 SOG 07 1004 SLP278 T12181244,CXKA,2024-03-22T04:00:00Z,49.405,-82.443,-21.8,-24.4,130,1,,,0.00,1027.8,,TRUE,TRUE,,,,,,,,,,,,,,,VFR,,,,,,,,,,,,METAR,221
CXIB 220400Z AUTO 21008G15KT M01/M06 RMK AO1 SLP995 T10081057 53003,CXIB,2024-03-22T04:00:00Z,46.663,-60.406,-0.8,-5.7,210,8,15,,0.00,999.5,,TRUE,TRUE,,,,,,,,,,,,,,,VFR,0.03,,,,,,,,,,,METAR,6
CXHR 220400Z AUTO 30003KT M13/M14 RMK AO1 T11311141,CXHR,2024-03-22T04:00:00Z,51.191,-112.503,-13.1,-14.1,300,3,,,0.00,,,TRUE,TRUE,,,,,,,,,,,,,,,VFR,,,,,,,,,,,,METAR,975
CXHP 220400Z AUTO 08008KT M08/M13 RMK AO1 T10781130,CXHP,2024-03-22T04:00:00Z,55.396,-116.48,-7.8,-13,80,8,,,0.00,,,TRUE,TRUE,,,,,,,,,,,,,,,VFR,,,,,,,,,,,,METAR,601
CXHM 220400Z AUTO 29001KT M08/M10 RMK AO1 SLP297 T10761101 51009,CXHM,2024-03-22T04:00:00Z,43.286,-79.905,-7.6,-10.1,290,1,,,0.00,1029.7,,TRUE,TRUE,,,,,,,,,,,,,,,VFR,0.09,,,,,,,,,,,METAR,105
CXHD 220400Z AUTO 12008KT M08/M10 RMK AO1 T10811096 50004,CXHD,2024-03-22T04:00:00Z,53.185,-112.246,-8.1,-9.6,120,8,,,0.00,,,TRUE,TRUE,,,,,,,,,,,,,,,VFR,0.04,,,,,,,,,,,METAR,688
CXHA 220400Z AUTO 13002KT M03/M08 RMK AO1 SLP272 T10271076 51002,CXHA,2024-03-22T04:00:00Z,42.033,-82.896,-2.7,-7.6,130,2,,,0.00,1027.2,,TRUE,TRUE,,,,,,,,,,,,,,,VFR,0.02,,,,,,,,,,,METAR,193
CXGH 220400Z AUTO M10/M16 RMK AO1 SLP282 T10991157 52010,CXGH,2024-03-22T04:00:00Z,50.631,-96.984,-9.9,-15.7,,,,,0.00,1028.2,,TRUE,TRUE,,,,,,,,,,,,,,,VFR,0.1,,,,,,,,,,,METAR,217
CXFR 220400Z AUTO 03006KT M09/M14 RMK AO1 T10941141,CXFR,2024-03-22T04:00:00Z,56.081,-118.44,-9.4,-14.1,30,6,,,0.00,,,TRUE,TRUE,,,,,,,,,,,,,,,VFR,,,,,,,,,,,,METAR,657
CXFM 220400Z AUTO 31006KT M08/M09 RMK AO1 T10771088,CXFM,2024-03-22T04:00:00Z,49.483,-111.486,-7.7,-8.8,310,6,,,0.00,,,TRUE,TRUE,,,,,,,,,,,,,,,VFR,,,,,,,,,,,,METAR,884
CXET 220400Z AUTO 25002KT M08/M13 RMK AO1 SOG 06 3005 SLP283 T10801131,CXET,2024-03-22T04:00:00Z,44.234,-79.779,-8,-13.1,250,2,,,0.00,1028.3,,TRUE,TRUE,,,,,,,,,,,,,,,VFR,,,,,,,,,,,,METAR,250
CXEG 220400Z AUTO 01011KT M08/M10 RMK AO1 SLP299 T10771100 51022,CXEG,2024-03-22T04:00:00Z,53.307,-113.606,-7.7,-10,10,11,,,0.00,1029.9,,TRUE,TRUE,,,,,,,,,,,,,,,VFR,0.22,,,,,,,,,,,METAR,706
CXEC 220400Z AUTO 01004KT M08/M11 RMK AO1 1024 SLP302 T10811110 50003,CXEC,2024-03-22T04:00:00Z,53.573,-113.517,-8.1,-11,10,4,,,0.00,1030.2,,TRUE,TRUE,,,,,,,,,,,,,,,VFR,0.03,,,,,,,,,,,METAR,666
CXEA 220400Z AUTO 32006KT M13/M23 RMK AO1 SOG 26 3010 SLP267 T11261230,CXEA,2024-03-22T04:00:00Z,50.631,-93.221,-12.6,-23,320,6,,,0.00,1026.7,,TRUE,TRUE,,,,,,,,,,,,,,,VFR,,,,,,,,,,,,METAR,351
CXDW 220400Z AUTO 36007KT M08/M16 RMK AO1 SLP280 T10751155 51022,CXDW,2024-03-22T04:00:00Z,49.4,-98.319,-7.5,-15.5,360,7,,,0.00,1028,,TRUE,TRUE,,,,,,,,,,,,,,,VFR,0.22,,,,,,,,,,,METAR,341
CXDK 220400Z AUTO 00000KT M16/M19 RMK AO1 SOG 24 5000 SLP334 T11581191,CXDK,2024-03-22T04:00:00Z,61.257,-124.468,-15.8,-19.1,0,0,,,0.00,1033.4,,TRUE,TRUE,,,,,,,,,,,,,,,VFR,,,,,,,,,,,,METAR,269
CXDI 220400Z AUTO 00000KT M09/M10 RMK AO1 SLP290 T10861101 51008,CXDI,2024-03-22T04:00:00Z,42.864,-80.545,-8.6,-10.1,0,0,,,0.00,1029,,TRUE,TRUE,,,,,,,,,,,,,,,VFR,0.08,,,,,,,,,,,METAR,234
CXDE 220400Z AUTO 09009KT M15/M23 RMK AO1 SOG 34 7010 SLP329 T11471229,CXDE,2024-03-22T04:00:00Z,65.209,-123.434,-14.7,-22.9,90,9,,,0.00,1032.9,,TRUE,TRUE,,,,,,,,,,,,,,,VFR,,,,,,,,,,,,METAR,208
CXDB 220400Z AUTO 33002KT M09/M10 RMK AO1 T10871098 50004,CXDB,2024-03-22T04:00:00Z,49.048,-112.808,-8.7,-9.8,330,2,,,0.00,,,TRUE,TRUE,,,,,,,,,,,,,,,VFR,0.04,,,,,,,,,,,METAR,1311
CXCS 220400Z AUTO 09007KT M08/M10 RMK AO1 T10751101,CXCS,2024-03-22T04:00:00Z,51.942,-110.708,-7.5,-10.1,90,7,,,0.00,,,TRUE,TRUE,,,,,,,,,,,,,,,VFR,,,,,,,,,,,,METAR,771
CXCP 220400Z AUTO 34009KT M08/M09 RMK AO1 T10761094,CXCP,2024-03-22T04:00:00Z,50.281,-113.35,-7.6,-9.4,340,9,,,0.00,,,TRUE,TRUE,,,,,,,,,,,,,,,VFR,,,,,,,,,,,,METAR,999
CXCK 220400Z AUTO 00000KT M01/M05 RMK AO1 SOG 36 5001 SLP224 T10141053,CXCK,2024-03-22T04:00:00Z,62.115,-136.192,-1.4,-5.3,0,0,,,0.00,1022.4,,TRUE,TRUE,,,,,,,,,,,,,,,VFR,,,,,,,,,,,,METAR,526
CXCD 220400Z AUTO 07008KT M07/M13 RMK AO1 T10691129,CXCD,2024-03-22T04:00:00Z,56.314,-119.745,-6.9,-12.9,70,8,,,0.00,,,TRUE,TRUE,,,,,,,,,,,,,,,VFR,,,,,,,,,,,,METAR,628
CXCA 220400Z AUTO 00000KT M15/M19 RMK AO1 SLP269 T11451190 52007,CXCA,2024-03-22T04:00:00Z,49.154,-88.344,-14.5,-19,0,0,,,0.00,1026.9,,TRUE,TRUE,,,,,,,,,,,,,,,VFR,0.07,,,,,,,,,,,METAR,228
CXBW 220400Z AUTO 27004KT M08/M09 RMK AO1 T10781089,CXBW,2024-03-22T04:00:00Z,49.801,-112.303,-7.8,-8.9,270,4,,,0.00,,,TRUE,TRUE,,,,,,,,,,,,,,,VFR,,,,,,,,,,,,METAR,823
CXBR 220400Z AUTO 18001KT M07/M08 RMK AO1 4PAST HR M P0002 T10731084 50011,CXBR,2024-03-22T04:00:00Z,49.62,-113.819,-7.3,-8.4,180,1,,,0.00,,,TRUE,TRUE,,,,,,,,,,,,,,,VFR,0.11,,,,,0.02,,,,,,METAR,1137
CXBO 220400Z AUTO 27015G23KT M09/M17 RMK AO1 PK WND 26028/0339 T10871168,CXBO,2024-03-22T04:00:00Z,46.837,-71.197,-8.7,-16.8,270,15,23,,0.00,,,TRUE,TRUE,,,,,,,,,,,,,,,VFR,,,,,,,,,,,,METAR,8
CXBK 220400Z AUTO 02006KT M07/M13 RMK AO1 SLP284 T10741132 51022,CXBK,2024-03-22T04:00:00Z,50.201,-104.71,-7.4,-13.2,20,6,,,0.00,1028.4,,TRUE,TRUE,,,,,,,,,,,,,,,VFR,0.22,,,,,,,,,,,METAR,585
CXBI 220400Z AUTO 18001KT M09/M12 RMK AO1 SOG 07 2006 SLP287 T10901115,CXBI,2024-03-22T04:00:00Z,44.484,-79.546,-9,-11.5,180,1,,,0.00,1028.7,,TRUE,TRUE,,,,,,,,,,,,,,,VFR,,,,,,,,,,,,METAR,287
CXBA 220400Z AUTO 10007KT M09/M13 RMK AO1 T10921132,CXBA,2024-03-22T04:00:00Z,52.124,-110.101,-9.2,-13.2,100,7,,,0.00,,,TRUE,TRUE,,,,,,,,,,,,,,,VFR,,,,,,,,,,,,METAR,696
CXAT 220400Z AUTO 00000KT M32/M36 RMK AO1 SOG 03 2019 SLP282 T13231362,CXAT,2024-03-22T04:00:00Z,73.006,-85.033,-32.3,-36.2,0,0,,,0.00,1028.2,,TRUE,TRUE,,,,,,,,,,,,,,,VFR,,,,,,,,,,,,METAR,10
CXAK 220400Z AUTO 36004KT M06/M06 RMK AO1 T10581058,CXAK,2024-03-22T04:00:00Z,52.349,-112.591,-5.8,-5.8,360,4,,,0.00,,,TRUE,TRUE,,,,,,,,,,,,,,,VFR,,,,,,,,,,,,METAR,799
CXAJ 220400Z AUTO 04012KT M10/M11 RMK AO1 SOG 14 PK WND 05017/0356 T10961111 50018,CXAJ,2024-03-22T04:00:00Z,54.785,-112.819,-9.6,-11.1,40,12,,,0.00,,,TRUE,TRUE,,,,,,,,,,,,,,,VFR,0.18,,,,,,,,,,,METAR,586
CXAG 220400Z AUTO 12010KT M08/M11 RMK AO1 T10781106,CXAG,2024-03-22T04:00:00Z,53.917,-112.279,-7.8,-10.6,120,10,,,0.00,,,TRUE,TRUE,,,,,,,,,,,,,,,VFR,,,,,,,,,,,,METAR,632
CXAF 220400Z AUTO 35005KT M09/M10 RMK AO1 T10881101 50013,CXAF,2024-03-22T04:00:00Z,54.278,-112.971,-8.8,-10.1,350,5,,,0.00,,,TRUE,TRUE,,,,,,,,,,,,,,,VFR,0.13,,,,,,,,,,,METAR,667
CWZW 220400Z AUTO 07003KT M01/M07 RMK AO1 SOG 58 3007 SLP235 T10111070,CWZW,2024-03-22T04:00:00Z,60.167,-132.733,-1.1,-7,70,3,,,0.00,1023.5,,TRUE,TRUE,,,,,,,,,,,,,,,VFR,,,,,,,,,,,,METAR,683
CWZV 220400Z AUTO 03004KT 06/04 RMK AO1 SLP183 T00640042 55000,CWZV,2024-03-22T04:00:00Z,51.936,-131.016,6.4,4.2,30,4,,,0.00,1018.3,,TRUE,TRUE,,,,,,,,,,,,,,,VFR,,,,,,,,,,,,METAR,83
CWZQ 220400Z AUTO 19012G18KT M01/M05 RMK AO1 PK WND 19024/0300 SLP024 T10051049 53007,CWZQ,2024-03-22T04:00:00Z,46.547,-61.049,-0.5,-4.9,190,12,18,,0.00,1002.4,,TRUE,TRUE,,,,,,,,,,,,,,,VFR,0.07,,,,,,,,,,,METAR,13
CWZO 220400Z AUTO 04008KT RMK AO1,CWZO,2024-03-22T04:00:00Z,48.568,-123.265,,,40,8,,,0.00,,,TRUE,TRUE,,,,,,,,,,,,,,,VFR,,,,,,,,,,,,METAR,5
CWZN 220400Z AUTO 19016G21KT M00/M03 RMK AO1 PK WND 20027/0321 SLP071 T10021028 51003,CWZN,2024-03-22T04:00:00Z,47.368,-55.795,-0.2,-2.8,190,16,21,,0.00,1007.1,,TRUE,TRUE,,,,,,,,,,,,,,,VFR,0.03,,,,,,,,,,,METAR,63
CWZL 220400Z AUTO 00000KT 05/04 RMK AO1 SLP191 T00530044 56001,CWZL,2024-03-22T04:00:00Z,53.03,-131.602,5.3,4.4,0,0,,,0.00,1019.1,,TRUE,TRUE,,,,,,,,,,,,,,,VFR,-0.01,,,,,,,,,,,METAR,17
CWZG 220400Z AUTO 04007KT M06/M09 RMK AO1 SOG 05 1020 SLP252 T10611089,CWZG,2024-03-22T04:00:00Z,51.194,-115.552,-6.1,-8.9,40,7,,,0.00,1025.2,,TRUE,TRUE,,,,,,,,,,,,,,,VFR,,,,,,,,,,,,METAR,1402
CWZA 220400Z AUTO 34002KT 09/05 RMK AO1 SOG 01 3004 SLP185 T00850052,CWZA,2024-03-22T04:00:00Z,49.244,-121.759,8.5,5.2,340,2,,,0.00,1018.5,,TRUE,TRUE,,,,,,,,,,,,,,,VFR,,,,,,,,,,,,METAR,18
CWYY 220400Z AUTO 07001KT 10/M00 RMK AO1 SLP168 T01011003 53010,CWYY,2024-03-22T04:00:00Z,49.028,-119.441,10.1,-0.3,70,1,,,0.00,1016.8,,TRUE,TRUE,,,,,,,,,,,,,,,VFR,0.1,,,,,,,,,,,METAR,284
CWYL 220400Z AUTO 07009G16KT M05/M07 RMK AO1 6PAST HR SOG 90 1017 SLP217 P0002 T10531067 50008,CWYL,2024-03-22T04:00:00Z,51.443,-116.345,-5.3,-6.7,70,9,16,,0.00,1021.7,,TRUE,TRUE,,,,,,,,,,,,,,,VFR,0.08,,,,,0.02,,,,,,METAR,1602
CWYJ 220400Z AUTO 35004KT 09/06 RMK AO1 SLP179 T00930063 56003,CWYJ,2024-03-22T04:00:00Z,48.457,-123.305,9.3,6.3,350,4,,,0.00,1017.9,,TRUE,TRUE,,,,,,,,,,,,,,,VFR,-0.03,,,,,,,,,,,METAR,59
CWXL 220400Z AUTO 34003KT M07/M08 RMK AO1 1024 SLP295 T10691080 50004,CWXL,2024-03-22T04:00:00Z,49.734,-111.45,-6.9,-8,340,3,,,0.00,1029.5,,TRUE,TRUE,,,,,,,,,,,,,,,VFR,0.04,,,,,,,,,,,METAR,815
CWXI 220400Z AUTO 08020G28KT M00/M02 RMK AO1 PK WND 08028/0302 SLP980 T10021018 58060,CWXI,2024-03-22T04:00:00Z,51.022,-57.096,-0.2,-1.8,80,20,28,,0.00,998,,TRUE,TRUE,,,,,,,,,,,,,,,VFR,-0.6,,,,,,,,,,,METAR,15
CWXC 220400Z AUTO 30004KT M14/M17 RMK AO1 5PAST HR 2028 SLP133 P0002 T11351169 50015,CWXC,2024-03-22T04:00:00Z,48.894,-71.032,-13.5,-16.9,300,4,,,0.00,1013.3,,TRUE,TRUE,,,,,,,,,,,,,,,VFR,0.15,,,,,0.02,,,,,,METAR,306
CWXA 220400Z AUTO 00000KT M07/M08 RMK AO1 1019 SLP304 T10661081 50009,CWXA,2024-03-22T04:00:00Z,51.083,-115.066,-6.6,-8.1,0,0,,,0.00,1030.4,,TRUE,TRUE,,,,,,,,,,,,,,,VFR,0.09,,,,,,,,,,,METAR,1303
CWWZ 220400Z AUTO 31009KT M03/M10 RMK AO1 SLP295 T10331099 51010,CWWZ,2024-03-22T04:00:00Z,43.244,-79.218,-3.3,-9.9,310,9,,,0.00,1029.5,,TRUE,TRUE,,,,,,,,,,,,,,,VFR,0.1,,,,,,,,,,,METAR,75
CWWS 220400Z AUTO 31014KT M16/M20 RMK AO1 SOG 57 2014 SLP279 T11581196,CWWS,2024-03-22T04:00:00Z,52.819,-97.616,-15.8,-19.6,310,14,,,0.00,1027.9,,TRUE,TRUE,,,,,,,,,,,,,,,VFR,,,,,,,,,,,,METAR,220
CWWL 220400Z AUTO 00000KT 04/04 RMK AO1 SLP181 T00390036 55000,CWWL,2024-03-22T04:00:00Z,53.493,-130.638,3.9,3.6,0,0,,,0.00,1018.1,,TRUE,TRUE,,,,,,,,,,,,,,,VFR,,,,,,,,,,,,METAR,8
CWWK 220400Z AUTO 03001KT 11/06 RMK AO1 SLP188 T01070062 58002,CWWK,2024-03-22T04:00:00Z,49.018,-122.784,10.7,6.2,30,1,,,0.00,1018.8,,TRUE,TRUE,,,,,,,,,,,,,,,VFR,-0.02,,,,,,,,,,,METAR,10
CWWF 220400Z AUTO 05004KT M08/M12 RMK AO1 SLP274 T10781120 51020,CWWF,2024-03-22T04:00:00Z,49.695,-103.801,-7.8,-12,50,4,,,0.00,1027.4,,TRUE,TRUE,,,,,,,,,,,,,,,VFR,0.2,,,,,,,,,,,METAR,583
CWWE 220400Z AUTO 27014G21KT M02/M07 RMK AO1 PK WND 28029/0317 SLP090 T10161074 51018,CWWE,2024-03-22T04:00:00Z,43.989,-64.662,-1.6,-7.4,270,14,21,,0.00,1009,,TRUE,TRUE,,,,,,,,,,,,,,,VFR,0.18,,,,,,,,,,,METAR,4
CWWB 220400Z AUTO 33003KT M04/M11 RMK AO1 SLP293 T10361110 51008,CWWB,2024-03-22T04:00:00Z,43.302,-79.791,-3.6,-11,330,3,,,0.00,1029.3,,TRUE,TRUE,,,,,,,,,,,,,,,VFR,0.08,,,,,,,,,,,METAR,77
CWWA 220400Z AUTO 34001KT 10/04 RMK AO1 SLP184 T00950036 58001,CWWA,2024-03-22T04:00:00Z,49.347,-123.193,9.5,3.6,340,1,,,0.00,1018.4,,TRUE,TRUE,,,,,,,,,,,,,,,VFR,-0.01,,,,,,,,,,,METAR,172
CWVU 220400Z AUTO 26031G37KT M02/M07 RMK AO1 PK WND 27040/0305 SLP102 T10211071 51026,CWVU,2024-03-22T04:00:00Z,44.287,-66.342,-2.1,-7.1,260,31,37,,0.00,1010.2,,TRUE,TRUE,,,,,,,,,,,,,,,VFR,0.26,,,,,,,,,,,METAR,4
CWVT 220400Z AUTO 03005KT M16/M25 RMK AO1 SOG 27 3016 SLP364 T11611251,CWVT,2024-03-22T04:00:00Z,55.841,-108.421,-16.1,-25.1,30,5,,,0.00,1036.4,,TRUE,TRUE,,,,,,,,,,,,,,,VFR,,,,,,,,,,,,METAR,431
CWVQ 220400Z AUTO 31014G21KT M08/M17 RMK AO1 PK WND 28026/0320 SLP250 T10791169 53032,CWVQ,2024-03-22T04:00:00Z,45.427,-73.929,-7.9,-16.9,310,14,21,,0.00,1025,,TRUE,TRUE,,,,,,,,,,,,,,,VFR,0.32,,,,,,,,,,,METAR,38
CWVP 220400Z AUTO 06001KT M10/M12 RMK AO1 SOG 12 1026 SLP266 T11021118 50005,CWVP,2024-03-22T04:00:00Z,49.64,-109.514,-10.2,-11.8,60,1,,,0.00,1026.6,,TRUE,TRUE,,,,,,,,,,,,,,,VFR,0.05,,,,,,,,,,,METAR,1269
CWVN 220400Z AUTO 02007KT M07/M09 RMK AO1 2PAST HR SOG 05 2029 SLP278 P0001 T10701089 50002,CWVN,2024-03-22T04:00:00Z,49.058,-107.586,-7,-8.9,20,7,,,0.00,1027.8,,TRUE,TRUE,,,,,,,,,,,,,,,VFR,0.02,,,,,0.01,,,,,,METAR,792
CWVI 220400Z AUTO 12006KT M07/M10 RMK AO1 SLP308 T10741097 51017,CWVI,2024-03-22T04:00:00Z,53.505,-112.098,-7.4,-9.7,120,6,,,0.00,1030.8,,TRUE,TRUE,,,,,,,,,,,,,,,VFR,0.17,,,,,,,,,,,METAR,640
CWVH 220400Z AUTO 17032G44KT ////SM ////// M14/M15 A3001,CWVH,2024-03-22T04:00:00Z,68.894,-133.943,-14,-15,170,32,44,,30.01,,,TRUE,,,,,,,,,,,,,,,,VFR,,,,,,,,,,,,METAR,246
CWVF 220400Z AUTO 01001KT 10/07 RMK AO1 T00970066,CWVF,2024-03-22T04:00:00Z,49.106,-123.303,9.7,6.6,10,1,,,0.00,,,TRUE,TRUE,,,,,,,,,,,,,,,VFR,,,,,,,,,,,,METAR,13
CWUX 220400Z AUTO 28016G23KT M12/M15 RMK AO1 PK WND 28033/0324 SLP159 T11151148 51031,CWUX,2024-03-22T04:00:00Z,48.298,-70.92,-11.5,-14.8,280,16,23,,0.00,1015.9,,TRUE,TRUE,,,,,,,,,,,,,,,VFR,0.31,,,,,,,,,,,METAR,150
CWUS 220400Z AUTO 26003KT 11/M00 RMK AO1 SLP171 T01061004 53007,CWUS,2024-03-22T04:00:00Z,49.563,-119.649,10.6,-0.4,260,3,,,0.00,1017.1,,TRUE,TRUE,,,,,,,,,,,,,,,VFR,0.07,,,,,,,,,,,METAR,455
CWTY 220400Z AUTO 29013G18KT M08/M16 RMK AO1 PK WND 30019/0334 SLP218 T10811162 51029,CWTY,2024-03-22T04:00:00Z,46.354,-72.516,-8.1,-16.2,290,13,18,,0.00,1021.8,,TRUE,TRUE,,,,,,,,,,,,,,,VFR,0.29,,,,,,,,,,,METAR,8
CWTT 220400Z AUTO 29010G15KT M08/M15 RMK AO1 PK WND 28021/0330 T10781153,CWTT,2024-03-22T04:00:00Z,45.27,-72.17,-7.8,-15.3,290,10,15,,0.00,,,TRUE,TRUE,,,,,,,,,,,,,,,VFR,,,,,,,,,,,,METAR,210
CWTN 220400Z AUTO 23005KT M08/M17 RMK AO1 SOG 03 1030 SLP135 T10771170,CWTN,2024-03-22T04:00:00Z,47.079,-70.781,-7.7,-17,230,5,,,0.00,1013.5,,TRUE,TRUE,,,,,,,,,,,,,,,VFR,,,,,,,,,,,,METAR,5
CWTG 220400Z AUTO 36006KT M00/01 RMK AO1 6PAST HR 1006 SLP975 P0002 T10020005 50016,CWTG,2024-03-22T04:00:00Z,49.317,-67.381,-0.2,0.5,360,6,,,0.00,997.5,,TRUE,TRUE,,,,,,,,,,,,,,,VFR,0.16,,,,,0.02,,,,,,METAR,6
CWTA 220400Z AUTO 02004KT M08/M18 RMK AO1 SLP239 T10831179 51028,CWTA,2024-03-22T04:00:00Z,45.506,-73.579,-8.3,-17.9,20,4,,,0.00,1023.9,,TRUE,TRUE,,,,,,,,,,,,,,,VFR,0.28,,,,,,,,,,,METAR,71
CWST 220400Z AUTO 27017G22KT M08/M14 RMK AO1 SOG 10 1025 PK WND 28024/0300 SLP100 T10751137,CWST,2024-03-22T04:00:00Z,47.354,-70.03,-7.5,-13.7,270,17,22,,0.00,1010,,TRUE,TRUE,,,,,,,,,,,,,,,VFR,,,,,,,,,,,,METAR,31
CWSS 220400Z AUTO 29011G22KT M04/M11 RMK AO1 PK WND 30022/0351 SLP082 T10441108 53017,CWSS,2024-03-22T04:00:00Z,45.21,-67.253,-4.4,-10.8,290,11,22,,0.00,1008.2,,TRUE,TRUE,,,,,,,,,,,,,,,VFR,0.17,,,,,,,,,,,METAR,27
CWSR 220400Z AUTO 28003KT M13/M19 RMK AO1 SLP318 T11341191 53019,CWSR,2024-03-22T04:00:00Z,53.368,-107.553,-13.4,-19.1,280,3,,,0.00,1031.8,,TRUE,TRUE,,,,,,,,,,,,,,,VFR,0.19,,,,,,,,,,,METAR,589
CWSP 220400Z AUTO 07004KT 10/06 RMK AO1 SLP185 T01040064 55000,CWSP,2024-03-22T04:00:00Z,48.377,-123.921,10.4,6.4,70,4,,,0.00,1018.5,,TRUE,TRUE,,,,,,,,,,,,,,,VFR,,,,,,,,,,,,METAR,2
CWSL 220400Z AUTO 15001KT 06/M02 RMK AO1 SLP171 T00591021 52012,CWSL,2024-03-22T04:00:00Z,50.703,-119.291,5.9,-2.1,150,1,,,0.00,1017.1,,TRUE,TRUE,,,,,,,,,,,,,,,VFR,0.12,,,,,,,,,,,METAR,353
CWSK 220400Z AUTO 05001KT 09/05 RMK AO1 SLP186 T00880054 51010,CWSK,2024-03-22T04:00:00Z,49.783,-123.161,8.8,5.4,50,1,,,0.00,1018.6,,TRUE,TRUE,,,,,,,,,,,,,,,VFR,0.1,,,,,,,,,,,METAR,59
CWSG 220400Z AUTO 36017G22KT M00/M01 RMK AO1 9PAST HR 3003 PK WND 00022/0359 SLP959 P0004 T10031006 50015,CWSG,2024-03-22T04:00:00Z,49.109,-66.655,-0.3,-0.6,360,17,22,,0.00,995.9,,TRUE,TRUE,,,,,,,,,,,,,,,VFR,0.15,,,,,0.04,,,,,,METAR,5
CWSF 220400Z AUTO 02018G23KT M01/M01 RMK AO1 1PAST HR SOG 32 6022 PK WND 03029/0334 SLP925 P0000 T10091012 50024,CWSF,2024-03-22T04:00:00Z,49.251,-65.325,-0.9,-1.2,20,18,23,,0.00,992.5,,TRUE,TRUE,,,,,,,,,,,,,,,VFR,0.24,,,,,0.005,,,,,,METAR,15
CWSD 220400Z AUTO 25023G31KT M03/M08 RMK AO1 2PAST HR SOG 01 1016 PK WND 26036/0338 SLP006 P0001 T10321082 50002,CWSD,2024-03-22T04:00:00Z,46.441,-63.837,-3.2,-8.2,250,23,31,,0.00,1000.6,,TRUE,TRUE,,,,,,,,,,,,,,,VFR,0.02,,,,,0.01,,,,,,METAR,12
CWSA 220400Z AUTO 23031G40KT 9SM OVC040 02/M04 A2985 RMK ICE MISG SLP110,CWSA,2024-03-22T04:00:00Z,43.933,-60.002,2,-4,230,31,40,9,29.85,1011,,TRUE,,,,,,,,OVC,4000,,,,,,,VFR,,,,,,,,,,,,METAR,4
CWRZ 220400Z AUTO 23012KT M02/M02 RMK AO1 SLP928 T10171021 56011,CWRZ,2024-03-22T04:00:00Z,48.419,-64.317,-1.7,-2.1,230,12,,,0.00,992.8,,TRUE,TRUE,,,,,,,,,,,,,,,VFR,-0.11,,,,,,,,,,,METAR,16
CWRY 220400Z AUTO 32004KT M08/M08 RMK AO1 4PAST HR SOG 09 1024 SLP289 P0002 T10761075 50006,CWRY,2024-03-22T04:00:00Z,49.133,-112.051,-7.6,-7.5,320,4,,,0.00,1028.9,,TRUE,TRUE,,,,,,,,,,,,,,,VFR,0.06,,,,,0.02,,,,,,METAR,1048
CWRU 220400Z AUTO 08005KT 09/05 RMK AO1 SLP173 T00890047 55000,CWRU,2024-03-22T04:00:00Z,50.112,-127.941,8.9,4.7,80,5,,,0.00,1017.3,,TRUE,TRUE,,,,,,,,,,,,,,,VFR,,,,,,,,,,,,METAR,76
CWRT 220400Z AUTO 14006KT M06/M08 RMK AO1 SLP275 T10631082 51021,CWRT,2024-03-22T04:00:00Z,49.628,-114.482,-6.3,-8.2,140,6,,,0.00,1027.5,,TRUE,TRUE,,,,,,,,,,,,,,,VFR,0.21,,,,,,,,,,,METAR,1311
CWRO 220400Z AUTO 27009KT 05/05 RMK AO1 SLP187 T00500046 53001,CWRO,2024-03-22T04:00:00Z,54.161,-131.66,5,4.6,270,9,,,0.00,1018.7,,TRUE,TRUE,,,,,,,,,,,,,,,VFR,0.01,,,,,,,,,,,METAR,7
CWRN 220400Z AUTO 22025G33KT M00/M04 RMK AO1 PK WND 22033/0352 SLP049 T10041040 53005,CWRN,2024-03-22T04:00:00Z,45.347,-60.98,-0.4,-4,220,25,33,,0.00,1004.9,,TRUE,TRUE,,,,,,,,,,,,,,,VFR,0.05,,,,,,,,,,,METAR,8
CWRM 220400Z AUTO 11004KT M06/M07 RMK AO1 SOG 12 3016 SLP260 T10551073,CWRM,2024-03-22T04:00:00Z,52.431,-114.907,-5.5,-7.3,110,4,,,0.00,1026,,TRUE,TRUE,,,,,,,,,,,,,,,VFR,,,,,,,,,,,,METAR,986
CWRK 220400Z AUTO 00000KT M15/M18 RMK AO1 SLP280 T11451177 53015,CWRK,2024-03-22T04:00:00Z,45.072,-77.879,-14.5,-17.7,0,0,,,0.00,1028,,TRUE,TRUE,,,,,,,,,,,,,,,VFR,0.15,,,,,,,,,,,METAR,328
CWRJ 220400Z AUTO 04006KT M10/M16 RMK AO1 SLP310 T10991158 51019,CWRJ,2024-03-22T04:00:00Z,51.565,-107.924,-9.9,-15.8,40,6,,,0.00,1031,,TRUE,TRUE,,,,,,,,,,,,,,,VFR,0.19,,,,,,,,,,,METAR,586
CWQV 220400Z AUTO 27036G45KT M08/ RMK AO1 PK WND 27048/0321 T1084,CWQV,2024-03-22T04:00:00Z,48.26,-70.116,-8.4,,270,36,45,,0.00,,,TRUE,TRUE,,,,,,,,,,,,,,,VFR,,,,,,,,,,,,METAR,4
CWQS 220400Z AUTO 00000KT RMK AO1 53004,CWQS,2024-03-22T04:00:00Z,53.316,-132.772,,,0,0,,,0.00,,,TRUE,TRUE,,,,,,,,,,,,,,,VFR,0.04,,,,,,,,,,,METAR,10
CWQR 220400Z AUTO 02019KT M01/M02 RMK AO1 PK WND 03024/0345 T10091019,CWQR,2024-03-22T04:00:00Z,50.221,-64.207,-0.9,-1.9,20,19,,,0.00,,,TRUE,TRUE,,,,,,,,,,,,,,,VFR,,,,,,,,,,,,METAR,9
CWQP 220400Z AUTO 31012G20KT M05/M14 RMK AO1 PK WND 32026/0301 SLP287 T10521137 53017,CWQP,2024-03-22T04:00:00Z,43.84,-77.153,-5.2,-13.7,310,12,20,,0.00,1028.7,,TRUE,TRUE,,,,,,,,,,,,,,,VFR,0.17,,,,,,,,,,,METAR,77
CWQO 220400Z AUTO 30037G43KT M06/M06 RMK AO1 PK WND 30044/0339 T10551056,CWQO,2024-03-22T04:00:00Z,48.416,-68.893,-5.5,-5.6,300,37,43,,0.00,,,TRUE,TRUE,,,,,,,,,,,,,,,VFR,,,,,,,,,,,,METAR,7
CWQK 220400Z AUTO 03008KT 11/06 RMK AO1 SLP180 T01060058 56003,CWQK,2024-03-22T04:00:00Z,48.298,-123.531,10.6,5.8,30,8,,,0.00,1018,,TRUE,TRUE,,,,,,,,,,,,,,,VFR,-0.03,,,,,,,,,,,METAR,5
CWQH 220400Z AUTO 29015G26KT M08/M16 RMK AO1 PK WND 28027/0334 SLP207 T10821158 51024,CWQH,2024-03-22T04:00:00Z,45.369,-71.824,-8.2,-15.8,290,15,26,,0.00,1020.7,,TRUE,TRUE,,,,,,,,,,,,,,,VFR,0.24,,,,,,,,,,,METAR,181
CWPZ 220400Z AUTO 00000KT M00/M06 RMK AO1 SOG 13 3011 SLP206 T10021057,CWPZ,2024-03-22T04:00:00Z,54.383,-125.959,-0.2,-5.7,0,0,,,0.00,1020.6,,TRUE,TRUE,,,,,,,,,,,,,,,VFR,,,,,,,,,,,,METAR,715
CWPR 220400Z AUTO 34001KT 06/M00 RMK AO1 SLP186 T00571002 53008,CWPR,2024-03-22T04:00:00Z,49.468,-120.514,5.7,-0.2,340,1,,,0.00,1018.6,,TRUE,TRUE,,,,,,,,,,,,,,,VFR,0.08,,,,,,,,,,,METAR,703
CWPO 220400Z AUTO 06009KT M08/M13 RMK AO1 SOG 02 3017 SLP278 T10771130,CWPO,2024-03-22T04:00:00Z,49.191,-98.905,-7.7,-13,60,9,,,0.00,1027.8,,TRUE,TRUE,,,,,,,,,,,,,,,VFR,,,,,,,,,,,,METAR,471
CWPK 220400Z AUTO 36007KT M17/M22 RMK AO1 SOG 28 1021 PK WND 00017/0320 SLP244 T11681222,CWPK,2024-03-22T04:00:00Z,47.922,-74.624,-16.8,-22.2,360,7,,,0.00,1024.4,,TRUE,TRUE,,,,,,,,,,,,,,,VFR,,,,,,,,,,,,METAR,443
CWPE 220400Z AUTO 28011G22KT M03/M10 RMK AO1 SOG 01 2016 PK WND 30022/0318 SLP075 T10341102,CWPE,2024-03-22T04:00:00Z,45.058,-66.459,-3.4,-10.2,280,11,22,,0.00,1007.5,,TRUE,TRUE,,,,,,,,,,,,,,,VFR,,,,,,,,,,,,METAR,9
CWPD 220400Z AUTO 03006KT M16/M20 RMK AO1 3025 PK WND 02020/0342 SLP141 T11621198 50004,CWPD,2024-03-22T04:00:00Z,47.562,-71.229,-16.2,-19.8,30,6,,,0.00,1014.1,,TRUE,TRUE,,,,,,,,,,,,,,,VFR,0.04,,,,,,,,,,,METAR,795
CWOY 220400Z AUTO 32001KT M11/M16 RMK AO1 SOG 01 1016 SLP302 T11101159,CWOY,2024-03-22T04:00:00Z,51.767,-104.2,-11,-15.9,320,1,,,0.00,1030.2,,TRUE,TRUE,,,,,,,,,,,,,,,VFR,,,,,,,,,,,,METAR,557
CWOD 220400Z AUTO 30021G29KT M14/M19 RMK AO1 SOG 22 1026 PK WND 30032/0323 SLP191 T11371191,CWOD,2024-03-22T04:00:00Z,48.842,-72.546,-13.7,-19.1,300,21,29,,0.00,1019.1,,TRUE,TRUE,,,,,,,,,,,,,,,VFR,,,,,,,,,,,,METAR,150
CWOC 220400Z AUTO 27009G17KT M03/M04 RMK AO1 SOG 24 3002 PK WND 27017/0359 SLP939 T10291037,CWOC,2024-03-22T04:00:00Z,48.012,-65.332,-2.9,-3.7,270,9,17,,0.00,993.9,,TRUE,TRUE,,,,,,,,,,,,,,,VFR,,,,,,,,,,,,METAR,42
CWNZ 220400Z AUTO 17001KT M20/M23 RMK AO1 SOG 06 1004 SLP271 T12041229,CWNZ,2024-03-22T04:00:00Z,49.747,-84.164,-20.4,-22.9,170,1,,,0.00,1027.1,,TRUE,TRUE,,,,,,,,,,,,,,,VFR,,,,,,,,,,,,METAR,261
CWNQ 220400Z AUTO 30011G18KT M08/M16 RMK AO1 PK WND 29021/0319 SLP219 T10791157 51027,CWNQ,2024-03-22T04:00:00Z,46.226,-72.657,-7.9,-15.7,300,11,18,,0.00,1021.9,,TRUE,TRUE,,,,,,,,,,,,,,,VFR,0.27,,,,,,,,,,,METAR,9
CWNP 220400Z AUTO 13004KT 06/01 RMK AO1 SOG 03 2015 SLP175 T00590005,CWNP,2024-03-22T04:00:00Z,50.269,-117.817,5.9,0.5,130,4,,,0.00,1017.5,,TRUE,TRUE,,,,,,,,,,,,,,,VFR,,,,,,,,,,,,METAR,517
CWNM 220400Z AUTO 17002KT 06/01 RMK AO1 SLP171 T00550012 51017,CWNM,2024-03-22T04:00:00Z,49.491,-117.305,5.5,1.2,170,2,,,0.00,1017.1,,TRUE,TRUE,,,,,,,,,,,,,,,VFR,0.17,,,,,,,,,,,METAR,533
CWNK 220400Z AUTO 01006KT M07/M16 RMK AO1 SLP281 T10741160 51020,CWNK,2024-03-22T04:00:00Z,49.498,-98.03,-7.4,-16,10,6,,,0.00,1028.1,,TRUE,TRUE,,,,,,,,,,,,,,,VFR,0.2,,,,,,,,,,,METAR,271
CWNH 220400Z AUTO 28006G16KT M09/M14 RMK AO1 SOG 19 3034 PK WND 31022/0314 SLP081 T10871141,CWNH,2024-03-22T04:00:00Z,47.806,-69.548,-8.7,-14.1,280,6,16,,0.00,1008.1,,TRUE,TRUE,,,,,,,,,,,,,,,VFR,,,,,,,,,,,,METAR,147
CWNE 220400Z AUTO 23034G40KT M03/M07 RMK AO1 PK WND 22040/0350 SLP967 T10291066 53013,CWNE,2024-03-22T04:00:00Z,47.058,-63.997,-2.9,-6.6,230,34,40,,0.00,996.7,,TRUE,TRUE,,,,,,,,,,,,,,,VFR,0.13,,,,,,,,,,,METAR,5
CWND 220400Z AUTO 11012KT M15/M17 RMK AO1 SLP162 T11501169 56019,CWND,2024-03-22T04:00:00Z,69.632,-135.445,-15,-16.9,110,12,,,0.00,1016.2,,TRUE,TRUE,,,,,,,,,,,,,,,VFR,-0.19,,,,,,,,,,,METAR,14
CWNC 220400Z AUTO 28004KT M06/M12 RMK AO1 SLP286 T10591124 53013,CWNC,2024-03-22T04:00:00Z,43.951,-78.165,-5.9,-12.4,280,4,,,0.00,1028.6,,TRUE,TRUE,,,,,,,,,,,,,,,VFR,0.13,,,,,,,,,,,METAR,71
CWMT 220400Z AUTO 13003KT M29/M33 RMK AO1 SOG 38 6006 SLP394 T12881334,CWMT,2024-03-22T04:00:00Z,63.134,-117.245,-28.8,-33.4,130,3,,,0.00,1039.4,,TRUE,TRUE,,,,,,,,,,,,,,,VFR,,,,,,,,,,,,METAR,274
CWMQ 220400Z AUTO 06002KT M09/M10 RMK AO1 SOG 18 1028 SLP293 T10851096 50002,CWMQ,2024-03-22T04:00:00Z,49.903,-109.466,-8.5,-9.6,60,2,,,0.00,1029.3,,TRUE,TRUE,,,,,,,,,,,,,,,VFR,0.02,,,,,,,,,,,METAR,767
CWMM 220400Z AUTO 04002KT 10/06 RMK AO1 SLP190 T00990059 53003,CWMM,2024-03-22T04:00:00Z,49.208,-122.69,9.9,5.9,40,2,,,0.00,1019,,TRUE,TRUE,,,,,,,,,,,,,,,VFR,0.03,,,,,,,,,,,METAR,2
CWMJ 220400Z AUTO 34008KT M12/M19 RMK AO1 SOG 01 3016 SLP268 T11201187,CWMJ,2024-03-22T04:00:00Z,46.275,-75.992,-12,-18.7,340,8,,,0.00,1026.8,,TRUE,TRUE,,,,,,,,,,,,,,,VFR,,,,,,,,,,,,METAR,198
CWME 220400Z AUTO 18003KT RMK AO1 53003,CWME,2024-03-22T04:00:00Z,52.187,-127.471,,,180,3,,,0.00,,,TRUE,TRUE,,,,,,,,,,,,,,,VFR,0.03,,,,,,,,,,,METAR,23
CWLY 220400Z AUTO 16003KT 120V180 9SM OVC055 09/05 A3004 RMK SLP181,CWLY,2024-03-22T04:00:00Z,50.224,-121.582,9,5,160,3,,9,30.04,1018.1,,TRUE,,,,,,,,OVC,5500,,,,,,,VFR,,,,,,,,,,,,METAR,228
CWLS 220400Z AUTO 18003KT M11/M14 RMK AO1 SOG 03 1009 SLP285 T11091137,CWLS,2024-03-22T04:00:00Z,43.983,-80.74,-10.9,-13.7,180,3,,,0.00,1028.5,,TRUE,TRUE,,,,,,,,,,,,,,,VFR,,,,,,,,,,,,METAR,413
CWLP 220400Z AUTO 26011KT 09/07 RMK AO1 SLP175 T00890067 53004,CWLP,2024-03-22T04:00:00Z,50.94,-127.632,8.9,6.7,260,11,,,0.00,1017.5,,TRUE,TRUE,,,,,,,,,,,,,,,VFR,0.04,,,,,,,,,,,METAR,15
CWLM 220400Z AUTO 01006KT 10/06 RMK AO1 SLP175 T00960061 56003,CWLM,2024-03-22T04:00:00Z,48.413,-123.325,9.6,6.1,10,6,,,0.00,1017.5,,TRUE,TRUE,,,,,,,,,,,,,,,VFR,-0.03,,,,,,,,,,,METAR,62
CWLE 220400Z AUTO 05008KT M08/M13 RMK AO1 SLP302 T10801129 51021,CWLE,2024-03-22T04:00:00Z,50.951,-107.143,-8,-12.9,50,8,,,0.00,1030.2,,TRUE,TRUE,,,,,,,,,,,,,,,VFR,0.21,,,,,,,,,,,METAR,666
CWLC 220400Z AUTO 35002KT 07/05 RMK AO1 T00730052,CWLC,2024-03-22T04:00:00Z,54.296,-130.609,7.3,5.2,350,2,,,0.00,,,TRUE,TRUE,,,,,,,,,,,,,,,VFR,,,,,,,,,,,,METAR,27
CWLB 220400Z AUTO 08007KT M09/M11 RMK AO1 SOG 03 3026 SLP322 T10851109 50007,CWLB,2024-03-22T04:00:00Z,54.769,-112.024,-8.5,-10.9,80,7,,,0.00,1032.2,,TRUE,TRUE,,,,,,,,,,,,,,,VFR,0.07,,,,,,,,,,,METAR,561
CWKX 220400Z AUTO 36007KT 01/M08 RMK AO1 SOG 27 3012 SLP234 T00141081,CWKX,2024-03-22T04:00:00Z,58.429,-130.011,1.4,-8.1,360,7,,,0.00,1023.4,,TRUE,TRUE,,,,,,,,,,,,,,,VFR,,,,,,,,,,,,METAR,807
CWKO 220400Z AUTO 04003KT M08/M10 RMK AO1 SOG 04 1023 SLP274 T10841102 50004,CWKO,2024-03-22T04:00:00Z,49.168,-105.979,-8.4,-10.2,40,3,,,0.00,1027.4,,TRUE,TRUE,,,,,,,,,,,,,,,VFR,0.04,,,,,,,,,,,METAR,914
CWKM 220400Z AUTO 26007KT ////SM ////// M09/M11 A2994,CWKM,2024-03-22T04:00:00Z,69.595,-140.174,-9,-11,260,7,,,29.94,,,TRUE,,,,,,,,,,,,,,,,VFR,,,,,,,,,,,,METAR,8
CWKK 220400Z AUTO 14005KT M16/M20 RMK AO1 SOG 16 2003 SLP271 T11611196,CWKK,2024-03-22T04:00:00Z,49.713,-88.332,-16.1,-19.6,140,5,,,0.00,1027.1,,TRUE,TRUE,,,,,,,,,,,,,,,VFR,,,,,,,,,,,,METAR,259
CWKH 220400Z AUTO 07/05 RMK AO1 SLP172 T00720048 56002,CWKH,2024-03-22T04:00:00Z,48.568,-123.542,7.2,4.8,,,,,0.00,1017.2,,TRUE,TRUE,,,,,,,,,,,,,,,VFR,-0.02,,,,,,,,,,,METAR,327
CWKG 220400Z AUTO 27009G22KT M03/M08 RMK AO1 PK WND 29022/0351 SLP085 T10311081 51022,CWKG,2024-03-22T04:00:00Z,44.432,-65.203,-3.1,-8.1,270,9,22,,0.00,1008.5,,TRUE,TRUE,,,,,,,,,,,,,,,VFR,0.22,,,,,,,,,,,METAR,154
CWJX 220400Z AUTO 08007KT M07/M12 RMK AO1 SOG 02 3025 SLP297 T10651117,CWJX,2024-03-22T04:00:00Z,50.876,-109.501,-6.5,-11.7,80,7,,,0.00,1029.7,,TRUE,TRUE,,,,,,,,,,,,,,,VFR,,,,,,,,,,,,METAR,671
CWJW 220400Z AUTO 04006KT M02/M08 RMK AO1 SLP240 T10151083 51014,CWJW,2024-03-22T04:00:00Z,52.926,-118.03,-1.5,-8.3,40,6,,,0.00,1024,,TRUE,TRUE,,,,,,,,,,,,,,,VFR,0.14,,,,,,,,,,,METAR,1022
CWJV 220400Z AUTO 10003KT 07/M00 RMK AO1 SLP172 T00681001 51010,CWJV,2024-03-22T04:00:00Z,50.223,-119.194,6.8,-0.1,100,3,,,0.00,1017.2,,TRUE,TRUE,,,,,,,,,,,,,,,VFR,0.1,,,,,,,,,,,METAR,487
CWJU 220400Z AUTO 33006KT 06/05 RMK AO1 SLP195 T00610048 53002,CWJU,2024-03-22T04:00:00Z,54.255,-133.058,6.1,4.8,330,6,,,0.00,1019.5,,TRUE,TRUE,,,,,,,,,,,,,,,VFR,0.02,,,,,,,,,,,METAR,47
CWJT 220400Z AUTO 30002KT M12/M18 RMK AO1 SLP247 T11161179 51019,CWJT,2024-03-22T04:00:00Z,46.08,-74.556,-11.6,-17.9,300,2,,,0.00,1024.7,,TRUE,TRUE,,,,,,,,,,,,,,,VFR,0.19,,,,,,,,,,,METAR,236
CWJR 220400Z AUTO 12006KT 08/02 RMK AO1 SLP171 T00750017 51012,CWJR,2024-03-22T04:00:00Z,49.04,-116.483,7.5,1.7,120,6,,,0.00,1017.1,,TRUE,TRUE,,,,,,,,,,,,,,,VFR,0.12,,,,,,,,,,,METAR,642
CWJO 220400Z AUTO 29015G23KT M12/M14 RMK AO1 2PAST HR 3033 PK WND 29026/0317 SLP156 P0001 T11191143 50012,CWJO,2024-03-22T04:00:00Z,48.425,-71.143,-11.9,-14.3,290,15,23,,0.00,1015.6,,TRUE,TRUE,,,,,,,,,,,,,,,VFR,0.12,,,,,0.01,,,,,,METAR,113
CWJI 220400Z AUTO 04011KT M07/M13 RMK AO1 SLP279 T10701127 51026,CWJI,2024-03-22T04:00:00Z,49.729,-105.946,-7,-12.7,40,11,,,0.00,1027.9,,TRUE,TRUE,,,,,,,,,,,,,,,VFR,0.26,,,,,,,,,,,METAR,724
CWJH 220400Z AUTO 34005KT M19/M26 RMK AO1 SOG 40 1025 SLP339 T11931262,CWJH,2024-03-22T04:00:00Z,56.333,-103.283,-19.3,-26.2,340,5,,,0.00,1033.9,,TRUE,TRUE,,,,,,,,,,,,,,,VFR,,,,,,,,,,,,METAR,345
CWJD 220400Z AUTO 31003KT M18/M23 RMK AO1 SOG 22 3019 SLP296 T11831232,CWJD,2024-03-22T04:00:00Z,53.187,-99.268,-18.3,-23.2,310,3,,,0.00,1029.6,,TRUE,TRUE,,,,,,,,,,,,,,,VFR,,,,,,,,,,,,METAR,222
CWJC 220400Z AUTO 00035KT M26/M29 RMK AO1 SOG 02 1005 SLP338 T12641292,CWJC,2024-03-22T04:00:00Z,61.132,-100.884,-26.4,-29.2,VRB,35,,,0.00,1033.8,,TRUE,TRUE,,,,,,,,,,,,,,,VFR,,,,,,,,,,,,METAR,340
CWJB 220400Z AUTO 36005KT M10/M16 RMK AO1 SOG 40 PK WND 33017/0310 T10951163,CWJB,2024-03-22T04:00:00Z,46.781,-71.288,-9.5,-16.3,360,5,,,0.00,,,TRUE,TRUE,,,,,,,,,,,,,,,VFR,,,,,,,,,,,,METAR,90
CWIZ 220400Z AUTO 31007G16KT M08/M16 RMK AO1 PK WND 31017/0300 T10771159,CWIZ,2024-03-22T04:00:00Z,45.294,-73.35,-7.7,-15.9,310,7,16,,0.00,,,TRUE,TRUE,,,,,,,,,,,,,,,VFR,,,,,,,,,,,,METAR,45
CWIW 220400Z AUTO 36004KT M09/M15 RMK AO1 SLP305 T10881154 51018,CWIW,2024-03-22T04:00:00Z,51.667,-105.4,-8.8,-15.4,360,4,,,0.00,1030.5,,TRUE,TRUE,,,,,,,,,,,,,,,VFR,0.18,,,,,,,,,,,METAR,524
CWIT 220400Z AUTO 30011G20KT M07/M17 RMK AO1 PK WND 29020/0331 SLP242 T10731168 51030,CWIT,2024-03-22T04:00:00Z,45.167,-73.678,-7.3,-16.8,300,11,20,,0.00,1024.2,,TRUE,TRUE,,,,,,,,,,,,,,,VFR,0.3,,,,,,,,,,,METAR,53
CWIS 220400Z AUTO 32014G25KT M15/M19 RMK AO1 SOG 99 1021 PK WND 31027/0301 SLP087 T11471190,CWIS,2024-03-22T04:00:00Z,47.284,-70.637,-14.7,-19,320,14,25,,0.00,1008.7,,TRUE,TRUE,,,,,,,,,,,,,,,VFR,,,,,,,,,,,,METAR,720
CWIP 220400Z AUTO 35009G16KT M01/M01 RMK AO1 PK WND 35018/0343 T10071008,CWIP,2024-03-22T04:00:00Z,50.162,-66.434,-0.7,-0.8,350,9,16,,0.00,,,TRUE,TRUE,,,,,,,,,,,,,,,VFR,,,,,,,,,,,,METAR,27
CWIK 220400Z AUTO 01003KT M10/M16 RMK AO1 SLP289 T11031161 51020,CWIK,2024-03-22T04:00:00Z,50.366,-102.567,-10.3,-16.1,10,3,,,0.00,1028.9,,TRUE,TRUE,,,,,,,,,,,,,,,VFR,0.2,,,,,,,,,,,METAR,597
CWIJ 220400Z AUTO 26007KT M26/M28 RMK AO1 SOG 72 6001 SLP388 T12561284,CWIJ,2024-03-22T04:00:00Z,65.756,-111.246,-25.6,-28.4,260,7,,,0.00,1038.8,,TRUE,TRUE,,,,,,,,,,,,,,,VFR,,,,,,,,,,,,METAR,490
CWII 220400Z AUTO 29001KT M11/M16 RMK AO1 SLP283 T11111157 52008,CWII,2024-03-22T04:00:00Z,50.695,-96.562,-11.1,-15.7,290,1,,,0.00,1028.3,,TRUE,TRUE,,,,,,,,,,,,,,,VFR,0.08,,,,,,,,,,,METAR,216
CWIG 220400Z AUTO 26019G25KT RMK AO1 PK WND 25030/0319,CWIG,2024-03-22T04:00:00Z,47.074,-70.533,,,260,19,25,,0.00,,,TRUE,TRUE,,,,,,,,,,,,,,,VFR,,,,,,,,,,,,METAR,12
CWID 220400Z AUTO 11003KT M22/M28 RMK AO1 SLP396 T12231282 53005,CWID,2024-03-22T04:00:00Z,61.317,-117.605,-22.3,-28.2,110,3,,,0.00,1039.6,,TRUE,TRUE,,,,,,,,,,,,,,,VFR,0.05,,,,,,,,,,,METAR,160
CWHV 220400Z AUTO 29006G16KT M10/M14 RMK AO1 1030 PK WND 31018/0320 SLP158 T11031135 50002,CWHV,2024-03-22T04:00:00Z,46.205,-70.785,-10.3,-13.5,290,6,16,,0.00,1015.8,,TRUE,TRUE,,,,,,,,,,,,,,,VFR,0.02,,,,,,,,,,,METAR,227
CWHT 220400Z AUTO 06001KT M02/M08 RMK AO1 SOG 41 5000 SLP232 T10151077,CWHT,2024-03-22T04:00:00Z,60.773,-137.581,-1.5,-7.7,60,1,,,0.00,1023.2,,TRUE,TRUE,,,,,,,,,,,,,,,VFR,,,,,,,,,,,,METAR,601
CWHQ 220400Z AUTO 29010G16KT M10/M18 RMK AO1 PK WND 28023/0310 T10961179,CWHQ,2024-03-22T04:00:00Z,46.691,-71.972,-9.6,-17.9,290,10,16,,0.00,,,TRUE,TRUE,,,,,,,,,,,,,,,VFR,,,,,,,,,,,,METAR,56
CWHO 220400Z AUTO 00006KT M08/M09 RMK AO1 SLP159 T10771094 58012,CWHO,2024-03-22T04:00:00Z,55.448,-60.23,-7.7,-9.4,VRB,6,,,0.00,1015.9,,TRUE,TRUE,,,,,,,,,,,,,,,VFR,-0.12,,,,,,,,,,,METAR,16
CWHI 220400Z AUTO 24004KT M14/M15 RMK AO1 4PAST HR M P0002 T11391152 50004,CWHI,2024-03-22T04:00:00Z,51.697,-113.217,-13.9,-15.2,240,4,,,0.00,,,TRUE,TRUE,,,,,,,,,,,,,,,VFR,0.04,,,,,0.02,,,,,,METAR,906
CWGY 220400Z AUTO 12009KT M09/M11 RMK AO1 SLP300 T10851109 52017,CWGY,2024-03-22T04:00:00Z,51.67,-110.206,-8.5,-10.9,120,9,,,0.00,1030,,TRUE,TRUE,,,,,,,,,,,,,,,VFR,0.17,,,,,,,,,,,METAR,709
CWGW 220400Z AUTO 16003KT M03/M07 RMK AO1 SOG 09 2025 SLP251 T10291066 50004,CWGW,2024-03-22T04:00:00Z,49.745,-114.884,-2.9,-6.6,160,3,,,0.00,1025.1,,TRUE,TRUE,,,,,,,,,,,,,,,VFR,0.04,,,,,,,,,,,METAR,1137
CWGT 220400Z AUTO 07003KT 10/06 RMK AO1 SLP182 T00990061 56003,CWGT,2024-03-22T04:00:00Z,49.487,-124.435,9.9,6.1,70,3,,,0.00,1018.2,,TRUE,TRUE,,,,,,,,,,,,,,,VFR,-0.03,,,,,,,,,,,METAR,5
CWGR 220400Z AUTO 21019G27KT M02/M06 RMK AO1 PK WND 21031/0333 SLP986 T10171063 53002,CWGR,2024-03-22T04:00:00Z,47.425,-61.775,-1.7,-6.3,210,19,27,,0.00,998.6,,TRUE,TRUE,,,,,,,,,,,,,,,VFR,0.02,,,,,,,,,,,METAR,4
CWGM 220400Z AUTO 08004KT M07/M09 RMK AO1 1PAST HR SOG 10 1022 SLP283 P0000 T10701087 50021,CWGM,2024-03-22T04:00:00Z,49.133,-113.806,-7,-8.7,80,4,,,0.00,1028.3,,TRUE,TRUE,,,,,,,,,,,,,,,VFR,0.21,,,,,0.005,,,,,,METAR,1292
CWGL 220400Z AUTO 05002KT M08/M13 RMK AO1 SLP264 T10781129 53004,CWGL,2024-03-22T04:00:00Z,44.55,-79.218,-7.8,-12.9,50,2,,,0.00,1026.4,,TRUE,TRUE,,,,,,,,,,,,,,,VFR,0.04,,,,,,,,,,,METAR,220
CWGH 220400Z AUTO 35001KT M06/M16 RMK AO1 SLP272 T10601161 51026,CWGH,2024-03-22T04:00:00Z,44.417,-75.847,-6,-16.1,350,1,,,0.00,1027.2,,TRUE,TRUE,,,,,,,,,,,,,,,VFR,0.26,,,,,,,,,,,METAR,76
CWGD 220400Z AUTO 09007KT M08/M11 RMK AO1 SLP283 T10801106 50005,CWGD,2024-03-22T04:00:00Z,43.765,-81.712,-8,-10.6,90,7,,,0.00,1028.3,,TRUE,TRUE,,,,,,,,,,,,,,,VFR,0.05,,,,,,,,,,,METAR,214
CWGB 220400Z AUTO 10007KT 09/08 RMK AO1 SLP181 T00930076 55001,CWGB,2024-03-22T04:00:00Z,49.336,-124.149,9.3,7.6,100,7,,,0.00,1018.1,,TRUE,TRUE,,,,,,,,,,,,,,,VFR,-0.01,,,,,,,,,,,METAR,6
CWFQ 220400Z AUTO 32006KT M08/M16 RMK AO1 SOG 04 1022 SLP225 T10831158,CWFQ,2024-03-22T04:00:00Z,45.05,-72.861,-8.3,-15.8,320,6,,,0.00,1022.5,,TRUE,TRUE,,,,,,,,,,,,,,,VFR,,,,,,,,,,,,METAR,190
CWFJ 220400Z AUTO 29002KT M07/M08 RMK AO1 2021 SLP281 T10711084 50008,CWFJ,2024-03-22T04:00:00Z,49.2,-113.278,-7.1,-8.4,290,2,,,0.00,1028.1,,TRUE,TRUE,,,,,,,,,,,,,,,VFR,0.08,,,,,,,,,,,METAR,1142
CWFF 220400Z AUTO 36003KT M10/M18 RMK AO1 SLP302 T11021182 51016,CWFF,2024-03-22T04:00:00Z,52.817,-104.601,-10.2,-18.2,360,3,,,0.00,1030.2,,TRUE,TRUE,,,,,,,,,,,,,,,VFR,0.16,,,,,,,,,,,METAR,482
CWEZ 220400Z AUTO 32003KT 09/07 RMK AO1 SLP182 T00900074 56004,CWEZ,2024-03-22T04:00:00Z,48.783,-123.046,9,7.4,320,3,,,0.00,1018.2,,TRUE,TRUE,,,,,,,,,,,,,,,VFR,-0.04,,,,,,,,,,,METAR,23
CWEW 220400Z AUTO 29008KT M08/M16 RMK AO1 PK WND 31020/0317 SLP239 T10841155 51024,CWEW,2024-03-22T04:00:00Z,45.809,-73.435,-8.4,-15.5,290,8,,,0.00,1023.9,,TRUE,TRUE,,,,,,,,,,,,,,,VFR,0.24,,,,,,,,,,,METAR,17
CWER 220400Z AUTO 27016G26KT RMK AO1 PK WND 28029/0321,CWER,2024-03-22T04:00:00Z,46.997,-70.808,,,270,16,26,,0.00,,,TRUE,TRUE,,,,,,,,,,,,,,,VFR,,,,,,,,,,,,METAR,4
CWEQ 220400Z AUTO 04005KT M10/M17 RMK AO1 SOG 01 3021 SLP294 T10981169,CWEQ,2024-03-22T04:00:00Z,52.115,-101.233,-9.8,-16.9,40,5,,,0.00,1029.4,,TRUE,TRUE,,,,,,,,,,,,,,,VFR,,,,,,,,,,,,METAR,331
CWEP 220400Z AUTO 22018G25KT M02/M06 RMK AO1 PK WND 23031/0330 SLP012 T10181058 53005,CWEP,2024-03-22T04:00:00Z,46.46,-61.988,-1.8,-5.8,220,18,25,,0.00,1001.2,,TRUE,TRUE,,,,,,,,,,,,,,,VFR,0.05,,,,,,,,,,,METAR,9
CWEL 220400Z AUTO 08005KT 09/08 RMK AO1 SLP182 T00930083 55001,CWEL,2024-03-22T04:00:00Z,49.209,-123.808,9.3,8.3,80,5,,,0.00,1018.2,,TRUE,TRUE,,,,,,,,,,,,,,,VFR,-0.01,,,,,,,,,,,METAR,
CWEH 220400Z AUTO 05006KT M09/M11 RMK AO1 1PAST HR SOG 16 2024 SLP273 P0000 T10941112 50002,CWEH,2024-03-22T04:00:00Z,49.438,-108.989,-9.4,-11.2,50,6,,,0.00,1027.3,,TRUE,TRUE,,,,,,,,,,,,,,,VFR,0.02,,,,,0.005,,,,,,METAR,1077
CWEF 220400Z AUTO 20015G21KT 01/M05 RMK AO1 PK WND 21021/0300 SLP999 T00051051 52004,CWEF,2024-03-22T04:00:00Z,47.226,-60.141,0.5,-5.1,200,15,21,,0.00,999.9,,TRUE,TRUE,,,,,,,,,,,,,,,VFR,0.04,,,,,,,,,,,METAR,27
CWDZ 220400Z AUTO 26002KT M10/M12 RMK AO1 SLP299 T11021118 51021,CWDZ,2024-03-22T04:00:00Z,51.445,-112.677,-10.2,-11.8,260,2,,,0.00,1029.9,,TRUE,TRUE,,,,,,,,,,,,,,,VFR,0.21,,,,,,,,,,,METAR,689
CWDV 220400Z AUTO 00000KT M17/M20 RMK AO1 SOG 03 3005 SLP262 T11681195,CWDV,2024-03-22T04:00:00Z,49.033,-90.467,-16.8,-19.5,0,0,,,0.00,1026.2,,TRUE,TRUE,,,,,,,,,,,,,,,VFR,,,,,,,,,,,,METAR,487
CWDQ 220400Z AUTO 32014G21KT M12/M20 RMK AO1 PK WND 31022/0303 SLP213 T11191198 51024,CWDQ,2024-03-22T04:00:00Z,47.415,-72.788,-11.9,-19.8,320,14,21,,0.00,1021.3,,TRUE,TRUE,,,,,,,,,,,,,,,VFR,0.24,,,,,,,,,,,METAR,174
CWDO 220400Z AUTO 19010G16KT 03/03 RMK AO1 5PAST HR 8029 SLP001 P0002 T00300030 50026,CWDO,2024-03-22T04:00:00Z,49.688,-54.8,3,3,190,10,16,,0.00,1000.1,,TRUE,TRUE,,,,,,,,,,,,,,,VFR,0.26,,,,,0.02,,,,,,METAR,89
CWDM 220400Z AUTO 20008KT M01/M02 RMK AO1 SOG 25 6007 PK WND 11018/0300 SLP984 T10091021 50016,CWDM,2024-03-22T04:00:00Z,50.465,-59.64,-0.9,-2.1,200,8,,,0.00,998.4,,TRUE,TRUE,,,,,,,,,,,,,,,VFR,0.16,,,,,,,,,,,METAR,2
CWDK 220400Z AUTO 31003KT M07/M09 RMK AO1 SOG 12 1021 SLP299 T10741090,CWDK,2024-03-22T04:00:00Z,50.006,-113.631,-7.4,-9,310,3,,,0.00,1029.9,,TRUE,TRUE,,,,,,,,,,,,,,,VFR,,,,,,,,,,,,METAR,1014
CWDJ 220400Z AUTO 04007KT M07/M16 RMK AO1 SLP290 T10741164 51021,CWDJ,2024-03-22T04:00:00Z,50.408,-104.58,-7.4,-16.4,40,7,,,0.00,1029,,TRUE,TRUE,,,,,,,,,,,,,,,VFR,0.21,,,,,,,,,,,METAR,576
CWDC 220400Z AUTO 07003KT M24/M28 RMK AO1 SOG 48 3011 SLP382 T12411280,CWDC,2024-03-22T04:00:00Z,59.56,-108.487,-24.1,-28,70,3,,,0.00,1038.2,,TRUE,TRUE,,,,,,,,,,,,,,,VFR,,,,,,,,,,,,METAR,311
CWDA 220400Z AUTO 07005KT M01/M01 RMK AO1 4PAST HR PRESFR SOG 47 6071 SLP010 P0017 T10061010 50103,CWDA,2024-03-22T04:00:00Z,50.721,-56.113,-0.6,-1,70,5,,,0.00,1001,,TRUE,TRUE,,,,,,,,,,,,,,,VFR,,,,,,0.17,,,,,,METAR,30
CWCT 220400Z AUTO 13006KT M07/M08 RMK AO1 1PAST HR 3017 SLP297 P0000 T10671079 50004,CWCT,2024-03-22T04:00:00Z,52.074,-111.448,-6.7,-7.9,130,6,,,0.00,1029.7,,TRUE,TRUE,,,,,,,,,,,,,,,VFR,0.04,,,,,0.005,,,,,,METAR,793
CWCJ 220400Z AUTO 05005KT M14/M18 RMK AO1 SOG 08 3003 SLP272 T11391178,CWCJ,2024-03-22T04:00:00Z,48.588,-86.295,-13.9,-17.8,50,5,,,0.00,1027.2,,TRUE,TRUE,,,,,,,,,,,,,,,VFR,,,,,,,,,,,,METAR,207
CWCF 220400Z AUTO 28004KT M18/M22 RMK AO1 SOG 08 1012 SLP285 T11801219,CWCF,2024-03-22T04:00:00Z,52.36,-97.022,-18,-21.9,280,4,,,0.00,1028.5,,TRUE,TRUE,,,,,,,,,,,,,,,VFR,,,,,,,,,,,,METAR,219
CWBZ 220400Z AUTO 31009G15KT M07/M16 RMK AO1 PK WND 29019/0324 SLP254 T10721157 53030,CWBZ,2024-03-22T04:00:00Z,45.121,-74.289,-7.2,-15.7,310,9,15,,0.00,1025.4,,TRUE,TRUE,,,,,,,,,,,,,,,VFR,0.3,,,,,,,,,,,METAR,49
CWBY 220400Z AUTO 04009KT M01/M02 RMK AO1 7PAST HR SOG 15 6030 PK WND 05021/0341 SLP925 P0003 T10121019 50035,CWBY,2024-03-22T04:00:00Z,49.839,-64.293,-1.2,-1.9,40,9,,,0.00,992.5,,TRUE,TRUE,,,,,,,,,,,,,,,VFR,0.35,,,,,0.03,,,,,,METAR,56
CWBV 220400Z AUTO 24027G33KT 00/M05 RMK AO1 PK WND 23037/0328 SLP043 T00001046 53013,CWBV,2024-03-22T04:00:00Z,44.825,-62.338,0,-4.6,240,27,33,,0.00,1004.3,,TRUE,TRUE,,,,,,,,,,,,,,,VFR,0.13,,,,,,,,,,,METAR,16
CWBU 220400Z AUTO 02009KT M10/M23 RMK AO1 SLP308 T11041230 51026,CWBU,2024-03-22T04:00:00Z,53.333,-104.005,-10.4,-23,20,9,,,0.00,1030.8,,TRUE,TRUE,,,,,,,,,,,,,,,VFR,0.26,,,,,,,,,,,METAR,369
CWBT 220400Z AUTO 03005KT M01/M02 RMK AO1 2PAST HR 6037 SLP932 P0001 T10081015 50010,CWBT,2024-03-22T04:00:00Z,50.271,-64.226,-0.8,-1.5,30,5,,,0.00,993.2,,TRUE,TRUE,,,,,,,,,,,,,,,VFR,0.1,,,,,0.01,,,,,,METAR,12
CWBS 220400Z AUTO 29022G27KT M08/M15 RMK AO1 PK WND 29029/0338 T10751153,CWBS,2024-03-22T04:00:00Z,46.189,-72.916,-7.5,-15.3,290,22,27,,0.00,,,TRUE,TRUE,,,,,,,,,,,,,,,VFR,,,,,,,,,,,,METAR,3
CWBO 220400Z AUTO 00000KT M07/M08 RMK AO1 SOG 14 1022 SLP293 T10661077 50002,CWBO,2024-03-22T04:00:00Z,50.55,-111.849,-6.6,-7.7,0,0,,,0.00,1029.3,,TRUE,TRUE,,,,,,,,,,,,,,,VFR,0.02,,,,,,,,,,,METAR,752
CWBK 220400Z AUTO 25011G22KT M02/M06 RMK AO1 3PAST HR 3014 PK WND 23023/0316 SLP032 P0001 T10181055 50005,CWBK,2024-03-22T04:00:00Z,45.764,-62.681,-1.8,-5.5,250,11,22,,0.00,1003.2,,TRUE,TRUE,,,,,,,,,,,,,,,VFR,0.05,,,,,0.01,,,,,,METAR,2
CWBA 220400Z AUTO 03003KT M14/M16 RMK AO1 SOG 06 T11401162,CWBA,2024-03-22T04:00:00Z,46.71,-79.101,-14,-16.2,30,3,,,0.00,,,TRUE,TRUE,,,,,,,,,,,,,,,VFR,,,,,,,,,,,,METAR,181
CWAV 220400Z AUTO 14003KT M07/M09 RMK AO1 SOG 16 3014 SLP282 T10731092,CWAV,2024-03-22T04:00:00Z,51.777,-114.681,-7.3,-9.2,140,3,,,0.00,1028.2,,TRUE,TRUE,,,,,,,,,,,,,,,VFR,,,,,,,,,,,,METAR,1115
CWAR 220400Z AUTO 18017KT 01/01 RMK AO1 9PAST HR SOG 13 3022 PK WND 18023/0302 SLP091 P0004 T00100005 50076,CWAR,2024-03-22T04:00:00Z,47.294,-53.993,1,0.5,180,17,,,0.00,1009.1,,TRUE,TRUE,,,,,,,,,,,,,,,VFR,0.76,,,,,0.04,,,,,,METAR,6
CWAQ 220400Z AUTO 02005KT M09/M10 RMK AO1 1025 SLP272 T10861100 50003,CWAQ,2024-03-22T04:00:00Z,49.05,-105.483,-8.6,-10,20,5,,,0.00,1027.2,,TRUE,TRUE,,,,,,,,,,,,,,,VFR,0.03,,,,,,,,,,,METAR,761
CWAF 220400Z AUTO 30050G61KT M08/M10 RMK AO1 PK WND 28062/0342 T10761096,CWAF,2024-03-22T04:00:00Z,48.069,-69.556,-7.6,-9.6,300,50,61,,0.00,,,TRUE,TRUE,,,,,,,,,,,,,,,VFR,,,,,,,,,,,,METAR,6
CTRA 220400Z AUTO 34003KT M11/M19 RMK AO1 SOG 07 3010 SLP262 T11131191,CTRA,2024-03-22T04:00:00Z,49.664,-93.733,-11.3,-19.1,340,3,,,0.00,1026.2,,TRUE,TRUE,,,,,,,,,,,,,,,VFR,,,,,,,,,,,,METAR,432
CTNK 220400Z AUTO 00000KT M18/M20 RMK AO1 SLP281 T11771203 53010,CTNK,2024-03-22T04:00:00Z,45.533,-78.266,-17.7,-20.3,0,0,,,0.00,1028.1,,TRUE,TRUE,,,,,,,,,,,,,,,VFR,0.1,,,,,,,,,,,METAR,405
CTCK 220400Z AUTO 30007KT M08/M18 RMK AO1 PK WND 32018/0340 SLP270 T10821179 51028,CTCK,2024-03-22T04:00:00Z,45.251,-74.963,-8.2,-17.9,300,7,,,0.00,1027,,TRUE,TRUE,,,,,,,,,,,,,,,VFR,0.28,,,,,,,,,,,METAR,84
CPSV 220400Z AUTO 03006KT M10/M11 RMK AO1 T10991107 50004,CPSV,2024-03-22T04:00:00Z,49.92,-110.915,-9.9,-10.7,30,6,,,0.00,,,TRUE,TRUE,,,,,,,,,,,,,,,VFR,0.04,,,,,,,,,,,METAR,766
CPST 220400Z AUTO 22001KT M10/M12 RMK AO1 T11041115 50004,CPST,2024-03-22T04:00:00Z,51.02,-113.27,-10.4,-11.5,220,1,,,0.00,,,TRUE,TRUE,,,,,,,,,,,,,,,VFR,0.04,,,,,,,,,,,METAR,1005
CPRY 220400Z AUTO 28002KT M08/M08 RMK AO1 T10771080 50006,CPRY,2024-03-22T04:00:00Z,49.488,-112.674,-7.7,-8,280,2,,,0.00,,,TRUE,TRUE,,,,,,,,,,,,,,,VFR,0.06,,,,,,,,,,,METAR,947
CPRO 220400Z AUTO 28002KT M06/M07 RMK AO1 4PAST HR M P0002 T10551070 50004,CPRO,2024-03-22T04:00:00Z,50.826,-112.06,-5.5,-7,280,2,,,0.00,,,TRUE,TRUE,,,,,,,,,,,,,,,VFR,0.04,,,,,0.02,,,,,,METAR,733
CPIN 220400Z AUTO 17004KT ////SM ////// M28/M30 A3057,CPIN,2024-03-22T04:00:00Z,-99.99,-99.99,-28,-30,170,4,,,30.57,,,TRUE,,,,,,,,,,,,,,,,VFR,,,,,,,,,,,,METAR,9999
CPFI 220400Z AUTO 29002KT M07/M07 RMK AO1 T10701071,CPFI,2024-03-22T04:00:00Z,49.805,-112.037,-7,-7.1,290,2,,,0.00,,,TRUE,TRUE,,,,,,,,,,,,,,,VFR,,,,,,,,,,,,METAR,804
CPEH 220400Z AUTO M07/M08 RMK AO1 T10651075 50005,CPEH,2024-03-22T04:00:00Z,50.172,-112.438,-6.5,-7.5,,,,,0.00,,,TRUE,TRUE,,,,,,,,,,,,,,,VFR,0.05,,,,,,,,,,,METAR,814
CPBT 220400Z AUTO 31004KT M08/M08 RMK AO1 T10771083,CPBT,2024-03-22T04:00:00Z,49.543,-113.049,-7.7,-8.3,310,4,,,0.00,,,TRUE,TRUE,,,,,,,,,,,,,,,VFR,,,,,,,,,,,,METAR,998
CMGB 220400Z AUTO 29008KT M08/M17 RMK AO1 PK WND 30017/0346 SLP234 T10791166 51026,CMGB,2024-03-22T04:00:00Z,45.373,-72.774,-7.9,-16.6,290,8,,,0.00,1023.4,,TRUE,TRUE,,,,,,,,,,,,,,,VFR,0.26,,,,,,,,,,,METAR,87
CMFM 220400Z AUTO 30013G30KT M15/M19 RMK AO1 SOG 70 1020 PK WND 31030/0351 SLP122 T11521190 50002,CMFM,2024-03-22T04:00:00Z,47.323,-71.148,-15.2,-19,300,13,30,,0.00,1012.2,,TRUE,TRUE,,,,,,,,,,,,,,,VFR,0.02,,,,,,,,,,,METAR,663
CERM 220400Z AUTO 31010G16KT M08/M11 RMK AO1 2PAST HR SOG 18 3032 PK WND 28020/0320 SLP043 P0001 T10831110 50005,CERM,2024-03-22T04:00:00Z,47.417,-68.325,-8.3,-11,310,10,16,,0.00,1004.3,,TRUE,TRUE,,,,,,,,,,,,,,,VFR,0.05,,,,,0.01,,,,,,METAR,151
CBBC 220400Z AUTO 00000KT 9SM FEW060 BKN110 05/03 A3005 RMK ICE MISG SLP179,CBBC,2024-03-22T04:00:00Z,52.181,-128.154,5,3,0,0,,9,30.05,1017.9,,TRUE,,,,,,,,FEW,6000,BKN,11000,,,,,VFR,,,,,,,,,,,,METAR,36
CAHR 220400Z AUTO 23019G27KT M03/M08 RMK AO1 PK WND 23033/0330 SLP006 T10321083 53013,CAHR,2024-03-22T04:00:00Z,46.344,-63.17,-3.2,-8.3,230,19,27,,0.00,1000.6,,TRUE,TRUE,,,,,,,,,,,,,,,VFR,0.13,,,,,,,,,,,METAR,52
BIRK 220400Z 35025KT 9999 -SN FEW020 OVC030 00/M03 Q0990,BIRK,2024-03-22T04:00:00Z,64.129,-21.941,0,-3,350,25,,6+,29.23,,,,,,,,,,-SN,FEW,2000,OVC,3000,,,,,MVFR,,,,,,,,,,,,METAR,12
BIKF 220400Z 34026KT 2000 -SN OVC015 M01/M03 Q0992,BIKF,2024-03-22T04:00:00Z,63.987,-22.614,-1,-3,340,26,,1.24,29.29,,,,,,,,,,-SN,OVC,1500,,,,,,,IFR,,,,,,,,,,,,METAR,49
BIEG 220400Z 02008KT 9999 OVC014 02/01 Q0973,BIEG,2024-03-22T04:00:00Z,65.275,-14.409,2,1,20,8,,6+,28.73,,,,,,,,,,,OVC,1400,,,,,,,MVFR,,,,,,,,,,,,METAR,20
BIAR 220400Z 33026KT 4000 -SN FEW007 OVC011 00/M00 Q0984,BIAR,2024-03-22T04:00:00Z,65.655,-18.069,0,0,330,26,,2.49,29.06,,,,,,,,,,-SN,FEW,700,OVC,1100,,,,,IFR,,,,,,,,,,,,METAR,1
AYPY 220400Z 32005KT 9999 SCT025 SCT040 29/- Q1009 RMK/ DP NOT AVBL,AYPY,2024-03-22T04:00:00Z,-9.443,147.216,,,320,5,,6+,29.79,,,,,,,,,,,SCT,2500,SCT,4000,,,,,VFR,,,,,,,,,,,,METAR,44
AYMH 220400Z 04006G14KT 9999 BKN025 22/17 1021 RMKS: SHRA TO W/NW/SW,AYMH,2024-03-22T04:00:00Z,-5.831,144.3,22,17,40,6,14,6+,0.00,,,,,,,,,,,BKN,2500,,,,,,,MVFR,,,,,,,,,,,,METAR,1634
SVMI 220359Z 00000KT 9999 BKN016 24/21 Q1012,SVMI,2024-03-22T03:59:00Z,10.603,-66.991,24,21,0,0,,6+,29.88,,,,,,,,,,,BKN,1600,,,,,,,MVFR,,,,,,,,,,,,METAR,48
PKMJ 220359Z 02012KT 20SM FEW015 SCT050 BKN300 31/25 A2983 ,PKMJ,2024-03-22T03:59:00Z,7.065,171.269,31,25,20,12,,20,29.83,,,,,,,,,,,FEW,1500,SCT,5000,BKN,30000,,,VFR,,,,,,,,,,,,METAR,2
MUCF 220359Z AUTO 08007KT 050V110 23/17 Q1016,MUCF,2024-03-22T03:59:00Z,22.159,-80.41,23,17,80,7,,,30.00,,,TRUE,,,,,,,,,,,,,,,,VFR,,,,,,,,,,,,METAR,35
MTPP 220359Z AUTO /////KT 9000 ////// ///// Q//// A//// NOSIG,MTPP,2024-03-22T03:59:00Z,18.577,-72.305,,,,,,5.59,0.00,,,TRUE,,,TRUE,,,,,,,,,,,,,VFR,,,,,,,,,,,,METAR,36
KP92 220359Z AUTO 11007KT 16/14 A2990 RMK AO1 SLP125 T01610144,KP92,2024-03-22T03:59:00Z,29.559,-91.525,16.1,14.4,110,7,,,29.90,1012.5,,TRUE,TRUE,,,,,,,,,,,,,,,VFR,,,,,,,,,,,,METAR,1
KNOZ 220359Z AUTO 15006KT CLR 20/03 A3000 RMK AO2 SLP109 T02000033 PWINO $,KNOZ,2024-03-22T03:59:00Z,32.55,-114.512,20,3.3,150,6,,,30.00,1010.9,,TRUE,TRUE,TRUE,,,,TRUE,,CLR,,,,,,,,VFR,,,,,,,,,,,,METAR,78
KNGU 220359Z 11005KT 10SM CLR 06/01 A3029 RMK AO2 SLP257 T00610006 $,KNGU,2024-03-22T03:59:00Z,36.937,-76.281,6.1,0.6,110,5,,10+,30.29,1025.7,,,TRUE,TRUE,,,,,,CLR,,,,,,,,VFR,,,,,,,,,,,,METAR,3
KROG 220358Z 12005KT 10SM FEW110 14/06 A2997 RMK AO2 SLP144 T01440056,KROG,2024-03-22T03:58:00Z,36.3749,-94.1078,14.4,5.6,120,5,,10+,29.97,1014.4,,,TRUE,,,,,,,FEW,11000,,,,,,,VFR,,,,,,,,,,,,METAR,407
KPRN 220358Z AUTO 20005KT 10SM OVC095 16/06 A3003 RMK AO2 SLP118 T01610061 PWINO $,KPRN,2024-03-22T03:58:00Z,31.8467,-86.6141,16.1,6.1,200,5,,10+,30.03,1011.8,,TRUE,TRUE,TRUE,,,,TRUE,,OVC,9500,,,,,,,VFR,,,,,,,,,,,,METAR,137
KMRH 220358Z AUTO 06005KT 10SM CLR 11/00 A3025 RMK AO2 SLP242 T01060000,KMRH,2024-03-22T03:58:00Z,34.7326,-76.6566,10.6,0,60,5,,10+,30.25,1024.2,,TRUE,TRUE,,,,,,,CLR,,,,,,,,VFR,,,,,,,,,,,,METAR,2
KMEI 220358Z AUTO 00000KT 10SM CLR 16/09 A2998 RMK AO2 SLP150 T01560089,KMEI,2024-03-22T03:58:00Z,32.3348,-88.7507,15.6,8.9,0,0,,10+,29.98,1015,,TRUE,TRUE,,,,,,,CLR,,,,,,,,VFR,,,,,,,,,,,,METAR,90
KEUF 220358Z AUTO 00000KT 10SM OVC100 15/09 A3005 RMK AO2 SLP172 T01500094,KEUF,2024-03-22T03:58:00Z,31.9516,-85.1312,15,9.4,0,0,,10+,30.05,1017.2,,TRUE,TRUE,,,,,,,OVC,10000,,,,,,,VFR,,,,,,,,,,,,METAR,87
KBKF 220358Z 29015G22KT 10SM FEW090 SCT140 BKN220 13/M06 A2995 RMK AO2A SLP095 T01271063,KBKF,2024-03-22T03:58:00Z,39.713,-104.758,12.7,-6.3,290,15,22,10+,29.95,1009.5,,,TRUE,,,,,,,FEW,9000,SCT,14000,BKN,22000,,,VFR,,,,,,,,,,,,METAR,1703
KBCR 220358Z AUTO 00000KT 10SM OVC085 17/10 A3007 RMK AO2 SLP138 T01670100,KBCR,2024-03-22T03:58:00Z,30.8432,-85.6043,16.7,10,0,0,,10+,30.07,1013.8,,TRUE,TRUE,,,,,,,OVC,8500,,,,,,,VFR,,,,,,,,,,,,METAR,26
KATT 220358Z AUTO 00000KT 5SM BR CLR 16/15 A2987 RMK AO2 TSE52 T01560150,KATT,2024-03-22T03:58:00Z,30.3208,-97.7604,15.6,15,0,0,,5,29.87,,,TRUE,TRUE,,,,,,BR,CLR,,,,,,,,MVFR,,,,,,,,,,,,SPECI,203
K0J4 220358Z AUTO 20003KT 10SM SCT090 16/07 A3007 RMK AO2 SLP177 T01610067,K0J4,2024-03-22T03:58:00Z,31.0447,-86.3119,16.1,6.7,200,3,,10+,30.07,1017.7,,TRUE,TRUE,,,,,,,SCT,9000,,,,,,,VFR,,,,,,,,,,,,METAR,96
RKSG 220357Z 16012KT 7SM BKN065 BKN140 17/M03 A2988 RMK AO2A SLP122,RKSG,2024-03-22T03:57:00Z,36.962,127.031,17,-3,160,12,,7,29.88,1012.2,,,TRUE,,,,,,,BKN,6500,BKN,14000,,,,,VFR,,,,,,,,,,,,METAR,12
PHNG 220357Z 06015KT 7SM FEW036 26/14 A3012 RMK AO2 SLP195 T02560144,PHNG,2024-03-22T03:57:00Z,21.45,-157.763,25.6,14.4,60,15,,7,30.12,1019.5,,,TRUE,,,,,,,FEW,3600,,,,,,,VFR,,,,,,,,,,,,METAR,1
KNYL 220357Z 20006KT 7SM CLR 21/06 A2998 RMK AO2 SLP150 T02110061,KNYL,2024-03-22T03:57:00Z,32.66,-114.608,21.1,6.1,200,6,,7,29.98,1015,,,TRUE,,,,,,,CLR,,,,,,,,VFR,,,,,,,,,,,,METAR,58
KNJW 220357Z AUTO 00000KT 10SM OVC110 15/07 A3001 RMK AO2 SLP078 T01500072 $,KNJW,2024-03-22T03:57:00Z,32.792,-88.832,15,7.2,0,0,,10+,30.01,1007.8,,TRUE,TRUE,TRUE,,,,,,OVC,11000,,,,,,,VFR,,,,,,,,,,,,METAR,165
KNJM 220357Z AUTO 06006KT 9SM CLR 09/06 A3025 RMK AO2 SLP246 T00890061,KNJM,2024-03-22T03:57:00Z,34.694,-77.029,8.9,6.1,60,6,,9,30.25,1024.6,,TRUE,TRUE,,,,,,,CLR,,,,,,,,VFR,,,,,,,,,,,,METAR,5
KMNM 220357Z AUTO 20007KT 10SM CLR M02/M09 A3025 RMK AO2 SLP266 T10221089 FZRANO PNO $,KMNM,2024-03-22T03:57:00Z,45.126,-87.639,-2.2,-8.9,200,7,,10+,30.25,1026.6,,TRUE,TRUE,TRUE,,,TRUE,,,CLR,,,,,,,,VFR,,,,,,,,,,,,METAR,188
KFLG 220357Z AUTO 22006KT 10SM CLR 05/M03 A3021 RMK AO2 SLP176 T00501028,KFLG,2024-03-22T03:57:00Z,35.1443,-111.666,5,-2.8,220,6,,10+,30.21,1017.6,,TRUE,TRUE,,,,,,,CLR,,,,,,,,VFR,,,,,,,,,,,,METAR,2134
KBKB 220357Z AUTO 00000KT 1 3/4SM BR OVC002 12/12 A2994 RMK AO2 PRESRR T01220117,KBKB,2024-03-22T03:57:00Z,31.022,-92.911,12.2,11.7,0,0,,1.75,29.94,,,TRUE,TRUE,,,,,,BR,OVC,200,,,,,,,LIFR,,,,,,,,,,,,SPECI,74
TJSJ 220356Z 06012KT 10SM FEW022 27/23 A3002 RMK AO2 SLP165 T02670228 403060256,TJSJ,2024-03-22T03:56:00Z,18.4326,-66.0107,26.7,22.8,60,12,,10+,30.02,1016.5,,,TRUE,,,,,,,FEW,2200,,,,,,,VFR,,,,,,,,,,,,METAR,3
ROTM 220356Z 14010G18KT 9999 SCT040 SCT100 21/11 A3006 RMK SLP181 T02100111,ROTM,2024-03-22T03:56:00Z,26.271,127.754,21,11.1,140,10,18,6+,30.06,1018.1,,,,,,,,,,SCT,4000,SCT,10000,,,,,VFR,,,,,,,,,,,,METAR,80
RJOI 220356Z 21004KT 9999 BKN250 12/01 A3017 RMK AO2 SLP215 T01170006,RJOI,2024-03-22T03:56:00Z,34.144,132.236,11.7,0.6,210,4,,6+,30.17,1021.5,,,TRUE,,,,,,,BKN,25000,,,,,,,VFR,,,,,,,,,,,,METAR,2
PPIZ 220356Z AUTO 12005KT 9SM UP OVC023 00/M02 A2958 RMK AO2 UPE36B54SNB36E54 SLP021 P0000 T00001017 FZRANO,PPIZ,2024-03-22T03:56:00Z,69.735,-163.003,0,-1.7,120,5,,9,29.58,1002.1,,TRUE,TRUE,,,,TRUE,,UP,OVC,2300,,,,,,,MVFR,,,,,,0.005,,,,,,METAR,5
PPIT 220356Z AUTO 11012KT 10SM OVC036 02/M01 A2954 RMK AO2 SLP008 T00171006 FZRANO TSNO,PPIT,2024-03-22T03:56:00Z,60.905,-162.443,1.7,-0.6,110,12,,10+,29.54,1000.8,,TRUE,TRUE,,,TRUE,TRUE,,,OVC,3600,,,,,,,VFR,,,,,,,,,,,,METAR,4
PHNY 220356Z AUTO 03021G28KT 10SM CLR 20/13 A3014 RMK AO2 PK WND 03030/0346 SLP188 T02000133,PHNY,2024-03-22T03:56:00Z,20.783,-156.955,20,13.3,30,21,28,10+,30.14,1018.8,,TRUE,TRUE,,,,,,,CLR,,,,,,,,VFR,,,,,,,,,,,,METAR,395
PFYU 220356Z AUTO 00000KT 10SM CLR M07/M12 A3006 RMK AO2 SLP198 T10671117 FZRANO,PFYU,2024-03-22T03:56:00Z,66.572,-145.243,-6.7,-11.7,0,0,,10+,30.06,1019.8,,TRUE,TRUE,,,,TRUE,,,CLR,,,,,,,,VFR,,,,,,,,,,,,METAR,130
PFWS 220356Z AUTO 15031G38KT 10SM BKN090 BKN100 03/01 RMK AO2 PK WND 15043/0321 SLPNO T00330006 $,PFWS,2024-03-22T03:56:00Z,58.704,-157.005,3.3,0.6,150,31,38,10+,0.00,,,TRUE,TRUE,TRUE,,,,,,BKN,9000,BKN,10000,,,,,VFR,,,,,,,,,,,,METAR,40
PFTO 220356Z AUTO 10006KT 10SM CLR 03/M07 A2997 RMK AO2 SLP803 T00281072 $,PFTO,2024-03-22T03:56:00Z,63.329,-142.954,2.8,-7.2,100,6,,10+,29.97,980.3,,TRUE,TRUE,TRUE,,,,,,CLR,,,,,,,,VFR,,,,,,,,,,,,METAR,500
PFSH 220356Z AUTO 11012KT 10SM -RA FEW028 BKN036 OVC043 02/00 A2969 RMK AO2 SLP053 P0000 T00170000 FZRANO,PFSH,2024-03-22T03:56:00Z,64.367,-161.217,1.7,0,110,12,,10+,29.69,1005.3,,TRUE,TRUE,,,,TRUE,,-RA,FEW,2800,BKN,3600,OVC,4300,,,VFR,,,,,,0.005,,,,,,METAR,6
PFEL 220356Z AUTO 17010KT 10SM -RA OVC010 01/00 A2967 RMK AO2 SLP050 P0002 T00110000 FZRANO,PFEL,2024-03-22T03:56:00Z,64.616,-162.272,1.1,0,170,10,,10+,29.67,1005,,TRUE,TRUE,,,,TRUE,,-RA,OVC,1000,,,,,,,MVFR,,,,,,0.02,,,,,,METAR,50
PFCL 220356Z AUTO 13029G34KT 10SM OVC085 02/02 A2967 RMK AO2 PK WND 13039/0338 SLP039 T00170017 FZRANO TSNO,PFCL,2024-03-22T03:56:00Z,58.837,-158.526,1.7,1.7,130,29,34,10+,29.67,1003.9,,TRUE,TRUE,,,TRUE,TRUE,,,OVC,8500,,,,,,,VFR,,,,,,,,,,,,METAR,23
PAZK 220356Z AUTO 02004KT 10SM CLR M04/M08 A2998 RMK AO2 SLP218 T10391078 FZRANO,PAZK,2024-03-22T03:56:00Z,61.938,-147.169,-3.9,-7.8,20,4,,10+,29.98,1021.8,,TRUE,TRUE,,,,TRUE,,,CLR,,,,,,,,VFR,,,,,,,,,,,,METAR,1002
PAWS 220356Z AUTO 00000KT 10SM CLR 04/M03 A3008 RMK AO2 SLP191 T00391033,PAWS,2024-03-22T03:56:00Z,61.571,-149.538,3.9,-3.3,0,0,,10+,30.08,1019.1,,TRUE,TRUE,,,,,,,CLR,,,,,,,,VFR,,,,,,,,,,,,METAR,102
PAWN 220356Z AUTO 15015G24KT 10SM -RA OVC006 01/01 A2964 RMK AO2 PK WND 15026/0331 UPB15E18B35E39RAB39SNE15B18E35 SLP048 P0000 T00110006 FZRANO,PAWN,2024-03-22T03:56:00Z,67.567,-162.977,1.1,0.6,150,15,24,10+,29.64,1004.8,,TRUE,TRUE,,,,TRUE,,-RA,OVC,600,,,,,,,IFR,,,,,,0.005,,,,,,METAR,26
PAVD 220356Z 00000KT 10SM BKN200 03/M03 A3022 RMK AO2 SLP233 T00281028 $,PAVD,2024-03-22T03:56:00Z,61.133,-146.251,2.8,-2.8,0,0,,10+,30.22,1023.3,,,TRUE,TRUE,,,,,,BKN,20000,,,,,,,VFR,,,,,,,,,,,,METAR,21
PAUN 220356Z AUTO 09013KT 10SM FEW050 BKN065 BKN085 04/M01 A2969 RMK AO2 SLP056 T00391011,PAUN,2024-03-22T03:56:00Z,63.885,-160.794,3.9,-1.1,90,13,,10+,29.69,1005.6,,TRUE,TRUE,,,,,,,FEW,5000,BKN,6500,BKN,8500,,,VFR,,,,,,,,,,,,METAR,4
PATQ 220356Z AUTO 15014KT 10SM FEW070 M03/M04 A2966 RMK AO2 SLP049 T10281039 FZRANO TSNO,PATQ,2024-03-22T03:56:00Z,70.469,-157.428,-2.8,-3.9,150,14,,10+,29.66,1004.9,,TRUE,TRUE,,,TRUE,TRUE,,,FEW,7000,,,,,,,VFR,,,,,,,,,,,,METAR,28
PASY 220356Z 10005KT 10SM OVC050 01/M08 A2959 RMK AO2A SLP021 ALSTG/SLP ESTMD WND DATA ESTMD T00141076 PNO FZRANO $,PASY,2024-03-22T03:56:00Z,52.711,174.107,1.4,-7.6,100,5,,10+,29.59,1002.1,,,TRUE,TRUE,,,TRUE,,,OVC,5000,,,,,,,VFR,,,,,,,,,,,,METAR,6
PASX 220356Z AUTO 00000KT 10SM CLR 04/M02 A3008 RMK AO2 SLP193 T00441017,PASX,2024-03-22T03:56:00Z,60.476,-151.053,4.4,-1.7,0,0,,10+,30.08,1019.3,,TRUE,TRUE,,,,,,,CLR,,,,,,,,VFR,,,,,,,,,,,,METAR,28
PASM 220356Z AUTO 13018G23KT 9SM OVC030 03/M01 A2957 RMK AO2 RAE43 SLP023 P0000 T00281011,PASM,2024-03-22T03:56:00Z,62.057,-163.298,2.8,-1.1,130,18,23,9,29.57,1002.3,,TRUE,TRUE,,,,,,,OVC,3000,,,,,,,MVFR,,,,,,0.005,,,,,,METAR,108
PASL 220356Z AUTO 15012G15KT 10SM CLR 04/M02 A2981 RMK AO2 SLP087 T00441017,PASL,2024-03-22T03:56:00Z,61.697,-157.167,4.4,-1.7,150,12,15,10+,29.81,1008.7,,TRUE,TRUE,,,,,,,CLR,,,,,,,,VFR,,,,,,,,,,,,METAR,64
PASK 220356Z AUTO 12014KT 10SM -RA OVC025 01/00 A2975 RMK AO2 SLP071 P0002 T00110000 FZRANO,PASK,2024-03-22T03:56:00Z,66.599,-159.991,1.1,0,120,14,,10+,29.75,1007.1,,TRUE,TRUE,,,,TRUE,,-RA,OVC,2500,,,,,,,MVFR,,,,,,0.02,,,,,,METAR,3
PASA 220356Z AUTO 18003KT 10SM CLR M03/M07 A2955 RMK AO2 SLP007 T10331072 FZRANO,PASA,2024-03-22T03:56:00Z,63.689,-170.49,-3.3,-7.2,180,3,,10+,29.55,1000.7,,TRUE,TRUE,,,,TRUE,,,CLR,,,,,,,,VFR,,,,,,,,,,,,METAR,9
PARY 220356Z AUTO 07007KT 10SM CLR 01/M06 A2983 RMK AO2 SLP115 T00061061 FZRANO,PARY,2024-03-22T03:56:00Z,64.731,-155.463,0.6,-6.1,70,7,,10+,29.83,1011.5,,TRUE,TRUE,,,,TRUE,,,CLR,,,,,,,,VFR,,,,,,,,,,,,METAR,185
PAPN 220356Z AUTO 14021G29KT 9SM SCT027 SCT046 BKN055 05/01 A2971 RMK AO2 PK WND 13032/0312 SLP061 T00500011,PAPN,2024-03-22T03:56:00Z,57.578,-157.569,5,1.1,140,21,29,9,29.71,1006.1,,TRUE,TRUE,,,,,,,SCT,2700,SCT,4600,BKN,5500,,,VFR,,,,,,,,,,,,METAR,19
PAPH 220356Z AUTO 14027G34KT 10SM CLR 06/03 A2960 RMK AO2 PK WND 14036/0327 PRESFR SLP024 T00560028 $,PAPH,2024-03-22T03:56:00Z,56.959,-158.631,5.6,2.8,140,27,34,10+,29.60,1002.4,,TRUE,TRUE,TRUE,,,,,,CLR,,,,,,,,VFR,,,,,,,,,,,,METAR,29
PAPG 220356Z 00000KT 10SM CLR 02/M02 A3010 RMK AO2 SLP197 T00171017,PAPG,2024-03-22T03:56:00Z,56.805,-132.935,1.7,-1.7,0,0,,10+,30.10,1019.7,,,TRUE,,,,,,,CLR,,,,,,,,VFR,,,,,,,,,,,,METAR,24
PAPE 220356Z AUTO 16012G24KT 3SM -RA BR BKN010 OVC014 05/03 A2967 RMK AO2 PK WND 17038/0301 CIG 006V011 SLP045 P0001 T00500033,PAPE,2024-03-22T03:56:00Z,55.9096,-159.16,5,3.3,160,12,24,3,29.67,1004.5,,TRUE,TRUE,,,,,,-RA BR,BKN,1000,OVC,1400,,,,,MVFR,,,,,,0.01,,,,,,METAR,15
PAOU 220356Z AUTO 20018KT 10SM -RA BKN033 OVC041 03/01 A2950 RMK AO2 RAB46 SLP989 T00330011 PNO $,PAOU,2024-03-22T03:56:00Z,56.006,-161.162,3.3,1.1,200,18,,10+,29.50,998.9,,TRUE,TRUE,TRUE,,,,,-RA,BKN,3300,OVC,4100,,,,,VFR,,,,,,,,,,,,METAR,3
PAOH 220356Z AUTO 09003KT 10SM CLR 01/M02 A3012 RMK AO2 SLP199 T00111017 FZRANO,PAOH,2024-03-22T03:56:00Z,58.108,-135.448,1.1,-1.7,90,3,,10+,30.12,1019.9,,TRUE,TRUE,,,,TRUE,,,CLR,,,,,,,,VFR,,,,,,,,,,,,METAR,
PANV 220356Z AUTO 12010G16KT 10SM CLR 04/M03 A2965 RMK AO2 SLP122 T00391028 TSNO,PANV,2024-03-22T03:56:00Z,62.647,-160.191,3.9,-2.8,120,10,16,10+,29.65,1012.2,,TRUE,TRUE,,,TRUE,,,,CLR,,,,,,,,VFR,,,,,,,,,,,,METAR,91
PANA 220356Z AUTO 10SM OVC041 03/M01 A2956 RMK AO2 SLP010 T00331006,PANA,2024-03-22T03:56:00Z,60.694,-161.978,3.3,-0.6,,,,10+,29.56,1001,,TRUE,TRUE,,,,,,,OVC,4100,,,,,,,VFR,,,,,,,,,,,,METAR,7
PAMM 220356Z AUTO 09003KT 10SM CLR 06/03 A3009 RMK AO2 SLP283 T00610033 $,PAMM,2024-03-22T03:56:00Z,55.131,-131.578,6.1,3.3,90,3,,10+,30.09,1028.3,,TRUE,TRUE,TRUE,,,,,,CLR,,,,,,,,VFR,,,,,,,,,,,,METAR,
PAMK 220356Z AUTO 13012KT 10SM BKN070 OVC085 02/M01 A2963 RMK AO2 SLP036 T00221006 FZRANO,PAMK,2024-03-22T03:56:00Z,63.484,-162.115,2.2,-0.6,130,12,,10+,29.63,1003.6,,TRUE,TRUE,,,,TRUE,,,BKN,7000,OVC,8500,,,,,VFR,,,,,,,,,,,,METAR,31
PALG 220356Z AUTO 09011G18KT 10SM BKN080 04/M01 A2963 RMK AO2 SLP036 T00391006 PNO $,PALG,2024-03-22T03:56:00Z,61.538,-160.34,3.9,-0.6,90,11,18,10+,29.63,1003.6,,TRUE,TRUE,TRUE,,,,,,BKN,8000,,,,,,,VFR,,,,,,,,,,,,METAR,13
PAKP 220356Z AUTO 22013KT 10SM OVC028 M01/M04 A2981 RMK AO2 SLP144 T10061039 FZRANO,PAKP,2024-03-22T03:56:00Z,68.136,-151.74,-0.6,-3.9,220,13,,10+,29.81,1014.4,,TRUE,TRUE,,,,TRUE,,,OVC,2800,,,,,,,MVFR,,,,,,,,,,,,METAR,649
PAKK 220356Z AUTO 14008KT 10SM -RA OVC019 02/01 A2965 RMK AO2 SLP051 P0002 T00170006 FZRANO,PAKK,2024-03-22T03:56:00Z,64.939,-161.156,1.7,0.6,140,8,,10+,29.65,1005.1,,TRUE,TRUE,,,,TRUE,,-RA,OVC,1900,,,,,,,MVFR,,,,,,0.02,,,,,,METAR,56
PAJZ 220356Z AUTO 12022G29KT 10SM OVC042 02/M01 A2988 RMK AO2 PK WND 12029/0353 SLP125 T00171006 FZRANO $,PAJZ,2024-03-22T03:56:00Z,59.727,-157.267,1.7,-0.6,120,22,29,10+,29.88,1012.5,,TRUE,TRUE,TRUE,,,TRUE,,,OVC,4200,,,,,,,VFR,,,,,,,,,,,,METAR,80
PAIW 220356Z AUTO 00000KT 10SM BKN039 OVC050 M04/M07 A2957 RMK AO2 UPB26E40 SLP016 P0000 T10391067 FZRANO,PAIW,2024-03-22T03:56:00Z,65.621,-168.093,-3.9,-6.7,0,0,,10+,29.57,1001.6,,TRUE,TRUE,,,,TRUE,,,BKN,3900,OVC,5000,,,,,VFR,,,,,,0.005,,,,,,METAR,6
PAIG 220356Z AUTO 08012KT 10SM OVC100 02/00 A2982 RMK AO2 SLP108 T00170000 FZRANO,PAIG,2024-03-22T03:56:00Z,59.325,-155.897,1.7,0,80,12,,10+,29.82,1010.8,,TRUE,TRUE,,,,TRUE,,,OVC,10000,,,,,,,VFR,,,,,,,,,,,,METAR,24
PAHY 220356Z AUTO 10003KT 10SM CLR 06/04 A3008 RMK AO2 SLP182 T00610044 $,PAHY,2024-03-22T03:56:00Z,55.202,-132.825,6.1,4.4,100,3,,10+,30.08,1018.2,,TRUE,TRUE,TRUE,,,,,,CLR,,,,,,,,VFR,,,,,,,,,,,,METAR,
PAHC 220356Z AUTO 10003KT 10SM CLR 05/M02 A2967 RMK AO2 SLP054 T00501022,PAHC,2024-03-22T03:56:00Z,62.191,-159.773,5,-2.2,100,3,,10+,29.67,1005.4,,TRUE,TRUE,,,,,,,CLR,,,,,,,,VFR,,,,,,,,,,,,METAR,21
PAGS 220356Z AUTO 00000KT 10SM CLR 03/M02 A3013 RMK AO2 SLP203 T00331017,PAGS,2024-03-22T03:56:00Z,58.425,-135.707,3.3,-1.7,0,0,,10+,30.13,1020.3,,TRUE,TRUE,,,,,,,CLR,,,,,,,,VFR,,,,,,,,,,,,METAR,9
PAGN 220356Z AUTO 00000KT 10SM CLR 03/02 A3012 RMK AO2 SLP190 T00280017,PAGN,2024-03-22T03:56:00Z,57.502,-134.589,2.8,1.7,0,0,,10+,30.12,1019,,TRUE,TRUE,,,,,,,CLR,,,,,,,,VFR,,,,,,,,,,,,METAR,2
PAGL 220356Z AUTO 15022KT 5SM -SN BR BKN012 BKN017 OVC022 01/00 A2964 RMK AO2 PK WND 15030/0331 RAE02B21E49UPB13E21SNB02E13B49 SLP034 P0000 T00060000 FZRANO,PAGL,2024-03-22T03:56:00Z,64.548,-163.013,0.6,0,150,22,,5,29.64,1003.4,,TRUE,TRUE,,,,TRUE,,-SN BR,BKN,1200,BKN,1700,OVC,2200,,,MVFR,,,,,,0.005,,,,,,METAR,20
PAGA 220356Z AUTO 11011KT 10SM CLR 04/M03 A2980 RMK AO2 SLP095 T00391028 TSNO $,PAGA,2024-03-22T03:56:00Z,64.738,-156.92,3.9,-2.8,110,11,,10+,29.80,1009.5,,TRUE,TRUE,TRUE,,TRUE,,,,CLR,,,,,,,,VFR,,,,,,,,,,,,METAR,39
PAFE 220356Z AUTO 05004KT 10SM CLR 03/M01 A3012 RMK AO2 SLP212 T00331006,PAFE,2024-03-22T03:56:00Z,56.961,-133.91,3.3,-0.6,50,4,,10+,30.12,1021.2,,TRUE,TRUE,,,,,,,CLR,,,,,,,,VFR,,,,,,,,,,,,METAR,1
PADU 220356Z AUTO 22009KT 10SM FEW022 BKN100 04/01 A2960 RMK AO2 SLP027 T00440006,PADU,2024-03-22T03:56:00Z,53.896,-166.543,4.4,0.6,220,9,,10+,29.60,1002.7,,TRUE,TRUE,,,,,,,FEW,2200,BKN,10000,,,,,VFR,,,,,,,,,,,,METAR,4
PADL 220356Z 13016G27KT 10SM SCT011 OVC090 02/01 A2973 RMK AO2 PK WND 13027/0351 PRESFR SLP070 T00220011,PADL,2024-03-22T03:56:00Z,59.04,-158.507,2.2,1.1,130,16,27,10+,29.73,1007,,,TRUE,,,,,,,SCT,1100,OVC,9000,,,,,VFR,,,,,,,,,,,,METAR,20
PADK 220356Z AUTO 01009KT 10SM CLR 02/M03 A2964 RMK AO2 SLP038 T00221033 FZRANO $,PADK,2024-03-22T03:56:00Z,51.881,-176.644,2.2,-3.3,10,9,,10+,29.64,1003.8,,TRUE,TRUE,TRUE,,,TRUE,,,CLR,,,,,,,,VFR,,,,,,,,,,,,METAR,3
PACX 220356Z AUTO 12005KT 10SM OVC041 00/M07 A2997 RMK AO2 SLP776 T00001067 FZRANO,PACX,2024-03-22T03:56:00Z,67.252,-150.204,0,-6.7,120,5,,10+,29.97,977.6,,TRUE,TRUE,,,,TRUE,,,OVC,4100,,,,,,,VFR,,,,,,,,,,,,METAR,319
PABV 220356Z AUTO 00000KT 10SM CLR 03/M02 A3007 RMK AO2 SLP190 T00331022,PABV,2024-03-22T03:56:00Z,61.416,-149.511,3.3,-2.2,0,0,,10+,30.07,1019,,TRUE,TRUE,,,,,,,CLR,,,,,,,,VFR,,,,,,,,,,,,METAR,21
PABL 220356Z AUTO 15020KT 10SM CLR 02/01 A2969 RMK AO2 SLP057 T00220006 FZRANO $,PABL,2024-03-22T03:56:00Z,65.979,-161.146,2.2,0.6,150,20,,10+,29.69,1005.7,,TRUE,TRUE,TRUE,,,TRUE,,,CLR,,,,,,,,VFR,,,,,,,,,,,,METAR,7
KYKN 220356Z AUTO 08013KT 10SM FEW120 03/M10 A2995 RMK AO2 SLP167 T00331100,KYKN,2024-03-22T03:56:00Z,42.9142,-97.3807,3.3,-10,80,13,,10+,29.95,1016.7,,TRUE,TRUE,,,,,,,FEW,12000,,,,,,,VFR,,,,,,,,,,,,METAR,388
KWWD 220356Z AUTO 00000KT 10SM CLR 00/M05 A3033 RMK AO2 SLP273 T00001050 FZRANO,KWWD,2024-03-22T03:56:00Z,39.0108,-74.9079,0,-5,0,0,,10+,30.33,1027.3,,TRUE,TRUE,,,,TRUE,,,CLR,,,,,,,,VFR,,,,,,,,,,,,METAR,4
KWVL 220356Z AUTO 27010KT 10SM CLR M06/M13 A2993 RMK AO2 SLP168 T10611128 FZRANO,KWVL,2024-03-22T03:56:00Z,44.5301,-69.6753,-6.1,-12.8,270,10,,10+,29.93,1016.8,,TRUE,TRUE,,,,TRUE,,,CLR,,,,,,,,VFR,,,,,,,,,,,,METAR,87
KWMC 220356Z AUTO 11003KT 10SM CLR 06/M05 A3006 RMK AO2 SLP170 T00561050,KWMC,2024-03-22T03:56:00Z,40.9018,-117.808,5.6,-5,110,3,,10+,30.06,1017,,TRUE,TRUE,,,,,,,CLR,,,,,,,,VFR,,,,,,,,,,,,METAR,1311
KVPZ 220356Z AUTO 12008KT 10SM OVC110 00/M09 A3021 RMK AO2 SLP238 T00001089 TSNO,KVPZ,2024-03-22T03:56:00Z,41.4535,-86.998,0,-8.9,120,8,,10+,30.21,1023.8,,TRUE,TRUE,,,TRUE,,,,OVC,11000,,,,,,,VFR,,,,,,,,,,,,METAR,235
KVIS 220356Z AUTO 29003KT 10SM CLR 18/10 A3008 RMK AO2 SLP194 T01780100,KVIS,2024-03-22T03:56:00Z,36.3135,-119.388,17.8,10,290,3,,10+,30.08,1019.4,,TRUE,TRUE,,,,,,,CLR,,,,,,,,VFR,,,,,,,,,,,,METAR,92
KVBT 220356Z AUTO 13005KT 10SM FEW095 14/06 A2998 RMK AO2 SLP149 T01440061 $,KVBT,2024-03-22T03:56:00Z,36.3444,-94.2211,14.4,6.1,130,5,,10+,29.98,1014.9,,TRUE,TRUE,TRUE,,,,,,FEW,9500,,,,,,,VFR,,,,,,,,,,,,METAR,390
KUKI 220356Z AUTO 18005KT 10SM CLR 15/08 A3007 RMK AO2 SLP180 T01500083,KUKI,2024-03-22T03:56:00Z,39.1278,-123.2,15,8.3,180,5,,10+,30.07,1018,,TRUE,TRUE,,,,,,,CLR,,,,,,,,VFR,,,,,,,,,,,,METAR,183
KUDG 220356Z AUTO 15004KT 10SM CLR 11/07 A3019 RMK AO2 SLP222 T01110072 402280056,KUDG,2024-03-22T03:56:00Z,34.4474,-79.8902,11.1,7.2,150,4,,10+,30.19,1022.2,,TRUE,TRUE,,,,,,,CLR,,,,,,,,VFR,,,,,,,,,,,,METAR,57
KUCP 220356Z AUTO 04005KT CLR M04/M10 A3032 RMK AO2 SLP299 T10391100 RVRNO $,KUCP,2024-03-22T03:56:00Z,41.0228,-80.4153,-3.9,-10,40,5,,,30.32,1029.9,,TRUE,TRUE,TRUE,,,,,,CLR,,,,,,,,VFR,,,,,,,,,,,,METAR,313
KTVF 220356Z AUTO 36004KT 10SM OVC090 M05/M14 A3023 RMK AO2 SLP260 T10501139 FZRANO,KTVF,2024-03-22T03:56:00Z,48.0597,-96.1787,-5,-13.9,360,4,,10+,30.23,1026,,TRUE,TRUE,,,,TRUE,,,OVC,9000,,,,,,,VFR,,,,,,,,,,,,METAR,339
KTPH 220356Z AUTO 00000KT 10SM CLR 07/M08 A3008 RMK AO2 SLP167 T00721083,KTPH,2024-03-22T03:56:00Z,38.0505,-117.091,7.2,-8.3,0,0,,10+,30.08,1016.7,,TRUE,TRUE,,,,,,,CLR,,,,,,,,VFR,,,,,,,,,,,,METAR,1647
KSXT 220356Z AUTO 00000KT 10SM CLR 08/01 A3001 RMK AO2 SLP163 T00830011,KSXT,2024-03-22T03:56:00Z,42.6,-123.366,8.3,1.1,0,0,,10+,30.01,1016.3,,TRUE,TRUE,,,,,,,CLR,,,,,,,,VFR,,,,,,,,,,,,METAR,1151
KSUE 220356Z AUTO 19005KT 10SM CLR M03/M08 A3025 RMK AO2 SLP254 T10281083 FZRANO,KSUE,2024-03-22T03:56:00Z,44.847,-87.425,-2.8,-8.3,190,5,,10+,30.25,1025.4,,TRUE,TRUE,,,,TRUE,,,CLR,,,,,,,,VFR,,,,,,,,,,,,METAR,215
KSRC 220356Z AUTO 36003KT 10SM BKN070 OVC110 13/09 A2999 RMK AO2 SLP153 T01330089,KSRC,2024-03-22T03:56:00Z,35.2134,-91.7393,13.3,8.9,360,3,,10+,29.99,1015.3,,TRUE,TRUE,,,,,,,BKN,7000,OVC,11000,,,,,VFR,,,,,,,,,,,,METAR,80
KSQI 220356Z AUTO 11009KT 10SM FEW085 BKN120 03/M08 A3014 RMK AO2 SLP074 T00281078 PNO $,KSQI,2024-03-22T03:56:00Z,41.7432,-89.6655,2.8,-7.8,110,9,,10+,30.14,1007.4,,TRUE,TRUE,TRUE,,,,,,FEW,8500,BKN,12000,,,,,VFR,,,,,,,,,,,,METAR,196
KSOP 220356Z AUTO 00000KT 10SM CLR 11/03 A3020 RMK AO2 SLP232 T01060028,KSOP,2024-03-22T03:56:00Z,35.2371,-79.3921,10.6,2.8,0,0,,10+,30.20,1023.2,,TRUE,TRUE,,,,,,,CLR,,,,,,,,VFR,,,,,,,,,,,,METAR,135
KSMN 220356Z AUTO 24003KT 10SM OVC090 08/M02 A3006 RMK AO2 SLP183 T00831017,KSMN,2024-03-22T03:56:00Z,45.1283,-113.883,8.3,-1.7,240,3,,10+,30.06,1018.3,,TRUE,TRUE,,,,,,,OVC,9000,,,,,,,VFR,,,,,,,,,,,,METAR,1228
KSLG 220356Z AUTO 12007KT 10SM OVC100 14/08 A2996 RMK AO2 SLP137 T01440083,KSLG,2024-03-22T03:56:00Z,36.1941,-94.488,14.4,8.3,120,7,,10+,29.96,1013.7,,TRUE,TRUE,,,,,,,OVC,10000,,,,,,,VFR,,,,,,,,,,,,METAR,361
KSLE 220356Z AUTO 00000KT 10SM BKN110 13/08 A3003 RMK AO2 SLP168 T01330078,KSLE,2024-03-22T03:56:00Z,44.9049,-123.001,13.3,7.8,0,0,,10+,30.03,1016.8,,TRUE,TRUE,,,,,,,BKN,11000,,,,,,,VFR,,,,,,,,,,,,METAR,63
KSKX 220356Z AUTO 35003KT 10SM FEW110 07/M06 A3008 RMK AO2 SLP170 T00671061,KSKX,2024-03-22T03:56:00Z,36.4584,-105.675,6.7,-6.1,350,3,,10+,30.08,1017,,TRUE,TRUE,,,,,,,FEW,11000,,,,,,,VFR,,,,,,,,,,,,METAR,2163
KSHV 220356Z 12006KT 6SM -RA BKN026 OVC039 14/11 A2993 RMK SLPNO,KSHV,2024-03-22T03:56:00Z,32.4473,-93.8244,14,11,120,6,,6,29.93,,,,,,,,,,-RA,BKN,2600,OVC,3900,,,,,MVFR,,,,,,,,,,,,METAR,70
KSGU 220356Z AUTO 13007KT 10SM CLR 15/M02 A3003 RMK AO2 SLP155 T01501017,KSGU,2024-03-22T03:56:00Z,37.0444,-113.503,15,-1.7,130,7,,10+,30.03,1015.5,,TRUE,TRUE,,,,,,,CLR,,,,,,,,VFR,,,,,,,,,,,,METAR,877
KSGT 220356Z AUTO 03004KT 10SM OVC070 14/12 A2998 RMK AO2 SLP152 T01440117 $,KSGT,2024-03-22T03:56:00Z,34.5998,-91.5763,14.4,11.7,30,4,,10+,29.98,1015.2,,TRUE,TRUE,TRUE,,,,,,OVC,7000,,,,,,,VFR,,,,,,,,,,,,METAR,67
KSGJ 220356Z AUTO 13007KT 10SM HZ FU FEW100 19/16 A3009 RMK AO2 SLP189 T01940161 402170078 PNO $,KSGJ,2024-03-22T03:56:00Z,29.9592,-81.341,19.4,16.1,130,7,,10+,30.09,1018.9,,TRUE,TRUE,TRUE,,,,,HZ FU,FEW,10000,,,,,,,VFR,,,,,,,,,,,,METAR,2
KSGH 220356Z AUTO 08007KT 10SM CLR M03/M08 A3023 RMK AO2 SLP251 T10331083 400501067,KSGH,2024-03-22T03:56:00Z,39.8358,-83.8443,-3.3,-8.3,80,7,,10+,30.23,1025.1,,TRUE,TRUE,,,,,,,CLR,,,,,,,,VFR,,,,,,,,,,,,METAR,318
KSFZ 220356Z AUTO 30012KT 10SM CLR M03/M12 A3018 RMK AO2 SLP226 T10331122 FZRANO $,KSFZ,2024-03-22T03:56:00Z,41.9168,-71.4924,-3.3,-12.2,300,12,,10+,30.18,1022.6,,TRUE,TRUE,TRUE,,,TRUE,,,CLR,,,,,,,,VFR,,,,,,,,,,,,METAR,129
KSFO 220356Z 31007KT 10SM FEW006 SCT180 14/10 A3010 RMK AO2 SLP192 T01390100,KSFO,2024-03-22T03:56:00Z,37.6196,-122.366,13.9,10,310,7,,10+,30.10,1019.2,,,TRUE,,,,,,,FEW,600,SCT,18000,,,,,VFR,,,,,,,,,,,,METAR,2
KSFM 220356Z AUTO 28020G29KT 10SM CLR M03/M13 A3007 RMK AO2 PK WND 26031/0343 SLP186 T10331133 400171050 FZRANO,KSFM,2024-03-22T03:56:00Z,43.3876,-70.7154,-3.3,-13.3,280,20,29,10+,30.07,1018.6,,TRUE,TRUE,,,,TRUE,,,CLR,,,,,,,,VFR,,,,,,,,,,,,METAR,70
KSDY 220356Z AUTO 04007KT 7SM -SN BKN037 OVC050 M07/M08 A3020 RMK AO2 SLP263 P0000 T10671083 FZRANO,KSDY,2024-03-22T03:56:00Z,47.7029,-104.195,-6.7,-8.3,40,7,,7,30.20,1026.3,,TRUE,TRUE,,,,TRUE,,-SN,BKN,3700,OVC,5000,,,,,VFR,,,,,,0.005,,,,,,METAR,600
KSDF 220356Z 08004KT 10SM FEW300 08/M07 A3016 RMK AO2 SLP216 T00781072,KSDF,2024-03-22T03:56:00Z,38.1774,-85.7308,7.8,-7.2,80,4,,10+,30.16,1021.6,,,TRUE,,,,,,,FEW,30000,,,,,,,VFR,,,,,,,,,,,,METAR,146
KRUT 220356Z AUTO 27008G15KT 230V290 10SM BKN050 M05/M14 A3018 RMK AO2 SLP226 T10501139 FZRANO $,KRUT,2024-03-22T03:56:00Z,43.53,-72.9517,-5,-13.9,270,8,15,10+,30.18,1022.6,,TRUE,TRUE,TRUE,,,TRUE,,,BKN,5000,,,,,,,VFR,,,,,,,,,,,,METAR,238
KRKD 220356Z AUTO 28017G24KT 10SM CLR M04/M12 A2994 RMK AO2 PK WND 28037/0307 SLP139 T10441117 FZRANO,KRKD,2024-03-22T03:56:00Z,44.0611,-69.1014,-4.4,-11.7,280,17,24,10+,29.94,1013.9,,TRUE,TRUE,,,,TRUE,,,CLR,,,,,,,,VFR,,,,,,,,,,,,METAR,15
KRDM 220356Z 00000KT 10SM OVC080 09/01 A3003 RMK AO2 SLP172 T00890011,KRDM,2024-03-22T03:56:00Z,44.2558,-121.141,8.9,1.1,0,0,,10+,30.03,1017.2,,,TRUE,,,,,,,OVC,8000,,,,,,,VFR,,,,,,,,,,,,METAR,930
KPWT 220356Z AUTO 18005KT 10SM OVC032 10/10 A3007 RMK AO2 RAB01E26 SLP187 P0000 T01000100,KPWT,2024-03-22T03:56:00Z,47.4942,-122.759,10,10,180,5,,10+,30.07,1018.7,,TRUE,TRUE,,,,,,,OVC,3200,,,,,,,VFR,,,,,,0.005,,,,,,METAR,143
KPWG 220356Z AUTO 05005KT 10SM -RA SCT022 SCT049 OVC095 13/12 A2983 RMK AO2 LTG DSNT NE TSE10 PRESFR SLP098 P0002 T01330122,KPWG,2024-03-22T03:56:00Z,31.4891,-97.3202,13.3,12.2,50,5,,10+,29.83,1009.8,,TRUE,TRUE,,,,,,-RA,SCT,2200,SCT,4900,OVC,9500,,,VFR,,,,,,0.02,,,,,,METAR,178
KPVU 220356Z AUTO 35003KT 10SM CLR 09/02 A3007 RMK AO2 SLP170 T00940017,KPVU,2024-03-22T03:56:00Z,40.224,-111.725,9.4,1.7,350,3,,10+,30.07,1017,,TRUE,TRUE,,,,,,,CLR,,,,,,,,VFR,,,,,,,,,,,,METAR,1370
KPVG 220356Z AUTO 06003KT 10SM CLR 03/01 A3029 RMK AO2 SLP259 T00280006 401440028,KPVG,2024-03-22T03:56:00Z,36.7824,-76.452,2.8,0.6,60,3,,10+,30.29,1025.9,,TRUE,TRUE,,,,,,,CLR,,,,,,,,VFR,,,,,,,,,,,,METAR,7
KPVC 220356Z AUTO 29020G30KT 10SM CLR M01/M10 A3015 RMK AO2 PK WND 29031/0344 SLP209 T10061100 FZRANO,KPVC,2024-03-22T03:56:00Z,42.0743,-70.2183,-0.6,-10,290,20,30,10+,30.15,1020.9,,TRUE,TRUE,,,,TRUE,,,CLR,,,,,,,,VFR,,,,,,,,,,,,METAR,1
KPTV 220356Z AUTO 10003KT 10SM CLR 14/11 A3009 RMK AO2 SLP188 T01440106,KPTV,2024-03-22T03:56:00Z,36.0274,-119.063,14.4,10.6,100,3,,10+,30.09,1018.8,,TRUE,TRUE,,,,,,,CLR,,,,,,,,VFR,,,,,,,,,,,,METAR,132
KPQI 220356Z AUTO 27021G28KT 6SM -SN FEW025 BKN050 OVC110 M08/M12 A2964 RMK AO2 PK WND 28033/0303 SLP071 P0000 T10781117,KPQI,2024-03-22T03:56:00Z,46.697,-68.054,-7.8,-11.7,270,21,28,6,29.64,1007.1,,TRUE,TRUE,,,,,,-SN,FEW,2500,BKN,5000,OVC,11000,,,VFR,,,,,,0.005,,,,,,METAR,154
KPIB 220356Z AUTO 15006KT 10SM FEW110 15/08 A2998 RMK AO2 SLP150 T01500078 PNO $,KPIB,2024-03-22T03:56:00Z,31.4727,-89.3383,15,7.8,150,6,,10+,29.98,1015,,TRUE,TRUE,TRUE,,,,,,FEW,11000,,,,,,,VFR,,,,,,,,,,,,METAR,91
KP60 220356Z AUTO 30003KT M03/M06 A3006 RMK AO1 SLP175 T10331056,KP60,2024-03-22T03:56:00Z,44.5448,-110.422,-3.3,-5.6,300,3,,,30.06,1017.5,,TRUE,TRUE,,,,,,,,,,,,,,,VFR,,,,,,,,,,,,METAR,2377
KP53 220356Z AUTO 00000KT M08/M13 A3027 RMK AO1 SLP264 T10831133 410281094 $,KP53,2024-03-22T03:56:00Z,46.412,-86.6504,-8.3,-13.3,0,0,,,30.27,1026.4,,TRUE,TRUE,TRUE,,,,,,,,,,,,,,VFR,,,,,,,,,,,,METAR,185
KP28 220356Z AUTO 13005KT 13/10 A2991 RMK AO1 SLP124 T01280100,KP28,2024-03-22T03:56:00Z,37.2664,-98.5463,12.8,10,130,5,,,29.91,1012.4,,TRUE,TRUE,,,,,,,,,,,,,,,VFR,,,,,,,,,,,,METAR,469
KOWB 220356Z AUTO 08007KT 10SM CLR 09/M07 A3011 RMK AO2 SLP198 T00891067,KOWB,2024-03-22T03:56:00Z,37.7297,-87.1683,8.9,-6.7,80,7,,10+,30.11,1019.8,,TRUE,TRUE,,,,,,,CLR,,,,,,,,VFR,,,,,,,,,,,,METAR,121
KOTH 220356Z 00000KT 10SM CLR 12/08 A3004 RMK AO2 SLP172 T01220083,KOTH,2024-03-22T03:56:00Z,43.4194,-124.244,12.2,8.3,0,0,,10+,30.04,1017.2,,,TRUE,,,,,,,CLR,,,,,,,,VFR,,,,,,,,,,,,METAR,3
KOTG 220356Z AUTO 05014KT 10SM OVC060 M03/M06 A3008 RMK AO2 SLP209 T10281061 FZRANO,KOTG,2024-03-22T03:56:00Z,43.6525,-95.5759,-2.8,-6.1,50,14,,10+,30.08,1020.9,,TRUE,TRUE,,,,TRUE,,,OVC,6000,,,,,,,VFR,,,,,,,,,,,,METAR,478
KOLU 220356Z AUTO 09008KT 10SM CLR 04/M06 A2988 RMK AO2 SLP129 T00391061,KOLU,2024-03-22T03:56:00Z,41.4472,-97.3391,3.9,-6.1,90,8,,10+,29.88,1012.9,,TRUE,TRUE,,,,,,,CLR,,,,,,,,VFR,,,,,,,,,,,,METAR,438
KOKK 220356Z AUTO 10007KT 10SM CLR M02/M07 A3022 RMK AO2 SLP245 T10171072 FZRANO,KOKK,2024-03-22T03:56:00Z,40.5304,-86.055,-1.7,-7.2,100,7,,10+,30.22,1024.5,,TRUE,TRUE,,,,TRUE,,,CLR,,,,,,,,VFR,,,,,,,,,,,,METAR,251
KOFK 220356Z AUTO 12010KT 10SM CLR 07/M07 A2985 RMK AO2 SLP117 T00721072,KOFK,2024-03-22T03:56:00Z,41.9799,-97.4335,7.2,-7.2,120,10,,10+,29.85,1011.7,,TRUE,TRUE,,,,,,,CLR,,,,,,,,VFR,,,,,,,,,,,,METAR,476
KOAJ 220356Z AUTO 07006KT 10SM CLR 08/06 A3025 RMK AO2 SLP245 T00780056 $,KOAJ,2024-03-22T03:56:00Z,34.8251,-77.6189,7.8,5.6,70,6,,10+,30.25,1024.5,,TRUE,TRUE,TRUE,,,,,,CLR,,,,,,,,VFR,,,,,,,,,,,,METAR,26
KNYG 220356Z AUTO 29006KT 9SM CLR 03/M03 A3034 RMK AO2 SLP274 T00281028 401060017 $,KNYG,2024-03-22T03:56:00Z,38.503,-77.301,2.8,-2.8,290,6,,9,30.34,1027.4,,TRUE,TRUE,TRUE,,,,,,CLR,,,,,,,,VFR,,,,,,,,,,,,METAR,2
KNXP 220356Z AUTO 25008KT 10SM CLR 19/00 A3009 RMK AO2 SLP163 T01890000,KNXP,2024-03-22T03:56:00Z,34.294,-116.147,18.9,0,250,8,,10+,30.09,1016.3,,TRUE,TRUE,,,,,,,CLR,,,,,,,,VFR,,,,,,,,,,,,METAR,610
KNTU 220356Z 12006KT 10SM CLR 06/01 A3028 RMK AO2 SLP254 T00610006,KNTU,2024-03-22T03:56:00Z,36.8209,-76.0277,6.1,0.6,120,6,,10+,30.28,1025.4,,,TRUE,,,,,,,CLR,,,,,,,,VFR,,,,,,,,,,,,METAR,6
KNSE 220356Z 06003KT 10SM SCT060 BKN100 OVC200 14/09 A3001 RMK AO2 SLP148 T01440094 $,KNSE,2024-03-22T03:56:00Z,30.728,-87.022,14.4,9.4,60,3,,10+,30.01,1014.8,,,TRUE,TRUE,,,,,,SCT,6000,BKN,10000,OVC,20000,,,VFR,,,,,,,,,,,,METAR,56
KNQI 220356Z 33004KT 10SM FEW010 19/18 A2985 RMK AO2 SLP106 T01890183 $,KNQI,2024-03-22T03:56:00Z,27.507,-97.81,18.9,18.3,330,4,,10+,29.85,1010.6,,,TRUE,TRUE,,,,,,FEW,1000,,,,,,,VFR,,,,,,,,,,,,METAR,15
KNPA 220356Z AUTO 17006KT 10SM BKN120 19/13 A3000 RMK AO2 SLP160 T01890133 $,KNPA,2024-03-22T03:56:00Z,30.356,-87.323,18.9,13.3,170,6,,10+,30.00,1016,,TRUE,TRUE,TRUE,,,,,,BKN,12000,,,,,,,VFR,,,,,,,,,,,,METAR,6
KNOG 220356Z AUTO 00000KT 10SM SCT010 17/ A2989 RMK AO2 SLP101 T0172 $,KNOG,2024-03-22T03:56:00Z,27.895,-98.043,17.2,,0,0,,10+,29.89,1010.1,,TRUE,TRUE,TRUE,,,,,,SCT,1000,,,,,,,VFR,,,,,,,,,,,,METAR,72
KNMM 220356Z 14004KT 10SM BKN090 BKN110 17/07 A2999 RMK AO2 SLP163 T01720067,KNMM,2024-03-22T03:56:00Z,32.546,-88.543,17.2,6.7,140,4,,10+,29.99,1016.3,,,TRUE,,,,,,,BKN,9000,BKN,11000,,,,,VFR,,,,,,,,,,,,METAR,94
KNLC 220356Z 35005KT 10SM SCT200 16/07 A3007 RMK AO2 SLP183 RH/57 T01560072,KNLC,2024-03-22T03:56:00Z,36.3024,-119.94,15.6,7.2,350,5,,10+,30.07,1018.3,,,TRUE,,,,,,,SCT,20000,,,,,,,VFR,,,,,,,,,,,,METAR,69
KNKT 220356Z 09004KT 10SM CLR 09/07 A3026 RMK AO2 SLP244 T00890072,KNKT,2024-03-22T03:56:00Z,34.897,-76.881,8.9,7.2,90,4,,10+,30.26,1024.4,,,TRUE,,,,,,,CLR,,,,,,,,VFR,,,,,,,,,,,,METAR,8
KNJK 220356Z 26007KT 10SM FEW200 24/05 A2999 RMK AO2 SLP170 T02440050 $,KNJK,2024-03-22T03:56:00Z,32.823,-115.668,24.4,5,260,7,,10+,29.99,1017,,,TRUE,TRUE,,,,,,FEW,20000,,,,,,,VFR,,,,,,,,,,,,METAR,-15
KNID 220356Z 17010KT 10SM FEW270 18/01 A2998 RMK AO2 SLP144 T01830006 $,KNID,2024-03-22T03:56:00Z,35.688,-117.69,18.3,0.6,170,10,,10+,29.98,1014.4,,,TRUE,TRUE,,,,,,FEW,27000,,,,,,,VFR,,,,,,,,,,,,METAR,682
KNGP 220356Z 00000KT 3SM BR SCT002 SCT013 21/19 A2984 RMK AO2 SLP104 VIS E-S 1 T02060189 $,KNGP,2024-03-22T03:56:00Z,27.688,-97.292,20.6,18.9,0,0,,3,29.84,1010.4,,,TRUE,TRUE,,,,,BR,SCT,200,SCT,1300,,,,,MVFR,,,,,,,,,,,,METAR,5
KNFL 220356Z 33007KT 10SM SCT080 BKN100 BKN250 12/M04 A3003 RMK AO2 SLP139 T01171039,KNFL,2024-03-22T03:56:00Z,39.417,-118.705,11.7,-3.9,330,7,,10+,30.03,1013.9,,,TRUE,,,,,,,SCT,8000,BKN,10000,BKN,25000,,,VFR,,,,,,,,,,,,METAR,1199
KNFE 220356Z AUTO 00000KT 10SM CLR 06/M01 A3029 RMK AO2 SLP258 T00561011,KNFE,2024-03-22T03:56:00Z,36.701,-76.129,5.6,-1.1,0,0,,10+,30.29,1025.8,,TRUE,TRUE,,,,,,,CLR,,,,,,,,VFR,,,,,,,,,,,,METAR,4
KNDZ 220356Z 06004KT 10SM FEW065 BKN085 OVC200 16/09 A3000 RMK AO2 SLP147 T01560094 $,KNDZ,2024-03-22T03:56:00Z,30.6973,-87.0207,15.6,9.4,60,4,,10+,30.00,1014.7,,,TRUE,TRUE,,,,,,FEW,6500,BKN,8500,OVC,20000,,,VFR,,,,,,,,,,,,METAR,51
KNCA 220356Z 10008KT 10SM CLR 09/07 A3024 RMK AO2 SLP242 T00890067,KNCA,2024-03-22T03:56:00Z,34.7062,-77.4406,8.9,6.7,100,8,,10+,30.24,1024.2,,,TRUE,,,,,,,CLR,,,,,,,,VFR,,,,,,,,,,,,METAR,9
KMYR 220356Z AUTO 08006KT 10SM FEW008 14/14 A3021 RMK AO2 SLP228 T01440139,KMYR,2024-03-22T03:56:00Z,33.6769,-78.9325,14.4,13.9,80,6,,10+,30.21,1022.8,,TRUE,TRUE,,,,,,,FEW,800,,,,,,,VFR,,,,,,,,,,,,METAR,7
KMVN 220356Z AUTO 06007KT 10SM CLR 06/M04 A3010 RMK AO2 SLP201 T00561039,KMVN,2024-03-22T03:56:00Z,38.3284,-88.853,5.6,-3.9,60,7,,10+,30.10,1020.1,,TRUE,TRUE,,,,,,,CLR,,,,,,,,VFR,,,,,,,,,,,,METAR,145
KMTW 220356Z AUTO 14007KT 10SM BKN100 OVC120 M02/M09 A3026 RMK AO2 SLP254 T10171094 FZRANO,KMTW,2024-03-22T03:56:00Z,44.1322,-87.6819,-1.7,-9.4,140,7,,10+,30.26,1025.4,,TRUE,TRUE,,,,TRUE,,,BKN,10000,OVC,12000,,,,,VFR,,,,,,,,,,,,METAR,197
KMRF 220356Z AUTO 32004KT 10SM CLR 08/M03 A3009 RMK AO2 SLP159 T00831028,KMRF,2024-03-22T03:56:00Z,30.3706,-104.012,8.3,-2.8,320,4,,10+,30.09,1015.9,,TRUE,TRUE,,,,,,,CLR,,,,,,,,VFR,,,,,,,,,,,,METAR,1476
KMQY 220356Z AUTO 33003KT 10SM CLR 11/02 A3008 RMK AO2 SLP192 T01060017,KMQY,2024-03-22T03:56:00Z,36.0029,-86.5144,10.6,1.7,330,3,,10+,30.08,1019.2,,TRUE,TRUE,,,,,,,CLR,,,,,,,,VFR,,,,,,,,,,,,METAR,156
KMOB 220356Z 10008KT 10SM SCT090 OVC110 16/11 A3000 RMK AO2 SLP157 T01610111,KMOB,2024-03-22T03:56:00Z,30.6882,-88.2459,16.1,11.1,100,8,,10+,30.00,1015.7,,,TRUE,,,,,,,SCT,9000,OVC,11000,,,,,VFR,,,,,,,,,,,,METAR,67
KMML 220356Z AUTO 08014KT 9SM -SN FEW050 OVC070 M03/M06 A3013 RMK AO2 SNB13 SLP223 P0000 T10331056 FZRANO,KMML,2024-03-22T03:56:00Z,44.4504,-95.8215,-3.3,-5.6,80,14,,9,30.13,1022.3,,TRUE,TRUE,,,,TRUE,,-SN,FEW,5000,OVC,7000,,,,,VFR,,,,,,0.005,,,,,,METAR,358
KMKY 220356Z AUTO 11007KT 10SM FEW100 22/17 A3006 RMK AO2 SLP180 T02170167 402890167 $,KMKY,2024-03-22T03:56:00Z,25.999,-81.674,21.7,16.7,110,7,,10+,30.06,1018,,TRUE,TRUE,TRUE,,,,,,FEW,10000,,,,,,,VFR,,,,,,,,,,,,METAR,2
KMKT 220356Z AUTO 04008KT 10SM -RA OVC055 A3017 RMK AO2 RAB21UPB36E39SNE21 SLPNO P0000 FZRANO $,KMKT,2024-03-22T03:56:00Z,44.2184,-93.9179,,,40,8,,10+,30.17,,,TRUE,TRUE,TRUE,,,TRUE,,-RA,OVC,5500,,,,,,,VFR,,,,,,0.005,,,,,,METAR,309
KMJX 220356Z AUTO 00000KT 10SM CLR M06/M11 A3032 RMK AO2 SLP272 T10611106 FZRANO,KMJX,2024-03-22T03:56:00Z,39.9235,-74.297,-6.1,-10.6,0,0,,10+,30.32,1027.2,,TRUE,TRUE,,,,TRUE,,,CLR,,,,,,,,VFR,,,,,,,,,,,,METAR,22
KMHS 220356Z AUTO 00000KT 10SM CLR 09/M01 A3008 RMK AO2 SLP200 T00891006,KMHS,2024-03-22T03:56:00Z,41.3149,-122.317,8.9,-0.6,0,0,,10+,30.08,1020,,TRUE,TRUE,,,,,,,CLR,,,,,,,,VFR,,,,,,,,,,,,METAR,1080
KMEH 220356Z AUTO 00000KT 10SM CLR 03/00 A3006 RMK AO2 SLP193 T00280000,KMEH,2024-03-22T03:56:00Z,45.512,-118.425,2.8,0,0,0,,10+,30.06,1019.3,,TRUE,TRUE,,,,,,,CLR,,,,,,,,VFR,,,,,,,,,,,,METAR,1138
KMDT 220356Z 34005KT 10SM CLR 02/M12 A3031 RMK AO2 SLP267 T00221122,KMDT,2024-03-22T03:56:00Z,40.1962,-76.7725,2.2,-12.2,340,5,,10+,30.31,1026.7,,,TRUE,,,,,,,CLR,,,,,,,,VFR,,,,,,,,,,,,METAR,91
KMBL 220356Z AUTO 09004KT 10SM FEW120 M07/M12 A3027 RMK AO2 SLP260 T10721117 410061083 FZRANO,KMBL,2024-03-22T03:56:00Z,44.2714,-86.2377,-7.2,-11.7,90,4,,10+,30.27,1026,,TRUE,TRUE,,,,TRUE,,,FEW,12000,,,,,,,VFR,,,,,,,,,,,,METAR,187
KM19 220356Z AUTO 05007KT 10SM OVC120 13/08 A2999 RMK AO2 SLP156 T01330078 $,KM19,2024-03-22T03:56:00Z,35.643,-91.1735,13.3,7.8,50,7,,10+,29.99,1015.6,,TRUE,TRUE,TRUE,,,,,,OVC,12000,,,,,,,VFR,,,,,,,,,,,,METAR,72
KLZU 220356Z AUTO 10005KT 10SM CLR 17/06 A3008 RMK AO2 SLP189 T01670056 402440067,KLZU,2024-03-22T03:56:00Z,33.9828,-83.9585,16.7,5.6,100,5,,10+,30.08,1018.9,,TRUE,TRUE,,,,,,,CLR,,,,,,,,VFR,,,,,,,,,,,,METAR,316
KLWS 220356Z 04003KT 10SM FEW065 FEW095 11/03 A3004 RMK AO2 SLP177 T01060028 $,KLWS,2024-03-22T03:56:00Z,46.3746,-117.015,10.6,2.8,40,3,,10+,30.04,1017.7,,,TRUE,TRUE,,,,,,FEW,6500,FEW,9500,,,,,VFR,,,,,,,,,,,,METAR,435
KLRD 220356Z 10004KT 10SM CLR 20/16 A2988 RMK AO2 SLP115 T02000156,KLRD,2024-03-22T03:56:00Z,27.551,-99.4614,20,15.6,100,4,,10+,29.88,1011.5,,,TRUE,,,,,,,CLR,,,,,,,,VFR,,,,,,,,,,,,METAR,150
KLPC 220356Z AUTO 26005KT 10SM CLR 12/12 A3012 RMK AO2 SLP199 T01220117,KLPC,2024-03-22T03:56:00Z,34.6646,-120.464,12.2,11.7,260,5,,10+,30.12,1019.9,,TRUE,TRUE,,,,,,,CLR,,,,,,,,VFR,,,,,,,,,,,,METAR,26
KLGD 220356Z AUTO 22004KT 10SM CLR 07/02 A3006 RMK AO2 SLP186 T00670017,KLGD,2024-03-22T03:56:00Z,45.2906,-118.009,6.7,1.7,220,4,,10+,30.06,1018.6,,TRUE,TRUE,,,,,,,CLR,,,,,,,,VFR,,,,,,,,,,,,METAR,827
KLEW 220356Z AUTO 31011G17KT 10SM CLR M04/M14 A3001 RMK AO2 SLP174 T10441139 410061050 FZRANO,KLEW,2024-03-22T03:56:00Z,44.0444,-70.2853,-4.4,-13.9,310,11,17,10+,30.01,1017.4,,TRUE,TRUE,,,,TRUE,,,CLR,,,,,,,,VFR,,,,,,,,,,,,METAR,81
KLCI 220356Z AUTO 28010G25KT 10SM CLR M04/M14 A3010 RMK AO2 SLP202 T10441139 FZRANO,KLCI,2024-03-22T03:56:00Z,43.5718,-71.4254,-4.4,-13.9,280,10,25,10+,30.10,1020.2,,TRUE,TRUE,,,,TRUE,,,CLR,,,,,,,,VFR,,,,,,,,,,,,METAR,166
KLBT 220356Z AUTO 11007KT 10SM CLR 11/07 A3019 RMK AO2 SLP224 T01060072,KLBT,2024-03-22T03:56:00Z,34.6082,-79.059,10.6,7.2,110,7,,10+,30.19,1022.4,,TRUE,TRUE,,,,,,,CLR,,,,,,,,VFR,,,,,,,,,,,,METAR,37
KLBL 220356Z AUTO 15008KT 10SM CLR 09/07 A2990 RMK AO2 SLP122 T00890067,KLBL,2024-03-22T03:56:00Z,37.0375,-100.957,8.9,6.7,150,8,,10+,29.90,1012.2,,TRUE,TRUE,,,,,,,CLR,,,,,,,,VFR,,,,,,,,,,,,METAR,877
KLAS 220356Z 20007KT 10SM BKN250 21/M04 A2999 RMK AO2 SLP141 T02061039,KLAS,2024-03-22T03:56:00Z,36.0719,-115.163,20.6,-3.9,200,7,,10+,29.99,1014.1,,,TRUE,,,,,,,BKN,25000,,,,,,,VFR,,,,,,,,,,,,METAR,662
KJXN 220356Z AUTO 07004KT 10SM FEW120 M01/M11 A3027 RMK AO2 SLP261 T10111106,KJXN,2024-03-22T03:56:00Z,42.259,-84.4589,-1.1,-10.6,70,4,,10+,30.27,1026.1,,TRUE,TRUE,,,,,,,FEW,12000,,,,,,,VFR,,,,,,,,,,,,METAR,303
KJRB 220356Z AUTO 00000KT 10SM CLR 01/M11 A3032 RMK AO2 SLP268 T00111106 400781006 FZRANO PNO $,KJRB,2024-03-22T03:56:00Z,40.701,-74.009,1.1,-10.6,0,0,,10+,30.32,1026.8,,TRUE,TRUE,TRUE,,,TRUE,,,CLR,,,,,,,,VFR,,,,,,,,,,,,METAR,2
KJMS 220356Z AUTO 06008KT 4SM -SN BR OVC049 M07/M08 A3018 RMK AO2 SLP248 P0000 T10671083 TSNO,KJMS,2024-03-22T03:56:00Z,46.9259,-98.6704,-6.7,-8.3,60,8,,4,30.18,1024.8,,TRUE,TRUE,,,TRUE,,,-SN BR,OVC,4900,,,,,,,MVFR,,,,,,0.005,,,,,,METAR,455
KJHW 220356Z AUTO 00000KT 10SM CLR M09/M12 A3029 RMK AO2 SLP292 T10891117 FZRANO,KJHW,2024-03-22T03:56:00Z,42.1534,-79.2542,-8.9,-11.7,0,0,,10+,30.29,1029.2,,TRUE,TRUE,,,,TRUE,,,CLR,,,,,,,,VFR,,,,,,,,,,,,METAR,520
KJAX 220356Z 08005KT 10SM OVC230 16/13 A3008 RMK AO2 SLP186 T01610133 $,KJAX,2024-03-22T03:56:00Z,30.4953,-81.6937,16.1,13.3,80,5,,10+,30.08,1018.6,,,TRUE,TRUE,,,,,,OVC,23000,,,,,,,VFR,,,,,,,,,,,,METAR,8
KIWD 220356Z AUTO 09004KT 10SM OVC110 M07/M13 A3021 RMK AO2 SLP252 T10671133 FZRANO,KIWD,2024-03-22T03:56:00Z,46.5321,-90.126,-6.7,-13.3,90,4,,10+,30.21,1025.2,,TRUE,TRUE,,,,TRUE,,,OVC,11000,,,,,,,VFR,,,,,,,,,,,,METAR,373
KITH 220356Z AUTO 29009KT 10SM FEW039 SCT046 M06/M10 A3031 RMK AO2 SLP280 T10561100,KITH,2024-03-22T03:56:00Z,42.4931,-76.4569,-5.6,-10,290,9,,10+,30.31,1028,,TRUE,TRUE,,,,,,,FEW,3900,SCT,4600,,,,,VFR,,,,,,,,,,,,METAR,338
KISP 220356Z 31010KT 10SM FEW250 00/M12 A3028 RMK AO2 SLP253 LAST T00001122,KISP,2024-03-22T03:56:00Z,40.7939,-73.1018,0,-12.2,310,10,,10+,30.28,1025.3,,,TRUE,,,,,,,FEW,25000,,,,,,,VFR,,,,,,,,,,,,METAR,25
KISM 220356Z AUTO 14009KT 10SM SCT044 BKN060 22/16 A3007 RMK AO2 SLP182 T02170161 $,KISM,2024-03-22T03:56:00Z,28.2924,-81.4371,21.7,16.1,140,9,,10+,30.07,1018.2,,TRUE,TRUE,TRUE,,,,,,SCT,4400,BKN,6000,,,,,VFR,,,,,,,,,,,,METAR,25
KINW 220356Z AUTO 23013KT 10SM BKN110 13/03 A3011 RMK AO2 SLP166 T01280028,KINW,2024-03-22T03:56:00Z,35.028,-110.722,12.8,2.8,230,13,,10+,30.11,1016.6,,TRUE,TRUE,,,,,,,BKN,11000,,,,,,,VFR,,,,,,,,,,,,METAR,1492
KILE 220356Z AUTO 28004KT 10SM CLR 13/13 A2988 RMK AO2 RAE01 SLP112 P0000 T01280128,KILE,2024-03-22T03:56:00Z,31.084,-97.6885,12.8,12.8,280,4,,10+,29.88,1011.2,,TRUE,TRUE,,,,,,,CLR,,,,,,,,VFR,,,,,,0.005,,,,,,METAR,256
KHYS 220356Z AUTO 15009KT 10SM CLR 09/04 A2986 RMK AO2 SLP117 T00940044,KHYS,2024-03-22T03:56:00Z,38.8392,-99.2742,9.4,4.4,150,9,,10+,29.86,1011.7,,TRUE,TRUE,,,,,,,CLR,,,,,,,,VFR,,,,,,,,,,,,METAR,607
KHYI 220356Z AUTO 00000KT 10SM CLR 14/13 A2988 RMK AO2 TSE15 SLP116 T01390133,KHYI,2024-03-22T03:56:00Z,29.8958,-97.8664,13.9,13.3,0,0,,10+,29.88,1011.6,,TRUE,TRUE,,,,,,,CLR,,,,,,,,VFR,,,,,,,,,,,,METAR,180
KHYA 220356Z AUTO 28007KT 10SM CLR M02/M14 A3016 RMK AO2 SLP215 T10221139,KHYA,2024-03-22T03:56:00Z,41.6719,-70.2697,-2.2,-13.9,280,7,,10+,30.16,1021.5,,TRUE,TRUE,,,,,,,CLR,,,,,,,,VFR,,,,,,,,,,,,METAR,11
KHWV 220356Z AUTO 33009KT 10SM CLR 00/M12 A3028 RMK AO2 SLP256 T00001122,KHWV,2024-03-22T03:56:00Z,40.8212,-72.8674,0,-12.2,330,9,,10+,30.28,1025.6,,TRUE,TRUE,,,,,,,CLR,,,,,,,,VFR,,,,,,,,,,,,METAR,20
KHPN 220356Z 31008G17KT 10SM CLR M02/M12 A3027 RMK AO2 PK WND 32026/0323 SLP259 T10171122,KHPN,2024-03-22T03:56:00Z,41.0624,-73.7046,-1.7,-12.2,310,8,17,10+,30.27,1025.9,,,TRUE,,,,,,,CLR,,,,,,,,VFR,,,,,,,,,,,,METAR,113
KHND 220356Z AUTO 18008KT 10SM CLR 19/M03 A3002 RMK AO2 SLP170 T01891028,KHND,2024-03-22T03:56:00Z,35.9658,-115.134,18.9,-2.8,180,8,,10+,30.02,1017,,TRUE,TRUE,,,,,,,CLR,,,,,,,,VFR,,,,,,,,,,,,METAR,740
KHNB 220356Z AUTO 08007KT 10SM CLR 06/M06 A3013 RMK AO2 SLP207 T00611061,KHNB,2024-03-22T03:56:00Z,38.2505,-86.9473,6.1,-6.1,80,7,,10+,30.13,1020.7,,TRUE,TRUE,,,,,,,CLR,,,,,,,,VFR,,,,,,,,,,,,METAR,159
KHEZ 220356Z AUTO 16004KT 10SM OVC100 13/11 A2998 RMK AO2 SLP150 T01330111,KHEZ,2024-03-22T03:56:00Z,31.6159,-91.2973,13.3,11.1,160,4,,10+,29.98,1015,,TRUE,TRUE,,,,,,,OVC,10000,,,,,,,VFR,,,,,,,,,,,,METAR,82
KHEF 220356Z AUTO 00000KT 10SM CLR M01/M04 A3033 RMK AO2 SLP277 T10061044 401111017 FZRANO,KHEF,2024-03-22T03:56:00Z,38.724,-77.5175,-0.6,-4.4,0,0,,10+,30.33,1027.7,,TRUE,TRUE,,,,TRUE,,,CLR,,,,,,,,VFR,,,,,,,,,,,,METAR,53
KHDN 220356Z AUTO 00000KT 10SM BKN085 03/00 A3011 RMK AO2 SLP198 T00330000,KHDN,2024-03-22T03:56:00Z,40.4842,-107.23,3.3,0,0,0,,10+,30.11,1019.8,,TRUE,TRUE,,,,,,,BKN,8500,,,,,,,VFR,,,,,,,,,,,,METAR,2012
KGXY 220356Z 34019KT 10SM CLR 12/M01 A2993 RMK AO2 SLP125 T01221006,KGXY,2024-03-22T03:56:00Z,40.4345,-104.63,12.2,-0.6,340,19,,10+,29.93,1012.5,,,TRUE,,,,,,,CLR,,,,,,,,VFR,,,,,,,,,,,,METAR,1420
KGVQ 220356Z AUTO 27007KT 10SM CLR M06/M12 A3034 RMK AO2 SLP288 T10611117 FZRANO,KGVQ,2024-03-22T03:56:00Z,43.0298,-78.1665,-6.1,-11.7,270,7,,10+,30.34,1028.8,,TRUE,TRUE,,,,TRUE,,,CLR,,,,,,,,VFR,,,,,,,,,,,,METAR,279
KGUC 220356Z AUTO 30003KT 10SM SCT095 04/M07 A3012 RMK AO2 SLP191 T00391072,KGUC,2024-03-22T03:56:00Z,38.5322,-106.942,3.9,-7.2,300,3,,10+,30.12,1019.1,,TRUE,TRUE,,,,,,,SCT,9500,,,,,,,VFR,,,,,,,,,,,,METAR,2337
KGTR 220356Z AUTO 17003KT 6SM HZ FEW095 BKN120 16/08 A2999 RMK AO2 SLP163 T01610078,KGTR,2024-03-22T03:56:00Z,33.456,-88.593,16.1,7.8,170,3,,6,29.99,1016.3,,TRUE,TRUE,,,,,,HZ,FEW,9500,BKN,12000,,,,,VFR,,,,,,,,,,,,METAR,80
KGRD 220356Z AUTO 14006KT 8SM CLR 16/05 A3014 RMK AO2 SLP202 T01560050,KGRD,2024-03-22T03:56:00Z,34.2539,-82.1526,15.6,5,140,6,,8,30.14,1020.2,,TRUE,TRUE,,,,,,,CLR,,,,,,,,VFR,,,,,,,,,,,,METAR,188
KGPZ 220356Z AUTO 00000KT 10SM BKN090 M04/M20 A3020 RMK AO2 SLP255 T10391200 FZRANO,KGPZ,2024-03-22T03:56:00Z,47.2029,-93.5071,-3.9,-20,0,0,,10+,30.20,1025.5,,TRUE,TRUE,,,,TRUE,,,BKN,9000,,,,,,,VFR,,,,,,,,,,,,METAR,410
KGON 220356Z AUTO 31014G21KT 10SM CLR M01/M13 A3025 RMK AO2 SLP242 T10061128,KGON,2024-03-22T03:56:00Z,41.3279,-72.0489,-0.6,-12.8,310,14,21,10+,30.25,1024.2,,TRUE,TRUE,,,,,,,CLR,,,,,,,,VFR,,,,,,,,,,,,METAR,2
KGNR 220356Z AUTO 31013G32KT M09/M14 A2978 RMK AO1 PK WND 31039/0308 SLP111 T10941144 $,KGNR,2024-03-22T03:56:00Z,45.4649,-69.5543,-9.4,-14.4,310,13,32,,29.78,1011.1,,TRUE,TRUE,TRUE,,,,,,,,,,,,,,VFR,,,,,,,,,,,,METAR,426
KGNA 220356Z AUTO 36003KT M07/M14 A3025 RMK AO1 SLP262 T10671139,KGNA,2024-03-22T03:56:00Z,47.745,-90.346,-6.7,-13.9,360,3,,,30.25,1026.2,,TRUE,TRUE,,,,,,,,,,,,,,,VFR,,,,,,,,,,,,METAR,186
KGDV 220356Z AUTO 04011KT 8SM -SN OVC007 M05/M06 A3014 RMK AO2 SLP243 P0000 T10501061 FZRANO TSNO,KGDV,2024-03-22T03:56:00Z,47.14,-104.813,-5,-6.1,40,11,,8,30.14,1024.3,,TRUE,TRUE,,,TRUE,TRUE,,-SN,OVC,700,,,,,,,IFR,,,,,,0.005,,,,,,METAR,749
KGBD 220356Z AUTO 16011KT 10SM CLR 12/07 A2989 RMK AO2 SLP122 T01170067,KGBD,2024-03-22T03:56:00Z,38.3405,-98.8592,11.7,6.7,160,11,,10+,29.89,1012.2,,TRUE,TRUE,,,,,,,CLR,,,,,,,,VFR,,,,,,,,,,,,METAR,573
KGAI 220356Z AUTO 00000KT 10SM CLR 03/M12 A3031 RMK AO2 SLP283 T00281122,KGAI,2024-03-22T03:56:00Z,39.1696,-77.1653,2.8,-12.2,0,0,,10+,30.31,1028.3,,TRUE,TRUE,,,,,,,CLR,,,,,,,,VFR,,,,,,,,,,,,METAR,151
KGAD 220356Z AUTO 12004KT 10SM CLR 18/07 A3004 RMK AO2 SLP175 T01780067 PNO $,KGAD,2024-03-22T03:56:00Z,33.9686,-86.0917,17.8,6.7,120,4,,10+,30.04,1017.5,,TRUE,TRUE,TRUE,,,,,,CLR,,,,,,,,VFR,,,,,,,,,,,,METAR,169
KFSD 220356Z 08019KT 10SM OVC060 01/M09 A3001 RMK AO2 PK WND 08027/0355 SLP178 T00061089,KFSD,2024-03-22T03:56:00Z,43.5775,-96.7539,0.6,-8.9,80,19,,10+,30.01,1017.8,,,TRUE,,,,,,,OVC,6000,,,,,,,VFR,,,,,,,,,,,,METAR,433
KFRM 220356Z AUTO 06011KT 10SM FEW049 OVC070 M03/M04 A3010 RMK AO2 SLP214 T10281044 FZRANO,KFRM,2024-03-22T03:56:00Z,43.6455,-94.4168,-2.8,-4.4,60,11,,10+,30.10,1021.4,,TRUE,TRUE,,,,TRUE,,,FEW,4900,OVC,7000,,,,,VFR,,,,,,,,,,,,METAR,353
KFOD 220356Z AUTO 10014KT 10SM OVC055 03/M11 A3002 RMK AO2 SLP190 T00331111,KFOD,2024-03-22T03:56:00Z,42.549,-94.182,3.3,-11.1,100,14,,10+,30.02,1019,,TRUE,TRUE,,,,,,,OVC,5500,,,,,,,VFR,,,,,,,,,,,,METAR,347
KFNL 220356Z 02009KT 10SM CLR 10/M01 A2995 RMK AO2 SLP118 T01001011,KFNL,2024-03-22T03:56:00Z,40.4427,-105.01,10,-1.1,20,9,,10+,29.95,1011.8,,,TRUE,,,,,,,CLR,,,,,,,,VFR,,,,,,,,,,,,METAR,1529
KFLP 220356Z AUTO 00000KT 10SM 14/05 A3000 RMK AO2 SLP159 T01390050 $,KFLP,2024-03-22T03:56:00Z,36.2925,-92.5851,13.9,5,0,0,,10+,30.00,1015.9,,TRUE,TRUE,TRUE,,,,,,,,,,,,,,VFR,,,,,,,,,,,,METAR,215
KFKL 220356Z AUTO 06004KT 10SM M07/M12 A3030 RMK AO2 SLP286 T10721117 FZRANO $,KFKL,2024-03-22T03:56:00Z,41.3806,-79.8603,-7.2,-11.7,60,4,,10+,30.30,1028.6,,TRUE,TRUE,TRUE,,,TRUE,,,,,,,,,,,VFR,,,,,,,,,,,,METAR,468
KFCI 220356Z AUTO 06004KT 10SM CLR 05/M01 A3028 RMK AO2 SLP266 T00501006 401330022,KFCI,2024-03-22T03:56:00Z,37.407,-77.522,5,-0.6,60,4,,10+,30.28,1026.6,,TRUE,TRUE,,,,,,,CLR,,,,,,,,VFR,,,,,,,,,,,,METAR,63
KFAM 220356Z AUTO 07004KT 10SM CLR 07/M05 A3007 RMK AO2 SLP194 T00671050,KFAM,2024-03-22T03:56:00Z,37.7631,-90.4292,6.7,-5,70,4,,10+,30.07,1019.4,,TRUE,TRUE,,,,,,,CLR,,,,,,,,VFR,,,,,,,,,,,,METAR,276
KEWK 220356Z AUTO 16009KT 10SM CLR 12/12 A2991 RMK AO2 SLP127 T01170117,KEWK,2024-03-22T03:56:00Z,38.0621,-97.275,11.7,11.7,160,9,,10+,29.91,1012.7,,TRUE,TRUE,,,,,,,CLR,,,,,,,,VFR,,,,,,,,,,,,METAR,468
KESC 220356Z AUTO 21005KT 10SM CLR M03/M08 A3026 RMK AO2 SLP260 T10331083 FZRANO,KESC,2024-03-22T03:56:00Z,45.7225,-87.0893,-3.3,-8.3,210,5,,10+,30.26,1026,,TRUE,TRUE,,,,TRUE,,,CLR,,,,,,,,VFR,,,,,,,,,,,,METAR,180
KENV 220356Z AUTO VRB04KT 10SM CLR 13/M05 A3007 RMK AO2 SLP169 T01331050,KENV,2024-03-22T03:56:00Z,40.7211,-114.031,13.3,-5,VRB,4,,10+,30.07,1016.9,,TRUE,TRUE,,,,,,,CLR,,,,,,,,VFR,,,,,,,,,,,,METAR,1291
KEKY 220356Z AUTO 10003KT 8SM BKN100 18/07 A3003 RMK AO2 SLP017 T01780067,KEKY,2024-03-22T03:56:00Z,33.314,-86.925,17.8,6.7,100,3,,8,30.03,1001.7,,TRUE,TRUE,,,,,,,BKN,10000,,,,,,,VFR,,,,,,,,,,,,METAR,213
KEKQ 220356Z AUTO 00000KT 10SM CLR 04/M03 A3016 RMK AO2 SLP214 T00391028 401501006,KEKQ,2024-03-22T03:56:00Z,36.8576,-84.8562,3.9,-2.8,0,0,,10+,30.16,1021.4,,TRUE,TRUE,,,,,,,CLR,,,,,,,,VFR,,,,,,,,,,,,METAR,291
KEKO 220356Z AUTO 10003KT 10SM CLR 08/M04 A3009 RMK AO2 SLP179 T00781039,KEKO,2024-03-22T03:56:00Z,40.824,-115.786,7.8,-3.9,100,3,,10+,30.09,1017.9,,TRUE,TRUE,,,,,,,CLR,,,,,,,,VFR,,,,,,,,,,,,METAR,1541
KEHR 220356Z AUTO 07008KT 10SM CLR 07/M06 A3011 RMK AO2 SLP195 P0001 T00721056,KEHR,2024-03-22T03:56:00Z,37.8066,-87.6824,7.2,-5.6,70,8,,10+,30.11,1019.5,,TRUE,TRUE,,,,,,,CLR,,,,,,,,VFR,,,,,,0.01,,,,,,METAR,117
KEGE 220356Z 08005KT 10SM SCT075 04/02 A3013 RMK AO2 SLP111 T00390022,KEGE,2024-03-22T03:56:00Z,39.6448,-106.918,3.9,2.2,80,5,,10+,30.13,1011.1,,,TRUE,,,,,,,SCT,7500,,,,,,,VFR,,,,,,,,,,,,METAR,1993
KEEN 220356Z AUTO 31011KT 10SM CLR M04/M14 A3017 RMK AO2 SLP227 T10391139 FZRANO $,KEEN,2024-03-22T03:56:00Z,42.898,-72.2695,-3.9,-13.9,310,11,,10+,30.17,1022.7,,TRUE,TRUE,TRUE,,,TRUE,,,CLR,,,,,,,,VFR,,,,,,,,,,,,METAR,143
KEED 220356Z AUTO 23007KT 10SM CLR 23/01 A2997 RMK AO2 SLP127 T02280011,KEED,2024-03-22T03:56:00Z,34.7678,-114.618,22.8,1.1,230,7,,10+,29.97,1012.7,,TRUE,TRUE,,,,,,,CLR,,,,,,,,VFR,,,,,,,,,,,,METAR,271
KEAR 220356Z AUTO 15009KT 10SM CLR 08/03 A2981 RMK AO2 SLP099 T00780028,KEAR,2024-03-22T03:56:00Z,40.7193,-99.0086,7.8,2.8,150,9,,10+,29.81,1009.9,,TRUE,TRUE,,,,,,,CLR,,,,,,,,VFR,,,,,,,,,,,,METAR,649
KDYR 220356Z AUTO 07005KT 10SM FEW100 BKN120 14/02 A3002 RMK AO2 SLP172 T01440017,KDYR,2024-03-22T03:56:00Z,35.9957,-89.4057,14.4,1.7,70,5,,10+,30.02,1017.2,,TRUE,TRUE,,,,,,,FEW,10000,BKN,12000,,,,,VFR,,,,,,,,,,,,METAR,98
KDWU 220356Z AUTO 14003KT 10SM CLR 04/M12 A3024 RMK AO2 SLP247 T00441117 400941028,KDWU,2024-03-22T03:56:00Z,38.556,-82.7375,4.4,-11.7,140,3,,10+,30.24,1024.7,,TRUE,TRUE,,,,,,,CLR,,,,,,,,VFR,,,,,,,,,,,,METAR,165
KDVL 220356Z AUTO 26003KT 8SM -SN SCT028 BKN041 OVC050 M06/M07 A3021 RMK AO2 SLP273 P0001 T10611072 FZRANO,KDVL,2024-03-22T03:56:00Z,48.1136,-98.9034,-6.1,-7.2,260,3,,8,30.21,1027.3,,TRUE,TRUE,,,,TRUE,,-SN,SCT,2800,BKN,4100,OVC,5000,,,VFR,,,,,,0.01,,,,,,METAR,439
KDUG 220356Z AUTO 34008KT 10SM CLR 12/M02 A3012 RMK AO2 SLP165 T01171017,KDUG,2024-03-22T03:56:00Z,31.4725,-109.602,11.7,-1.7,340,8,,10+,30.12,1016.5,,TRUE,TRUE,,,,,,,CLR,,,,,,,,VFR,,,,,,,,,,,,METAR,1260
KDIK 220356Z AUTO 05005KT 10SM OVC065 M07/M09 A3010 RMK AO2 SLP232 I1000 T10721089 TSNO ,KDIK,2024-03-22T03:56:00Z,46.7997,-102.797,-7.2,-8.9,50,5,,10+,30.10,1023.2,,TRUE,TRUE,,,TRUE,,,,OVC,6500,,,,,,,VFR,,,,,,,,,,,,METAR,788
KDIJ 220356Z AUTO 16005KT 10SM FEW022 BKN038 OVC050 04/M02 A3009 RMK AO2 RAE56 SLP189 P0000 T00391017,KDIJ,2024-03-22T03:56:00Z,43.745,-111.091,3.9,-1.7,160,5,,10+,30.09,1018.9,,TRUE,TRUE,,,,,,,FEW,2200,BKN,3800,OVC,5000,,,VFR,,,,,,0.005,,,,,,METAR,1896
KDAY 220356Z 05006KT 10SM CLR M02/M08 A3023 RMK AO2 SLP246 T10221083,KDAY,2024-03-22T03:56:00Z,39.9064,-84.2185,-2.2,-8.3,50,6,,10+,30.23,1024.6,,,TRUE,,,,,,,CLR,,,,,,,,VFR,,,,,,,,,,,,METAR,303
KD07 220356Z AUTO 07009KT M06/M07 A3006 RMK AO1 SLP227 T10611067 $,KD07,2024-03-22T03:56:00Z,45.0326,-102.02,-6.1,-6.7,70,9,,,30.06,1022.7,,TRUE,TRUE,TRUE,,,,,,,,,,,,,,VFR,,,,,,,,,,,,METAR,786
KCXY 220356Z AUTO 28005KT 10SM CLR 01/M11 A3032 RMK AO2 SLP271 T00111111,KCXY,2024-03-22T03:56:00Z,40.2184,-76.8552,1.1,-11.1,280,5,,10+,30.32,1027.1,,TRUE,TRUE,,,,,,,CLR,,,,,,,,VFR,,,,,,,,,,,,METAR,102
KCWI 220356Z AUTO 13012KT 10SM BKN090 OVC110 04/M08 A3013 RMK AO2 SLP210 T00441078,KCWI,2024-03-22T03:56:00Z,41.8295,-90.3328,4.4,-7.8,130,12,,10+,30.13,1021,,TRUE,TRUE,,,,,,,BKN,9000,OVC,11000,,,,,VFR,,,,,,,,,,,,METAR,212
KCVO 220356Z AUTO 30005KT 10SM SCT120 11/09 A3004 RMK AO2 SLP172 T01110089,KCVO,2024-03-22T03:56:00Z,44.5013,-123.293,11.1,8.9,300,5,,10+,30.04,1017.2,,TRUE,TRUE,,,,,,,SCT,12000,,,,,,,VFR,,,,,,,,,,,,METAR,75
KCVN 220356Z AUTO 11010KT 10SM CLR 08/00 A2995 RMK AO2 SLP129 T00830000,KCVN,2024-03-22T03:56:00Z,34.4227,-103.08,8.3,0,110,10,,10+,29.95,1012.9,,TRUE,TRUE,,,,,,,CLR,,,,,,,,VFR,,,,,,,,,,,,METAR,1278
KCTB 220356Z AUTO 36006KT 8SM -SN BKN055 OVC070 M07/M09 A3018 RMK AO2 SNE25B52 SLP269 P0000 T10671089,KCTB,2024-03-22T03:56:00Z,48.6036,-112.377,-6.7,-8.9,360,6,,8,30.18,1026.9,,TRUE,TRUE,,,,,,-SN,BKN,5500,OVC,7000,,,,,VFR,,,,,,0.005,,,,,,METAR,1172
KCOE 220356Z AUTO 16007KT 10SM OVC090 09/02 A3003 RMK AO2 SLP190 T00890017 PNO $,KCOE,2024-03-22T03:56:00Z,47.7719,-116.833,8.9,1.7,160,7,,10+,30.03,1019,,TRUE,TRUE,TRUE,,,,,,OVC,9000,,,,,,,VFR,,,,,,,,,,,,METAR,693
KCOD 220356Z AUTO 00000KT 10SM OVC095 04/00 A2999 RMK AO2 SLP176 T00440000,KCOD,2024-03-22T03:56:00Z,44.52,-109.027,4.4,0,0,0,,10+,29.99,1017.6,,TRUE,TRUE,,,,,,,OVC,9500,,,,,,,VFR,,,,,,,,,,,,METAR,1550
KCIU 220356Z AUTO 13003KT 10SM CLR M13/M15 A3030 RMK AO2 SLP277 T11331150 FZRANO,KCIU,2024-03-22T03:56:00Z,46.2531,-84.4773,-13.3,-15,130,3,,10+,30.30,1027.7,,TRUE,TRUE,,,,TRUE,,,CLR,,,,,,,,VFR,,,,,,,,,,,,METAR,242
KCHS 220356Z 07006KT 10SM BKN008 BKN250 16/13 A3016 RMK AO2 SLP212 T01560128,KCHS,2024-03-22T03:56:00Z,32.8994,-80.0407,15.6,12.8,70,6,,10+,30.16,1021.2,,,TRUE,,,,,,,BKN,800,BKN,25000,,,,,IFR,,,,,,,,,,,,METAR,12
KCGZ 220356Z AUTO 31005KT 10SM CLR 20/03 A3003 RMK AO2 SLP163 T02000028 PNO $,KCGZ,2024-03-22T03:56:00Z,32.9531,-111.773,20,2.8,310,5,,10+,30.03,1016.3,,TRUE,TRUE,TRUE,,,,,,CLR,,,,,,,,VFR,,,,,,,,,,,,METAR,444
KCEC 220356Z AUTO 15006KT 10SM OVC043 13/09 A3006 RMK AO2 SLP178 T01330089,KCEC,2024-03-22T03:56:00Z,41.7836,-124.238,13.3,8.9,150,6,,10+,30.06,1017.8,,TRUE,TRUE,,,,,,,OVC,4300,,,,,,,VFR,,,,,,,,,,,,METAR,17
KCAE 220356Z 12006KT 10SM BKN150 16/08 A3015 RMK AO2 SLP207 T01560078,KCAE,2024-03-22T03:56:00Z,33.9422,-81.118,15.6,7.8,120,6,,10+,30.15,1020.7,,,TRUE,,,,,,,BKN,15000,,,,,,,VFR,,,,,,,,,,,,METAR,69
KBZN 220356Z 02005KT 10SM OVC095 05/M01 A3001 RMK AO2 SLP184 T00501006 $,KBZN,2024-03-22T03:56:00Z,45.7876,-111.162,5,-0.6,20,5,,10+,30.01,1018.4,,,TRUE,TRUE,,,,,,OVC,9500,,,,,,,VFR,,,,,,,,,,,,METAR,1349
KBTP 220356Z AUTO 04007KT 10SM CLR M04/M10 A3031 RMK AO2 SLP285 T10391100 FZRANO TSNO $,KBTP,2024-03-22T03:56:00Z,40.7765,-79.9568,-3.9,-10,40,7,,10+,30.31,1028.5,,TRUE,TRUE,TRUE,,TRUE,TRUE,,,CLR,,,,,,,,VFR,,,,,,,,,,,,METAR,375
KBOK 220356Z AUTO 00000KT 10SM OVC036 12/09 A3005 RMK AO2 SLP178 T01170089,KBOK,2024-03-22T03:56:00Z,42.0754,-124.29,11.7,8.9,0,0,,10+,30.05,1017.8,,TRUE,TRUE,,,,,,,OVC,3600,,,,,,,VFR,,,,,,,,,,,,METAR,140
KBMI 220356Z AUTO 11010KT 10SM CLR 02/M08 A3014 RMK AO2 SLP210 T00171083,KBMI,2024-03-22T03:56:00Z,40.4777,-88.9144,1.7,-8.3,110,10,,10+,30.14,1021,,TRUE,TRUE,,,,,,,CLR,,,,,,,,VFR,,,,,,,,,,,,METAR,262
KBLM 220356Z AUTO 31005KT 10SM CLR 00/M12 A3032 RMK AO2 SLP268 T00001117 FZRANO,KBLM,2024-03-22T03:56:00Z,40.1822,-74.1207,0,-11.7,310,5,,10+,30.32,1026.8,,TRUE,TRUE,,,,TRUE,,,CLR,,,,,,,,VFR,,,,,,,,,,,,METAR,45
KBKX 220356Z AUTO 08014KT 10SM FEW065 OVC080 M02/M10 A3006 RMK AO2 SLP214 T10171100 FZRANO,KBKX,2024-03-22T03:56:00Z,44.3075,-96.8183,-1.7,-10,80,14,,10+,30.06,1021.4,,TRUE,TRUE,,,,TRUE,,,FEW,6500,OVC,8000,,,,,VFR,,,,,,,,,,,,METAR,494
KBJJ 220356Z AUTO 09004KT 10SM CLR M04/M11 A3030 RMK AO2 SLP275 T10441111,KBJJ,2024-03-22T03:56:00Z,40.8732,-81.8886,-4.4,-11.1,90,4,,10+,30.30,1027.5,,TRUE,TRUE,,,,,,,CLR,,,,,,,,VFR,,,,,,,,,,,,METAR,338
KBIH 220356Z AUTO 31003KT 10SM CLR 14/M03 A3003 RMK AO2 SLP142 T01391028 TSNO,KBIH,2024-03-22T03:56:00Z,37.3711,-118.359,13.9,-2.8,310,3,,10+,30.03,1014.2,,TRUE,TRUE,,,TRUE,,,,CLR,,,,,,,,VFR,,,,,,,,,,,,METAR,1252
KBID 220356Z AUTO 29013G20KT 10SM CLR M02/M11 A3024 RMK AO2 SLP242 T10171111 400441017 FZRANO,KBID,2024-03-22T03:56:00Z,41.1668,-71.5757,-1.7,-11.1,290,13,20,10+,30.24,1024.2,,TRUE,TRUE,,,,TRUE,,,CLR,,,,,,,,VFR,,,,,,,,,,,,METAR,32
KBHB 220356Z AUTO 26012G24KT 10SM SCT110 M05/M12 A2991 RMK AO2 SLP130 T10501117 400441056 FZRANO,KBHB,2024-03-22T03:56:00Z,44.4549,-68.3617,-5,-11.7,260,12,24,10+,29.91,1013,,TRUE,TRUE,,,,TRUE,,,SCT,11000,,,,,,,VFR,,,,,,,,,,,,METAR,21
KAWO 220356Z AUTO 00000KT 10SM BKN050 OVC100 11/07 A3007 RMK AO2 SLP189 T01060072,KAWO,2024-03-22T03:56:00Z,48.1584,-122.159,10.6,7.2,0,0,,10+,30.07,1018.9,,TRUE,TRUE,,,,,,,BKN,5000,OVC,10000,,,,,VFR,,,,,,,,,,,,METAR,38
KAUO 220356Z AUTO 00000KT 10SM BKN100 17/09 A3007 RMK AO2 SLP196 T01670089,KAUO,2024-03-22T03:56:00Z,32.617,-85.4342,16.7,8.9,0,0,,10+,30.07,1019.6,,TRUE,TRUE,,,,,,,BKN,10000,,,,,,,VFR,,,,,,,,,,,,METAR,231
KASH 220356Z AUTO 30012G20KT 10SM CLR M03/M14 A3017 RMK AO2 SLP222 T10281139,KASH,2024-03-22T03:56:00Z,42.7798,-71.5141,-2.8,-13.9,300,12,20,10+,30.17,1022.2,,TRUE,TRUE,,,,,,,CLR,,,,,,,,VFR,,,,,,,,,,,,METAR,56
KART 220356Z AUTO 30008KT 10SM CLR M06/M13 A3032 RMK AO2 SLP274 T10561128,KART,2024-03-22T03:56:00Z,43.9888,-76.0261,-5.6,-12.8,300,8,,10+,30.32,1027.4,,TRUE,TRUE,,,,,,,CLR,,,,,,,,VFR,,,,,,,,,,,,METAR,100
KARG 220356Z AUTO 05007KT 10SM FEW100 13/03 A3001 RMK AO2 SLP164 T01280033,KARG,2024-03-22T03:56:00Z,36.1256,-90.9216,12.8,3.3,50,7,,10+,30.01,1016.4,,TRUE,TRUE,,,,,,,FEW,10000,,,,,,,VFR,,,,,,,,,,,,METAR,82
KAND 220356Z AUTO 12010KT 10SM CLR 17/04 A3010 RMK AO2 SLP187 T01720039,KAND,2024-03-22T03:56:00Z,34.498,-82.7092,17.2,3.9,120,10,,10+,30.10,1018.7,,TRUE,TRUE,,,,,,,CLR,,,,,,,,VFR,,,,,,,,,,,,METAR,233
KALK 220356Z AUTO 25008KT 10SM CLR 12/M01 A3018 RMK AO2 SLP157 T01171011,KALK,2024-03-22T03:56:00Z,31.606,-110.428,11.7,-1.1,250,8,,10+,30.18,1015.7,,TRUE,TRUE,,,,,,,CLR,,,,,,,,VFR,,,,,,,,,,,,METAR,1451
KAJO 220356Z AUTO 27005KT 10SM CLR 14/12 A3009 RMK AO2 SLP184 T01440117 PNO $,KAJO,2024-03-22T03:56:00Z,33.8956,-117.596,14.4,11.7,270,5,,10+,30.09,1018.4,,TRUE,TRUE,TRUE,,,,,,CLR,,,,,,,,VFR,,,,,,,,,,,,METAR,161
KAIZ 220356Z AUTO 07005KT 10SM OVC011 09/M03 A3000 RMK AO2 SLP161 T00891033 PNO $,KAIZ,2024-03-22T03:56:00Z,38.1005,-92.5475,8.9,-3.3,70,5,,10+,30.00,1016.1,,TRUE,TRUE,TRUE,,,,,,OVC,1100,,,,,,,MVFR,,,,,,,,,,,,METAR,263
KAFJ 220356Z AUTO 00000KT 10SM CLR M03/M08 A3032 RMK AO2 SLP279 T10331083 FZRANO,KAFJ,2024-03-22T03:56:00Z,40.1362,-80.2851,-3.3,-8.3,0,0,,10+,30.32,1027.9,,TRUE,TRUE,,,,TRUE,,,CLR,,,,,,,,VFR,,,,,,,,,,,,METAR,360
KADF 220356Z AUTO 01004KT 10SM BKN060 OVC075 15/12 A2996 RMK AO2 SLP143 T01500117,KADF,2024-03-22T03:56:00Z,34.0953,-93.069,15,11.7,10,4,,10+,29.96,1014.3,,TRUE,TRUE,,,,,,,BKN,6000,OVC,7500,,,,,VFR,,,,,,,,,,,,METAR,54
K8D3 220356Z AUTO 07006KT M05/M06 A3017 RMK AO1 SLP246 P0002 T10501061,K8D3,2024-03-22T03:56:00Z,45.669,-96.9918,-5,-6.1,70,6,,,30.17,1024.6,,TRUE,TRUE,,,,,,,,,,,,,,,VFR,,,,,,0.02,,,,,,METAR,535
K79J 220356Z AUTO 00000KT 10SM OVC085 17/05 A3004 RMK AO2 SLP169 T01670050 TSNO $,K79J,2024-03-22T03:56:00Z,31.3061,-86.3902,16.7,5,0,0,,10+,30.04,1016.9,,TRUE,TRUE,TRUE,,TRUE,,,,OVC,8500,,,,,,,VFR,,,,,,,,,,,,METAR,93
K2WX 220356Z AUTO 09005KT M05/M07 A3002 RMK AO1 SLP210 T10501072,K2WX,2024-03-22T03:56:00Z,45.6043,-103.547,-5,-7.2,90,5,,,30.02,1021,,TRUE,TRUE,,,,,,,,,,,,,,,VFR,,,,,,,,,,,,METAR,925
K1ON 220356Z AUTO 04010KT 9SM BKN047 BKN065 OVC090 M06/M12 A3024 RMK AO2 SNE56 SLP273 $,K1ON,2024-03-22T03:56:00Z,48.82,-101.28,-6,-12,40,10,,9,30.24,1027.3,,TRUE,TRUE,TRUE,,,,,,BKN,4700,BKN,6500,OVC,9000,,,VFR,,,,,,,,,,,,SPECI,466
K1M4 220356Z AUTO 00000KT 10SM CLR 14/10 A3003 RMK AO2 SLP160 T01390100,K1M4,2024-03-22T03:56:00Z,34.2832,-87.5986,13.9,10,0,0,,10+,30.03,1016,,TRUE,TRUE,,,,,,,CLR,,,,,,,,VFR,,,,,,,,,,,,METAR,283
TXKF 220355Z 31007KT 9999 SCT021 18/14 Q1022 ,TXKF,2024-03-22T03:55:00Z,32.364,-64.679,18,14,310,7,,6+,30.18,,,,,,,,,,,SCT,2100,,,,,,,VFR,,,,,,,,,,,,METAR,4
TNCE 220355Z AUTO 06008KT //// // ///////// 26/22 Q1016 RE//,TNCE,2024-03-22T03:55:00Z,17.497,-62.979,26,22,60,8,,,30.00,,,TRUE,,,,,,,,,,,,,,,,VFR,,,,,,,,,,,,METAR,38
TNCB 220355Z AUTO 08009KT 9999 SCT019/// 27/23 Q1013,TNCB,2024-03-22T03:55:00Z,12.133,-68.277,27,23,80,9,,6+,29.91,,,TRUE,,,,,,,,SCT,1900,,,,,,,VFR,,,,,,,,,,,,METAR,6
RODN 220355Z AUTO 16011KT 10SM FEW090 21/11 A3006 RMK AO2 SLP187 T02140105 FZRANO $,RODN,2024-03-22T03:55:00Z,26.356,127.768,21.4,10.5,160,11,,10+,30.06,1018.7,,TRUE,TRUE,TRUE,,,TRUE,,,FEW,9000,,,,,,,VFR,,,,,,,,,,,,METAR,38
RKJK 220355Z 17018KT 9SM HZ BKN055 BKN110 BKN150 BKN180 BKN200 17/03 A2989 RMK AO2A PK WND 17026/19 SLP126 T01690028 $,RKJK,2024-03-22T03:55:00Z,35.9,126.618,16.9,2.8,170,18,,9,29.89,1012.6,,,TRUE,TRUE,,,,,HZ,BKN,5500,BKN,11000,BKN,15000,BKN,18000,VFR,,,,,,,,,,,,METAR,8
RJTY 220355Z AUTO 03014G21KT 10SM CLR 11/M13 A3008 RMK AO2 SLP193 T01081133 $,RJTY,2024-03-22T03:55:00Z,35.749,139.349,10.8,-13.3,30,14,21,10+,30.08,1019.3,,TRUE,TRUE,TRUE,,,,,,CLR,,,,,,,,VFR,,,,,,,,,,,,METAR,136
PWAK 220355Z AUTO 16014KT 10SM FEW015 FEW021 30/25 A2988 RMK AO2 SLP124 T02960249,PWAK,2024-03-22T03:55:00Z,19.287,166.623,29.6,24.9,160,14,,10+,29.88,1012.4,,TRUE,TRUE,,,,,,,FEW,1500,FEW,2100,,,,,VFR,,,,,,,,,,,,METAR,7
PTSA 220355Z 05009KT 10SM BKN021TCU BKN130 BKN300 31/25 A2979 RMK TCU NE,PTSA,2024-03-22T03:55:00Z,5.352,162.956,31,25,50,9,,10+,29.79,,,,,,,,,,,BKN,2100,BKN,13000,BKN,30000,,,MVFR,,,,,,,,,,,,METAR,3
PHHI 220355Z AUTO 06009KT 10SM SCT035 SCT043 22/14 A3016 RMK AO2 SLP208 T02190135 $,PHHI,2024-03-22T03:55:00Z,21.478,-158.044,21.9,13.5,60,9,,10+,30.16,1020.8,,TRUE,TRUE,TRUE,,,,,,SCT,3500,SCT,4300,,,,,VFR,,,,,,,,,,,,METAR,246
PGUA 220355Z AUTO 04017KT 10SM CLR 29/20 A2992 RMK AO2 SLP122 T02850202 RVRNO TSNO $,PGUA,2024-03-22T03:55:00Z,13.583,144.918,28.5,20.2,40,17,,10+,29.92,1012.2,,TRUE,TRUE,TRUE,,TRUE,,,,CLR,,,,,,,,VFR,,,,,,,,,,,,METAR,159
PAWG 220355Z 00000KT 10SM CLR 06/M01 A3009,PAWG,2024-03-22T03:55:00Z,56.486,-132.377,6,-1,0,0,,10+,30.09,,,,,,,,,,,CLR,,,,,,,,VFR,,,,,,,,,,,,METAR,6
PATL 220355Z AUTO VRB05KT 10SM CLR 05/M05 A2985 RMK AO2 SLP119 T00531051 $,PATL,2024-03-22T03:55:00Z,62.893,-155.977,5.3,-5.1,VRB,5,,10+,29.85,1011.9,,TRUE,TRUE,TRUE,,,,,,CLR,,,,,,,,VFR,,,,,,,,,,,,METAR,261
PATC 220355Z AUTO 05006KT 10SM -SHSN OVC035 M05/M07 A2954 RMK AO2 SHSNB0255 SLP008 P0000 T10551072,PATC,2024-03-22T03:55:00Z,65.562,-167.924,-5.5,-7.2,50,6,,10+,29.54,1000.8,,TRUE,TRUE,,,,,,-SHSN,OVC,3500,,,,,,,VFR,,,,,,0.005,,,,,,METAR,77
PASV 220355Z AUTO 17014G22KT 10SM FEW120 05/M06 A2980 RMK AO2 SLP106 T00481063,PASV,2024-03-22T03:55:00Z,61.101,-155.577,4.8,-6.3,170,14,22,10+,29.80,1010.6,,TRUE,TRUE,,,,,,,FEW,12000,,,,,,,VFR,,,,,,,,,,,,METAR,462
PAIM 220355Z AUTO 00000KT 10SM BKN090 M02/M03 A2987 RMK AO2 SLP139 T10161031,PAIM,2024-03-22T03:55:00Z,65.994,-153.695,-1.6,-3.1,0,0,,10+,29.87,1013.9,,TRUE,TRUE,,,,,,,BKN,9000,,,,,,,VFR,,,,,,,,,,,,METAR,309
PAFR 220355Z AUTO 00000KT 10SM FEW150 03/M03 A3005 RMK AO2 RAB04E30RAB31E41 SLP185 P0000 T00281029 $,PAFR,2024-03-22T03:55:00Z,61.263,-149.66,2.8,-2.9,0,0,,10+,30.05,1018.5,,TRUE,TRUE,TRUE,,,,,,FEW,15000,,,,,,,VFR,,,,,,0.005,,,,,,METAR,106
PAFB 220355Z 00000KT 8SM FEW100 SCT140 BKN200 01/M06 A2990 RMK AO2A SLP137 T00131058 $,PAFB,2024-03-22T03:55:00Z,64.836,-147.614,1.3,-5.8,0,0,,8,29.90,1013.7,,,TRUE,TRUE,,,,,,FEW,10000,SCT,14000,BKN,20000,,,VFR,,,,,,,,,,,,METAR,137
PAEI 220355Z AUTO 00000KT 10SM CLR 03/M05 A2988 RMK AO2 SLP130 T00321052 $,PAEI,2024-03-22T03:55:00Z,64.654,-147.094,3.2,-5.2,0,0,,10+,29.88,1013,,TRUE,TRUE,TRUE,,,,,,CLR,,,,,,,,VFR,,,,,,,,,,,,METAR,166
PAEH 220355Z AUTO 03026G37KT 010V080 10SM OVC022 04/M01 A2947 RMK AO2 PK WND 07047/0323 SLP985 T00401014,PAEH,2024-03-22T03:55:00Z,58.652,-162.062,4,-1.4,30,26,37,10+,29.47,998.5,,TRUE,TRUE,,,,,,,OVC,2200,,,,,,,MVFR,,,,,,,,,,,,METAR,101
PAED 220355Z 02004KT 10SM FEW080 SCT150 BKN170 05/M03 A3004 RMK AO2A SLP170 T00491027,PAED,2024-03-22T03:55:00Z,61.25,-149.837,4.9,-2.7,20,4,,10+,30.04,1017,,,TRUE,,,,,,,FEW,8000,SCT,15000,BKN,17000,,,VFR,,,,,,,,,,,,METAR,54
OPFA 220355Z 09008KT 2500 FU FEW100 23/19 Q1012 BECMG 3000,OPFA,2024-03-22T03:55:00Z,31.365,72.995,23,19,90,8,,1.55,29.88,,,,,,,,,,FU,FEW,10000,,,,,,,IFR,,,,,,,,,,,,METAR,180
NZCM 220355Z AUTO 10009KT 9999 BKN050 OVC070 M15/M20 A2925 RMK AO2 SLP912 T11531197 $,NZCM,2024-03-22T03:55:00Z,-77.85,166.667,-15.3,-19.7,100,9,,6+,29.25,991.2,,TRUE,TRUE,TRUE,,,,,,BKN,5000,OVC,7000,,,,,VFR,,,,,,,,,,,,METAR,24
MMSD 220355Z 29010KT 8SM SKC 21/06 A3001,MMSD,2024-03-22T03:55:00Z,23.157,-109.72,21,6,290,10,,8,30.01,,,,,,,,,,,SKC,,,,,,,,VFR,,,,,,,,,,,,METAR,107
LIVT 220355Z AUTO 06008KT 020V100 //// 14/06 Q1020,LIVT,2024-03-22T03:55:00Z,45.677,13.754,14,6,60,8,,,30.12,,,TRUE,,,,,,,,,,,,,,,,VFR,,,,,,,,,,,,METAR,20
LIVR 220355Z 35004KT CAVOK M02/M06 Q1023 RMK SKC MON LIB VIS MIN 9999,LIVR,2024-03-22T03:55:00Z,46.298,11.787,-2,-6,350,4,,6+,30.21,,,,,,,,,,,CAVOK,,,,,,,,VFR,,,,,,,,,,,,METAR,1997
LIVP 220355Z 36009KT CAVOK M01/M07 Q1022,LIVP,2024-03-22T03:55:00Z,46.143,11.038,-1,-7,360,9,,6+,30.18,,,,,,,,,,,CAVOK,,,,,,,,VFR,,,,,,,,,,,,METAR,2099
LIVM 220355Z AUTO /////KT //// ///// Q////,LIVM,2024-03-22T03:55:00Z,44.441,12.296,,,,,,,0.00,,,TRUE,,,,,,,,,,,,,,,,VFR,,,,,,,,,,,,METAR,6
LIVF 220355Z 20002KT 9999 OVC015 09/09 Q1019 RMK OVC MON S W CIME INC ABB VAL NEBBIA SCT VIS MIN 9999,LIVF,2024-03-22T03:55:00Z,43.517,12.728,9,9,200,2,,6+,30.09,,,,,,,,,,,OVC,1500,,,,,,,MVFR,,,,,,,,,,,,METAR,549
LIVD 220355Z AUTO VRB02KT //// M02/M03 Q1024,LIVD,2024-03-22T03:55:00Z,46.729,12.228,-2,-3,VRB,2,,,30.24,,,TRUE,,,,,,,,,,,,,,,,VFR,,,,,,,,,,,,METAR,1221
LIVC 220355Z AUTO 01021KT //// 00/M01 Q1022,LIVC,2024-03-22T03:55:00Z,44.194,10.7,0,-1,10,21,,,30.18,,,TRUE,,,,,,,,,,,,,,,,VFR,,,,,,,,,,,,METAR,2139
LIRY 220355Z AUTO 28004KT //// 12/11 Q1019,LIRY,2024-03-22T03:55:00Z,-99.99,-99.99,12,11,280,4,,,30.09,,,TRUE,,,,,,,,,,,,,,,,VFR,,,,,,,,,,,,METAR,9999
LIRX 220355Z AUTO 34010KT //// 10/09 Q1019,LIRX,2024-03-22T03:55:00Z,42.731,10.396,10,9,340,10,,,30.09,,,TRUE,,,,,,,,,,,,,,,,VFR,,,,,,,,,,,,METAR,397
LIRS 220355Z 08003KT 9999 SCT060 12/09 Q1018 RMK BKN BKN100 VIS MIN 9999 WIND THR03 09003KT WIND THR21 08003KT BLU,LIRS,2024-03-22T03:55:00Z,42.76,11.072,12,9,80,3,,6+,30.06,,,,,,,,,,,SCT,6000,,,,,,,VFR,,,,,,,,,,,,METAR,3
LIRM 220355Z 01004KT 6000 SCT010 SCT070 09/06 Q1018 RMK BKN VIS MIN 6000 WIND THR06 06005KT WHT,LIRM,2024-03-22T03:55:00Z,41.061,14.082,9,6,10,4,,3.73,30.06,,,,,,,,,,,SCT,1000,SCT,7000,,,,,MVFR,,,,,,,,,,,,METAR,6
LIRK 220355Z AUTO 09012G25KT //// 01/M00 Q1021,LIRK,2024-03-22T03:55:00Z,42.466,12.979,1,0,90,12,25,,30.15,,,TRUE,,,,,,,,,,,,,,,,VFR,,,,,,,,,,,,METAR,1721
LIRE 220355Z 20002KT 9999 BKN060 13/11 Q1018 RMK OVC SCT080 VIS MIN 9999 WIND THR13 /////KT WIND THR31 /////KT BLU,LIRE,2024-03-22T03:55:00Z,41.656,12.449,13,11,200,2,,6+,30.06,,,,,,,,,,,BKN,6000,,,,,,,VFR,,,,,,,,,,,,METAR,16
LIQO 220355Z AUTO 31013G24KT 260V340 //// 08/08 Q1018,LIQO,2024-03-22T03:55:00Z,42.387,11.17,8,8,310,13,24,,30.06,,,TRUE,,,,,,,,,,,,,,,,VFR,,,,,,,,,,,,METAR,627
LIPS 220355Z 35006KT 7000 NSC 09/08 Q1020 RMK SKC VIS MIN 7000 WIND THR26 30002KT WIND THR08 33005KT WHT,LIPS,2024-03-22T03:55:00Z,45.689,12.101,9,8,350,6,,4.35,30.12,,,,,,,,,,,CLR,,,,,,,,MVFR,,,,,,,,,,,,METAR,42
LIPL 220355Z 03005KT 3000 BR NSC 08/08 Q1020 RMK SKC VIS MIN 3000 WIND THR31 03006KT WIND THR13 03005KT YLO,LIPL,2024-03-22T03:55:00Z,45.432,10.268,8,8,30,5,,1.86,30.12,,,,,,,,,,BR,CLR,,,,,,,,IFR,,,,,,,,,,,,METAR,96
LIPI 220355Z 36003KT CAVOK 08/05 Q1020,LIPI,2024-03-22T03:55:00Z,45.979,13.049,8,5,360,3,,6+,30.12,,,,,,,,,,,CAVOK,,,,,,,,VFR,,,,,,,,,,,,METAR,49
LIPC 220355Z 29005KT 0800 FG BKN001 10/10 Q1021 RMK BKN VIS MIN 0800 WIND THR11 29005KT WIND THR29 28004KT RED,LIPC,2024-03-22T03:55:00Z,44.224,12.307,10,10,290,5,,0.5,30.15,,,,,,,,,,FG,BKN,100,,,,,,,LIFR,,,,,,,,,,,,METAR,10
LIPA 220355Z 33004KT CAVOK 08/05 Q1020 RMK SKC VIS MIN 9999 WIND THR05 /////KT WIND THR23 /////KT A3013 BLU,LIPA,2024-03-22T03:55:00Z,46.03,12.599,8,5,330,4,,6+,30.12,,,,,,,,,,,CAVOK,,,,,,,,VFR,,,,,,,,,,,,METAR,113
LIMY 220355Z AUTO 21005KT //// 13/00 Q1020,LIMY,2024-03-22T03:55:00Z,44.258,7.794,13,0,210,5,,,30.12,,,TRUE,,,,,,,,,,,,,,,,VFR,,,,,,,,,,,,METAR,1742
LIMK 220355Z AUTO 14005KT //// 14/05 Q1020,LIMK,2024-03-22T03:55:00Z,45.033,7.731,14,5,140,5,,,30.12,,,TRUE,,,,,,,,,,,,,,,,VFR,,,,,,,,,,,,METAR,693
LIMH 220355Z AUTO 05027KT //// M05/M30 Q1025,LIMH,2024-03-22T03:55:00Z,45.935,7.707,-5,-30,50,27,,,30.27,,,TRUE,,,,,,,,,,,,,,,,VFR,,,,,,,,,,,,METAR,3473
LIED 220355Z 28004KT 0200 FG BKN003 11/11 Q1017 RMK BKN VIS MIN 0200 WIND THR35 /////KT WIND THR17 28004KT RED,LIED,2024-03-22T03:55:00Z,39.354,8.973,11,11,280,4,,0.12,30.03,,,,,,,,,,FG,BKN,300,,,,,,,LIFR,,,,,,,,,,,,METAR,26
LIEB 220355Z 07018KT CAVOK 14/11 Q1018 RMK SKC QUK / QUL / VIS MAR 30 KM MON INVIS VIS MIN 9999,LIEB,2024-03-22T03:55:00Z,39.931,9.713,14,11,70,18,,6+,30.06,,,,,,,,,,,CAVOK,,,,,,,,VFR,,,,,,,,,,,,METAR,126
LICZ 220355Z 26004KT 9999 FEW025 10/10 Q1018 RMK FEW VIS MIN 9999 WIND THR28 28006KT WIND THR10 /////KT A3008 BLU,LICZ,2024-03-22T03:55:00Z,37.406,14.919,10,10,260,4,,6+,30.06,,,,,,,,,,,FEW,2500,,,,,,,VFR,,,,,,,,,,,,METAR,22
LIBY 220355Z AUTO 02006KT //// 11/07 Q1016,LIBY,2024-03-22T03:55:00Z,39.811,18.342,11,7,20,6,,,30.00,,,TRUE,,,,,,,,,,,,,,,,VFR,,,,,,,,,,,,METAR,105
LIBV 220355Z 36003KT CAVOK 10/09 Q1016 RMK BKN SCT060 BKN130 VIS MIN 9999 WIND THR32 02005KT WIND THR14 36004KT BLU,LIBV,2024-03-22T03:55:00Z,40.766,16.935,10,9,360,3,,6+,30.00,,,,,,,,,,,CAVOK,,,,,,,,VFR,,,,,,,,,,,,METAR,344
LIBQ 220355Z AUTO 11002KT //// 05/M04 Q1018,LIBQ,2024-03-22T03:55:00Z,39.331,16.396,5,-4,110,2,,,30.06,,,TRUE,,,,,,,,,,,,,,,,VFR,,,,,,,,,,,,METAR,1660
LIBN 220355Z VRB03KT 9999 FEW010 06/06 Q1017 RMK BKN BKN180 VIS MIN 9999 WIND THR14 VRB03KT WIND THR32 VRB03KT BLU,LIBN,2024-03-22T03:55:00Z,40.238,18.138,6,6,VRB,3,,6+,30.03,,,,,,,,,,,FEW,1000,,,,,,,VFR,,,,,,,,,,,,METAR,46
LIBA 220355Z 31003KT 9999 BKN060 11/09 Q1018 RMK BKN VIS MIN 9999 WIND THR11 30002KT WIND THR29 /////KT BLU,LIBA,2024-03-22T03:55:00Z,41.538,15.714,11,9,310,3,,6+,30.06,,,,,,,,,,,BKN,6000,,,,,,,VFR,,,,,,,,,,,,METAR,55
KXIF 220355Z AUTO 00000KT 10SM CLR 01/M11 A3027 RMK AO2 SLP262 T00121109 $,KXIF,2024-03-22T03:55:00Z,-99.99,-99.99,1.2,-10.9,0,0,,10+,30.27,1026.2,,TRUE,TRUE,TRUE,,,,,,CLR,,,,,,,,VFR,,,,,,,,,,,,METAR,9999
KWRI 220355Z AUTO 02004KT 10SM CLR M01/M10 A3030 RMK AO2 SLP262 T10101099,KWRI,2024-03-22T03:55:00Z,40.016,-74.591,-1,-9.9,20,4,,10+,30.30,1026.2,,TRUE,TRUE,,,,,,,CLR,,,,,,,,VFR,,,,,,,,,,,,METAR,35
KWRB 220355Z 16008KT 10SM FEW160 18/08 A3006 RMK AO2A SLP180 T01810078,KWRB,2024-03-22T03:55:00Z,32.639,-83.593,18.1,7.8,160,8,,10+,30.06,1018,,,TRUE,,,,,,,FEW,16000,,,,,,,VFR,,,,,,,,,,,,METAR,82
KVPS 220355Z AUTO 09004KT 10SM SCT095 17/12 A3002 RMK AO2 SLP172 T01720119 $,KVPS,2024-03-22T03:55:00Z,30.483,-86.526,17.2,11.9,90,4,,10+,30.02,1017.2,,TRUE,TRUE,TRUE,,,,,,SCT,9500,,,,,,,VFR,,,,,,,,,,,,METAR,21
KVBG 220355Z AUTO 01005KT 10SM CLR 13/11 A3011 RMK AO2 SLP200 T01260112 TSNO $,KVBG,2024-03-22T03:55:00Z,34.733,-120.583,12.6,11.2,10,5,,10+,30.11,1020,,TRUE,TRUE,TRUE,,TRUE,,,,CLR,,,,,,,,VFR,,,,,,,,,,,,METAR,96
KTHM 220355Z AUTO 00000KT 10SM 06/04 A3008 RMK Thompson Falls ,KTHM,2024-03-22T03:55:00Z,47.574,-115.282,6,4,0,0,,10+,30.08,,,TRUE,,,,,,,,,,,,,,,,VFR,,,,,,,,,,,,METAR,751
KTCM 220355Z AUTO 00000KT 10SM FEW006 SCT023 BKN037 OVC049 11/10 A3005 RMK AO2 SLP180 T01100101 $,KTCM,2024-03-22T03:55:00Z,47.149,-122.475,11,10.1,0,0,,10+,30.05,1018,,TRUE,TRUE,TRUE,,,,,,FEW,600,SCT,2300,BKN,3700,OVC,4900,VFR,,,,,,,,,,,,METAR,87
KSUU 220355Z 25009KT 10SM CLR 14/09 A3005 RMK AO2A SLP182 T01420086 $,KSUU,2024-03-22T03:55:00Z,38.25,-121.938,14.2,8.6,250,9,,10+,30.05,1018.2,,,TRUE,TRUE,,,,,,CLR,,,,,,,,VFR,,,,,,,,,,,,METAR,9
KSLI 220355Z 30003KT 10SM CLR 15/12 A3004 RMK AO2A SLP176 T01500119,KSLI,2024-03-22T03:55:00Z,33.796,-118.042,15,11.9,300,3,,10+,30.04,1017.6,,,TRUE,,,,,,,CLR,,,,,,,,VFR,,,,,,,,,,,,METAR,8
KSKA 220355Z 20004KT 10SM OVC090 10/M00 A3001 RMK AO2A SLP166 T00951004 $,KSKA,2024-03-22T03:55:00Z,47.612,-117.679,9.5,-0.4,200,4,,10+,30.01,1016.6,,,TRUE,TRUE,,,,,,OVC,9000,,,,,,,VFR,,,,,,,,,,,,METAR,754
KSHM 220355Z AUTO 35008KT 10SM CLR 10/M07 A2993 RMK AO2 SLP100 T00991069 $,KSHM,2024-03-22T03:55:00Z,38.8,-104.52,9.9,-6.9,350,8,,10+,29.93,1010,,TRUE,TRUE,TRUE,,,,,,CLR,,,,,,,,VFR,,,,,,,,,,,,METAR,1900
KSCK 220355Z 35005KT 10SM CLR 16/08 A3007 RMK AO2 SLP181 T01560083,KSCK,2024-03-22T03:55:00Z,37.89,-121.226,15.6,8.3,350,5,,10+,30.07,1018.1,,,TRUE,,,,,,,CLR,,,,,,,,VFR,,,,,,,,,,,,METAR,8
KRYM 220355Z AUTO 00000KT 1 3/8SM -SN BR OVC011 M04/M06 A3019 RMK AO2 SLP246 P0002 T10431057 $,KRYM,2024-03-22T03:55:00Z,46.0878,-94.353,-4.3,-5.7,0,0,,1.38,30.19,1024.6,,TRUE,TRUE,TRUE,,,,,-SN BR,OVC,1100,,,,,,,IFR,,,,,,0.02,,,,,,METAR,344
KRPX 220355Z AUTO 03010KT 10SM M03/M08 A3000 RMK Roundup ,KRPX,2024-03-22T03:55:00Z,46.475,-108.542,-3,-8,30,10,,10+,30.00,,,TRUE,,,,,,,,,,,,,,,,VFR,,,,,,,,,,,,METAR,1062
KRNO 220355Z 29010G16KT 10SM SCT200 13/00 A3010 RMK AO2 SLP168 T01280000,KRNO,2024-03-22T03:55:00Z,39.5077,-119.768,12.8,0,290,10,16,10+,30.10,1016.8,,,TRUE,,,,,,,SCT,20000,,,,,,,VFR,,,,,,,,,,,,METAR,1344
KRIV 220355Z AUTO 29004KT 10SM CLR 14/08 A3008 RMK AO2 SLP183 T01370081,KRIV,2024-03-22T03:55:00Z,33.878,-117.244,13.7,8.1,290,4,,10+,30.08,1018.3,,TRUE,TRUE,,,,,,,CLR,,,,,,,,VFR,,,,,,,,,,,,METAR,454
KRCA 220355Z 04004KT 10SM OVC013 M04/M07 A3000 RMK AO2A CIG 012 RWY13 SLP206 T10371067,KRCA,2024-03-22T03:55:00Z,44.155,-103.118,-3.7,-6.7,40,4,,10+,30.00,1020.6,,,TRUE,,,,,,,OVC,1300,,,,,,,MVFR,,,,,,,,,,,,METAR,993
KQTZ 220355Z 14007KT 9999 SCT160 BKN200 16/07 A2980 RMK SLP093,KQTZ,2024-03-22T03:55:00Z,-99.99,-99.99,16,7,140,7,,6+,29.80,1009.3,,,,,,,,,,SCT,16000,BKN,20000,,,,,VFR,,,,,,,,,,,,METAR,9999
KQHY 220355Z AUTO 00000KT 10SM FEW080 BKN150 18/14 A3002 RMK AO2 SLP174 T01790142,KQHY,2024-03-22T03:55:00Z,-99.99,-99.99,17.9,14.2,0,0,,10+,30.02,1017.4,,TRUE,TRUE,,,,,,,FEW,8000,BKN,15000,,,,,VFR,,,,,,,,,,,,METAR,9999
KQDG 220355Z AUTO 32017G23KT 9999 FEW047 07/M05 A3001 RMK AO2 SLP164 T00701054 PNO $,KQDG,2024-03-22T03:55:00Z,-99.99,-99.99,7,-5.4,320,17,23,6+,30.01,1016.4,,TRUE,TRUE,TRUE,,,,,,FEW,4700,,,,,,,VFR,,,,,,,,,,,,METAR,9999
KPSM 220355Z 27012G19KT 10SM SCT060 M02/M15 A3011 RMK AO2A PK WND 29027/03 SLP200 T10211152,KPSM,2024-03-22T03:55:00Z,43.0677,-70.8127,-2.1,-15.2,270,12,19,10+,30.11,1020,,,TRUE,,,,,,,SCT,6000,,,,,,,VFR,,,,,,,,,,,,METAR,34
KPHP 220355Z AUTO 04014G26KT 10SM FEW047 OVC070 M03/M08 A3006 RMK AO2 PK WND 05030/0256 SLP199 T10281078,KPHP,2024-03-22T03:55:00Z,44.051,-101.601,-2.8,-7.8,40,14,26,10+,30.06,1019.9,,TRUE,TRUE,,,,,,,FEW,4700,OVC,7000,,,,,VFR,,,,,,,,,,,,METAR,673
KPAM 220355Z 23007KT 10SM BKN085 BKN110 18/13 A3006 RMK SLP182 T01830127 $,KPAM,2024-03-22T03:55:00Z,30.071,-85.577,18.3,12.7,230,7,,10+,30.06,1018.2,,,,TRUE,,,,,,BKN,8500,BKN,11000,,,,,VFR,,,,,,,,,,,,METAR,4
KP58 220355Z AUTO 17004KT M03/M09 A3030 RMK AO1 SLP276 T10331089,KP58,2024-03-22T03:55:00Z,44.0217,-82.7929,-3.3,-8.9,170,4,,,30.30,1027.6,,TRUE,TRUE,,,,,,,,,,,,,,,VFR,,,,,,,,,,,,METAR,180
KOFF 220355Z AUTO 12008KT 10SM SCT055 07/M06 A2991 RMK AO2 SLP138 T00741064,KOFF,2024-03-22T03:55:00Z,41.122,-95.91,7.4,-6.4,120,8,,10+,29.91,1013.8,,TRUE,TRUE,,,,,,,SCT,5500,,,,,,,VFR,,,,,,,,,,,,METAR,308
KNKX 220355Z 33004KT 7SM FEW010 12/11 A3008 RMK AO2 SLP184 T01170111,KNKX,2024-03-22T03:55:00Z,32.865,-117.137,11.7,11.1,330,4,,7,30.08,1018.4,,,TRUE,,,,,,,FEW,1000,,,,,,,VFR,,,,,,,,,,,,METAR,138
KNFG 220355Z 01003KT 9SM CLR 13/11 A3009 RMK AO2 SLP189 T01330106,KNFG,2024-03-22T03:55:00Z,33.304,-117.355,13.3,10.6,10,3,,9,30.09,1018.9,,,TRUE,,,,,,,CLR,,,,,,,,VFR,,,,,,,,,,,,METAR,21
KNBG 220355Z 14006KT 10SM FEW021 SCT048 BKN055 BKN200 17/15 A2996 RMK AO2 SLP143 T01670150 $,KNBG,2024-03-22T03:55:00Z,29.837,-90.024,16.7,15,140,6,,10+,29.96,1014.3,,,TRUE,TRUE,,,,,,FEW,2100,SCT,4800,BKN,5500,BKN,20000,VFR,,,,,,,,,,,,METAR,
KMUO 220355Z AUTO 00000KT 10SM CLR 07/00 A3002 RMK AO2 SLP167 T00690001 $,KMUO,2024-03-22T03:55:00Z,43.03,-115.859,6.9,0.1,0,0,,10+,30.02,1016.7,,TRUE,TRUE,TRUE,,,,,,CLR,,,,,,,,VFR,,,,,,,,,,,,METAR,915
KMUI 220355Z AUTO 01006KT 10SM CLR 02/M14 A3029 RMK AO2 SLP265 T00191143,KMUI,2024-03-22T03:55:00Z,40.4381,-76.5643,1.9,-14.3,10,6,,10+,30.29,1026.5,,TRUE,TRUE,,,,,,,CLR,,,,,,,,VFR,,,,,,,,,,,,METAR,146
KMTC 220355Z AUTO 00000KT 10SM CLR M04/M09 A3030 RMK AO2 SLP274 T10421094 $,KMTC,2024-03-22T03:55:00Z,42.6045,-82.8353,-4.2,-9.4,0,0,,10+,30.30,1027.4,,TRUE,TRUE,TRUE,,,,,,CLR,,,,,,,,VFR,,,,,,,,,,,,METAR,177
KMKG 220355Z AUTO 11005KT 10SM CLR M03/M13 A3026 RMK AO2 SLP256 T10281128,KMKG,2024-03-22T03:55:00Z,43.1711,-86.2368,-2.8,-12.8,110,5,,10+,30.26,1025.6,,TRUE,TRUE,,,,,,,CLR,,,,,,,,VFR,,,,,,,,,,,,METAR,190
KMIB 220355Z 03009KT 3SM -SN FEW006 OVC018 M06/M10 A3019 RMK AO2A CIG 022V029 BKN V OVC CIG 017 RWY30 SLP258 P0000 T10651100 $,KMIB,2024-03-22T03:55:00Z,48.4062,-101.341,-6.5,-10,30,9,,3,30.19,1025.8,,,TRUE,TRUE,,,,,-SN,FEW,600,OVC,1800,,,,,MVFR,,,,,,0.005,,,,,,METAR,505
KLZZ 220355Z AUTO 32005KT 10SM CLR 12/12 A2989 RMK AO2 T01170117,KLZZ,2024-03-22T03:55:00Z,31.1059,-98.1975,11.7,11.7,320,5,,10+,29.89,,,TRUE,TRUE,,,,,,,CLR,,,,,,,,VFR,,,,,,,,,,,,METAR,356
KLUF 220355Z AUTO 24006KT 10SM CLR 22/03 A2998 RMK AO2 SLP146 T02190026 $,KLUF,2024-03-22T03:55:00Z,33.538,-112.38,21.9,2.6,240,6,,10+,29.98,1014.6,,TRUE,TRUE,TRUE,,,,,,CLR,,,,,,,,VFR,,,,,,,,,,,,METAR,333
KLSV 220355Z AUTO 18008KT 10SM CLR 23/M06 A2994 RMK AO2 SLP125 T02281061,KLSV,2024-03-22T03:55:00Z,36.236,-115.034,22.8,-6.1,180,8,,10+,29.94,1012.5,,TRUE,TRUE,,,,,,,CLR,,,,,,,,VFR,,,,,,,,,,,,METAR,563
KLLJ 220355Z AUTO 25008KT 10SM SCT070 08/M07 A3005 RMK AO2 SLP162 T00781067,KLLJ,2024-03-22T03:55:00Z,44.523,-114.216,7.8,-6.7,250,8,,10+,30.05,1016.2,,TRUE,TRUE,,,,,,,SCT,7000,,,,,,,VFR,,,,,,,,,,,,METAR,1535
KLIC 220355Z AUTO 32004KT 10SM CLR 04/M09 A2992 RMK AO2 SLP097 T00441094,KLIC,2024-03-22T03:55:00Z,39.2733,-103.667,4.4,-9.4,320,4,,10+,29.92,1009.7,,TRUE,TRUE,,,,,,,CLR,,,,,,,,VFR,,,,,,,,,,,,METAR,1635
KLGF 220355Z AUTO 22007KT 10SM CLR 24/01 A2998 RMK AO2 SLP151 T02380014 $,KLGF,2024-03-22T03:55:00Z,32.868,-114.393,23.8,1.4,220,7,,10+,29.98,1015.1,,TRUE,TRUE,TRUE,,,,,,CLR,,,,,,,,VFR,,,,,,,,,,,,METAR,118
KLFI 220355Z AUTO 10007KT 10SM CLR 07/01 A3028 RMK AO2 SLP260 T00740013 $,KLFI,2024-03-22T03:55:00Z,37.088,-76.349,7.4,1.3,100,7,,10+,30.28,1026,,TRUE,TRUE,TRUE,,,,,,CLR,,,,,,,,VFR,,,,,,,,,,,,METAR,2
KLCK 220355Z AUTO 04008KT 10SM CLR M01/M08 A3025 RMK AO2 T10061085,KLCK,2024-03-22T03:55:00Z,39.83,-82.919,-0.6,-8.5,40,8,,10+,30.25,,,TRUE,TRUE,,,,,,,CLR,,,,,,,,VFR,,,,,,,,,,,,METAR,225
KIRK 220355Z AUTO 11008KT 10SM CLR 04/M06 A3002 RMK AO2 SLP174 T00391061,KIRK,2024-03-22T03:55:00Z,40.0966,-92.5469,3.9,-6.1,110,8,,10+,30.02,1017.4,,TRUE,TRUE,,,,,,,CLR,,,,,,,,VFR,,,,,,,,,,,,METAR,292
KINS 220355Z AUTO 35003KT 10SM CLR 18/M03 A3001 RMK AO2 SLP134 T01791035 $,KINS,2024-03-22T03:55:00Z,36.586,-115.69,17.9,-3.5,350,3,,10+,30.01,1013.4,,TRUE,TRUE,TRUE,,,,,,CLR,,,,,,,,VFR,,,,,,,,,,,,METAR,954
KHRT 220355Z AUTO 13005KT 10SM FEW080 SCT100 SCT130 18/13 A3000 RMK AO2 SLP157 T01790130 $,KHRT,2024-03-22T03:55:00Z,30.428,-86.69,17.9,13,130,5,,10+,30.00,1015.7,,TRUE,TRUE,TRUE,,,,,,FEW,8000,SCT,10000,SCT,13000,,,VFR,,,,,,,,,,,,METAR,10
KHOP 220355Z AUTO 08007KT 10SM CLR 10/M05 A3005 RMK AO2 SLP178 T01001048,KHOP,2024-03-22T03:55:00Z,36.672,-87.495,10,-4.8,80,7,,10+,30.05,1017.8,,TRUE,TRUE,,,,,,,CLR,,,,,,,,VFR,,,,,,,,,,,,METAR,170
KHON 220355Z AUTO 07009KT 10SM BKN060 OVC075 M01/M08 A3009 RMK AO2 SLP203 T10111078 $,KHON,2024-03-22T03:55:00Z,44.3792,-98.2227,-1.1,-7.8,70,9,,10+,30.09,1020.3,,TRUE,TRUE,TRUE,,,,,,BKN,6000,OVC,7500,,,,,VFR,,,,,,,,,,,,METAR,391
KHMN 220355Z AUTO 24007KT 10SM CLR 13/M02 A3003 RMK AO2 SLP130 T01331022 $,KHMN,2024-03-22T03:55:00Z,32.852,-106.108,13.3,-2.2,240,7,,10+,30.03,1013,,TRUE,TRUE,TRUE,,,,,,CLR,,,,,,,,VFR,,,,,,,,,,,,METAR,1240
KHIF 220355Z 00000KT 10SM CLR 09/M06 A3004 RMK AO2A SLP149 T00911059,KHIF,2024-03-22T03:55:00Z,41.111,-111.962,9.1,-5.9,0,0,,10+,30.04,1014.9,,,TRUE,,,,,,,CLR,,,,,,,,VFR,,,,,,,,,,,,METAR,1461
KGXF 220355Z AUTO 22006KT 10SM CLR 21/01 A3000 RMK AO2 SLP151 T02080011 FZRANO $,KGXF,2024-03-22T03:55:00Z,32.885,-112.721,20.8,1.1,220,6,,10+,30.00,1015.1,,TRUE,TRUE,TRUE,,,TRUE,,,CLR,,,,,,,,VFR,,,,,,,,,,,,METAR,261
KGXA 220355Z AUTO 23004KT 10SM CLR 13/07 A3004 RMK AO2 SLP159 WND DATA ESTMD T01270065,KGXA,2024-03-22T03:55:00Z,34.565,-117.669,12.7,6.5,230,4,,10+,30.04,1015.9,,TRUE,TRUE,,,,,,,CLR,,,,,,,,VFR,,,,,,,,,,,,METAR,927
KGUS 220355Z AUTO 08007KT 10SM CLR M01/M10 A3020 RMK AO2 SLP239 T10061103,KGUS,2024-03-22T03:55:00Z,40.6375,-86.1631,-0.6,-10.3,80,7,,10+,30.20,1023.9,,TRUE,TRUE,,,,,,,CLR,,,,,,,,VFR,,,,,,,,,,,,METAR,245
KGUR 220355Z AUTO 33005KT 9SM OVC085 06/M01 A3000 RMK AO2 SLP166 T00611015,KGUR,2024-03-22T03:55:00Z,42.261,-104.732,6.1,-1.5,330,5,,9,30.00,1016.6,,TRUE,TRUE,,,,,,,OVC,8500,,,,,,,VFR,,,,,,,,,,,,METAR,1341
KGTB 220355Z AUTO 28006KT 10SM CLR M07/M14 A3026 RMK AO2 SLP259 T10661137,KGTB,2024-03-22T03:55:00Z,44.0617,-75.7218,-6.6,-13.7,280,6,,10+,30.26,1025.9,,TRUE,TRUE,,,,,,,CLR,,,,,,,,VFR,,,,,,,,,,,,METAR,206
KGRK 220355Z 30003KT 10SM FEW045 14/13 A2987 RMK AO2A LTG DSNT E-S SLP111 T01350129,KGRK,2024-03-22T03:55:00Z,31.0779,-97.8323,13.5,12.9,300,3,,10+,29.87,1011.1,,,TRUE,,,,,,,FEW,4500,,,,,,,VFR,,,,,,,,,,,,METAR,311
KGPI 220355Z 03012G17KT 10SM BKN046 OVC060 04/00 A3001 RMK AO2 SLP173 T00440000,KGPI,2024-03-22T03:55:00Z,48.3041,-114.264,4.4,0,30,12,17,10+,30.01,1017.3,,,TRUE,,,,,,,BKN,4600,OVC,6000,,,,,VFR,,,,,,,,,,,,METAR,903
KGOV 220355Z AUTO 00000KT 10SM FEW210 M10/M12 A3025 RMK AO2 SLP272 T10991117 410141102 $,KGOV,2024-03-22T03:55:00Z,44.681,-84.727,-9.9,-11.7,0,0,,10+,30.25,1027.2,,TRUE,TRUE,TRUE,,,,,,FEW,21000,,,,,,,VFR,,,,,,,,,,,,METAR,350
KGFA 220355Z AUTO 05008KT 4SM -SN OVC019 M04/M07 A3016 RMK AO2 SNB30 SLP266 P0000 T10411069 $,KGFA,2024-03-22T03:55:00Z,47.505,-111.187,-4.1,-6.9,50,8,,4,30.16,1026.6,,TRUE,TRUE,TRUE,,,,,-SN,OVC,1900,,,,,,,MVFR,,,,,,0.005,,,,,,METAR,1058
KFTK 220355Z AUTO 06005KT 10SM CLR 07/M07 A3013 RMK AO2 SLP208 T00681072 FZRANO $,KFTK,2024-03-22T03:55:00Z,37.907,-85.973,6.8,-7.2,60,5,,10+,30.13,1020.8,,TRUE,TRUE,TRUE,,,TRUE,,,CLR,,,,,,,,VFR,,,,,,,,,,,,METAR,225
KFHU 220355Z AUTO 26009KT 10SM CLR 13/M01 A3017 RMK AO2 SLP184 T01281012,KFHU,2024-03-22T03:55:00Z,31.586,-110.348,12.8,-1.2,260,9,,10+,30.17,1018.4,,TRUE,TRUE,,,,,,,CLR,,,,,,,,VFR,,,,,,,,,,,,METAR,1424
KFFO 220355Z AUTO 03005KT 10SM CLR 01/M12 A3023 RMK AO2 SLP248 T00081119,KFFO,2024-03-22T03:55:00Z,39.837,-84.035,0.8,-11.9,30,5,,10+,30.23,1024.8,,TRUE,TRUE,,,,,,,CLR,,,,,,,,VFR,,,,,,,,,,,,METAR,250
KFEW 220355Z AUTO 01012G20KT 10SM FEW170 SCT200 SCT220 03/M03 A3001 RMK AO2 SLP141 T00281033 $,KFEW,2024-03-22T03:55:00Z,41.141,-104.869,2.8,-3.3,10,12,20,10+,30.01,1014.1,,TRUE,TRUE,TRUE,,,,,,FEW,17000,SCT,20000,SCT,22000,,,VFR,,,,,,,,,,,,METAR,1877
KFCS 220355Z AUTO 34008KT 10SM CLR 07/M07 A2993 RMK AO2 SLP125 T00711070 $,KFCS,2024-03-22T03:55:00Z,38.6756,-104.751,7.1,-7,340,8,,10+,29.93,1012.5,,TRUE,TRUE,TRUE,,,,,,CLR,,,,,,,,VFR,,,,,,,,,,,,METAR,1789
KFAF 220355Z AUTO 11004KT 10SM CLR 07/M00 A3026 RMK AO2 SLP251 T00651003 $,KFAF,2024-03-22T03:55:00Z,37.134,-76.61,6.5,-0.3,110,4,,10+,30.26,1025.1,,TRUE,TRUE,TRUE,,,,,,CLR,,,,,,,,VFR,,,,,,,,,,,,METAR,3
KEDW 220355Z 22010KT 50SM FEW250 15/M00 A3004 RMK AO2A SLP163 T01451004,KEDW,2024-03-22T03:55:00Z,34.908,-117.874,14.5,-0.4,220,10,,50,30.04,1016.3,,,TRUE,,,,,,,FEW,25000,,,,,,,VFR,,,,,,,,,,,,METAR,698
KEAT 220355Z AUTO 30005KT 10SM CLR 12/01 A3001 RMK AO2 SLP164 T01220006,KEAT,2024-03-22T03:55:00Z,47.3975,-120.201,12.2,0.6,300,5,,10+,30.01,1016.4,,TRUE,TRUE,,,,,,,CLR,,,,,,,,VFR,,,,,,,,,,,,METAR,375
KDYS 220355Z 33005KT 10SM CLR 13/11 A2987 RMK AO2 SLP095 T01320107,KDYS,2024-03-22T03:55:00Z,32.406,-99.85,13.2,10.7,330,5,,10+,29.87,1009.5,,,TRUE,,,,,,,CLR,,,,,,,,VFR,,,,,,,,,,,,METAR,544
KDUB 220355Z AUTO 32012G17KT 10SM SCT065 OVC080 02/M03 A3000 RMK AO2,KDUB,2024-03-22T03:55:00Z,43.5485,-109.684,2,-3,320,12,17,10+,30.00,,,TRUE,TRUE,,,,,,,SCT,6500,OVC,8000,,,,,VFR,,,,,,,,,,,,METAR,2205
KDOV 220355Z AUTO 00000KT 10SM CLR 02/M05 A3031 RMK AO2 SLP268 T00181054,KDOV,2024-03-22T03:55:00Z,39.13,-75.465,1.8,-5.4,0,0,,10+,30.31,1026.8,,TRUE,TRUE,,,,,,,CLR,,,,,,,,VFR,,,,,,,,,,,,METAR,6
KDMA 220355Z AUTO 00000KT 10SM CLR 18/01 A3006 RMK AO2 SLP153 T01750006 $,KDMA,2024-03-22T03:55:00Z,32.165,-110.887,17.5,0.6,0,0,,10+,30.06,1015.3,,TRUE,TRUE,TRUE,,,,,,CLR,,,,,,,,VFR,,,,,,,,,,,,METAR,804
KDLH 220355Z 04005KT 10SM OVC095 M04/M18 A3017 RMK AO2 SLP243 T10391183,KDLH,2024-03-22T03:55:00Z,46.8435,-92.1866,-3.9,-18.3,40,5,,10+,30.17,1024.3,,,TRUE,,,,,,,OVC,9500,,,,,,,VFR,,,,,,,,,,,,METAR,434
KDAA 220355Z AUTO 00000KT 10SM CLR 01/M09 A3031 RMK AO2 SLP267 T00051087 $,KDAA,2024-03-22T03:55:00Z,38.714,-77.178,0.5,-8.7,0,0,,10+,30.31,1026.7,,TRUE,TRUE,TRUE,,,,,,CLR,,,,,,,,VFR,,,,,,,,,,,,METAR,17
KCWN 220355Z AUTO 30009KT 10SM CLR 10/M09 A2998 RMK AO2 SLP019 T01001086 $,KCWN,2024-03-22T03:55:00Z,38.748,-104.847,10,-8.6,300,9,,10+,29.98,1001.9,,TRUE,TRUE,TRUE,,,,,,CLR,,,,,,,,VFR,,,,,,,,,,,,METAR,2040
KCVS 220355Z AUTO 23008KT 10SM CLR 12/M05 A2992 RMK AO2 SLP100 T01201046 $,KCVS,2024-03-22T03:55:00Z,34.381,-103.322,12,-4.6,230,8,,10+,29.92,1010,,TRUE,TRUE,TRUE,,,,,,CLR,,,,,,,,VFR,,,,,,,,,,,,METAR,1305
KCNW 220355Z 08009KT 7SM VCTSRA SCT020 BKN049 13/13 A2985,KCNW,2024-03-22T03:55:00Z,31.637,-97.071,13,13,80,9,,7,29.85,,,,,,,,,,VCTSRA,SCT,2000,BKN,4900,,,,,VFR,,,,,,,,,,,,METAR,139
KCNK 220355Z AUTO 14008KT 10SM CLR 09/02 A2987 RMK AO2 SLP118 T00940017,KCNK,2024-03-22T03:55:00Z,39.5513,-97.6508,9.4,1.7,140,8,,10+,29.87,1011.8,,TRUE,TRUE,,,,,,,CLR,,,,,,,,VFR,,,,,,,,,,,,METAR,445
KCMY 220355Z AUTO 00000KT 3SM -UP BR BKN026 OVC046 M02/M03 A3018 RMK AO2 UPE12UPB13E18UPB21E32UPB52 CIG 026V034 SLP234 P0000 T10251035 $,KCMY,2024-03-22T03:55:00Z,43.9581,-90.7398,-2.5,-3.5,0,0,,3,30.18,1023.4,,TRUE,TRUE,TRUE,,,,,BR UP,BKN,2600,OVC,4600,,,,,MVFR,,,,,,0.005,,,,,,METAR,253
KCMA 220355Z 15003KT 10SM CLR 15/11 A3008 RMK AO2 SLP193 T01500111,KCMA,2024-03-22T03:55:00Z,34.2114,-119.088,15,11.1,150,3,,10+,30.08,1019.3,,,TRUE,,,,,,,CLR,,,,,,,,VFR,,,,,,,,,,,,METAR,20
KCEF 220355Z 31014G19KT 10SM FEW055 M03/M15 A3020 RMK AO2A PK WND 31026/31 SLP236 T10261150,KCEF,2024-03-22T03:55:00Z,42.201,-72.525,-2.6,-15,310,14,19,10+,30.20,1023.6,,,TRUE,,,,,,,FEW,5500,,,,,,,VFR,,,,,,,,,,,,METAR,72
KCAO 220355Z AUTO 18009KT 10SM CLR 07/M01 A2994 RMK AO2 SLP105 T00671006 $,KCAO,2024-03-22T03:55:00Z,36.4483,-103.154,6.7,-0.6,180,9,,10+,29.94,1010.5,,TRUE,TRUE,TRUE,,,,,,CLR,,,,,,,,VFR,,,,,,,,,,,,METAR,1517
KBYS 220355Z AUTO 14009KT 10SM CLR 17/M02 A3001 RMK AO2 SLP149 T01741018 $,KBYS,2024-03-22T03:55:00Z,35.271,-116.634,17.4,-1.8,140,9,,10+,30.01,1014.9,,TRUE,TRUE,TRUE,,,,,,CLR,,,,,,,,VFR,,,,,,,,,,,,METAR,717
KBLV 220355Z 08005KT 10SM CLR 06/M05 A3008 RMK AO2A SLP191 T00621046 $,KBLV,2024-03-22T03:55:00Z,38.54,-89.845,6.2,-4.6,80,5,,10+,30.08,1019.1,,,TRUE,TRUE,,,,,,CLR,,,,,,,,VFR,,,,,,,,,,,,METAR,134
KBIX 220355Z AUTO 10007KT 10SM SCT120 16/13 A2994 RMK AO2 SLP142 T01620125,KBIX,2024-03-22T03:55:00Z,30.415,-88.922,16.2,12.5,100,7,,10+,29.94,1014.2,,TRUE,TRUE,,,,,,,SCT,12000,,,,,,,VFR,,,,,,,,,,,,METAR,4
KBIF 220355Z 00000KT 10SM FEW100 19/M01 A3005 RMK A02A SLP112 ALSTG/SLP ESTMD WND DATA ESTMD T01901010 $,KBIF,2024-03-22T03:55:00Z,31.861,-106.369,19,-1,0,0,,10+,30.05,1011.2,,,TRUE,TRUE,,,,,,FEW,10000,,,,,,,VFR,,,,,,,,,,,,METAR,1201
KBAB 220355Z 10007KT 10SM CLR 16/07 A3005 RMK AO2A SLP179 T01580070 $,KBAB,2024-03-22T03:55:00Z,39.145,-121.436,15.8,7,100,7,,10+,30.05,1017.9,,,TRUE,TRUE,,,,,,CLR,,,,,,,,VFR,,,,,,,,,,,,METAR,31
KAST 220355Z AUTO 08003KT 10SM -RA SCT060 OVC075 12/09 A3004 RMK AO2 SLP170 P0000 T01170089,KAST,2024-03-22T03:55:00Z,46.157,-123.883,11.7,8.9,80,3,,10+,30.04,1017,,TRUE,TRUE,,,,,,-RA,SCT,6000,OVC,7500,,,,,VFR,,,,,,0.005,,,,,,METAR,3
KAPG 220355Z AUTO 00000KT 9SM CLR M01/M08 A3032 RMK AO2 SLP271 T10151078 $,KAPG,2024-03-22T03:55:00Z,39.474,-76.166,-1.5,-7.8,0,0,,9,30.32,1027.1,,TRUE,TRUE,TRUE,,,,,,CLR,,,,,,,,VFR,,,,,,,,,,,,METAR,18
KANJ 220355Z AUTO 00000KT 10SM CLR M09/M12 A3029 RMK AO2 SLP270 T10941122,KANJ,2024-03-22T03:55:00Z,46.48,-84.3581,-9.4,-12.2,0,0,,10+,30.29,1027,,TRUE,TRUE,,,,,,,CLR,,,,,,,,VFR,,,,,,,,,,,,METAR,220
KAFF 220355Z AUTO 36010KT 10SM CLR 04/M04 A2997 RMK AO2 SLP119 T00401045,KAFF,2024-03-22T03:55:00Z,38.971,-104.816,4,-4.5,360,10,,10+,29.97,1011.9,,TRUE,TRUE,,,,,,,CLR,,,,,,,,VFR,,,,,,,,,,,,METAR,2003
KADW 220355Z AUTO 00000KT 10SM CLR 00/M08 A3030 RMK AO2 SLP270 T00021078 $,KADW,2024-03-22T03:55:00Z,38.8215,-76.8654,0.2,-7.8,0,0,,10+,30.30,1027,,TRUE,TRUE,TRUE,,,,,,CLR,,,,,,,,VFR,,,,,,,,,,,,METAR,87
KABH 220355Z AUTO 03005KT 10SM CLR 05/M07 A2997 RMK AO2 SLP123 T00471071,KABH,2024-03-22T03:55:00Z,38.7587,-104.299,4.7,-7.1,30,5,,10+,29.97,1012.3,,TRUE,TRUE,,,,,,,CLR,,,,,,,,VFR,,,,,,,,,,,,METAR,1838
KAAT 220355Z AUTO 28010KT 10SM CLR 08/M01 A3010 RMK AO2 SLP188 T00831006,KAAT,2024-03-22T03:55:00Z,41.4836,-120.561,8.3,-0.6,280,10,,10+,30.10,1018.8,,TRUE,TRUE,,,,,,,CLR,,,,,,,,VFR,,,,,,,,,,,,METAR,1336
K9S5 220355Z AUTO 35007KT 10SM 06/M01 A3001 RMK Three Forks ,K9S5,2024-03-22T03:55:00Z,45.8827,-111.562,6,-1,350,7,,10+,30.01,,,TRUE,,,,,,,,,,,,,,,,VFR,,,,,,,,,,,,METAR,1246
K9L2 220355Z AUTO 18009KT 8SM CLR 14/01 A3005 RMK AO2 SLP168 T01430009,K9L2,2024-03-22T03:55:00Z,34.996,-117.857,14.3,0.9,180,9,,8,30.05,1016.8,,TRUE,TRUE,,,,,,,CLR,,,,,,,,VFR,,,,,,,,,,,,METAR,697
K4MR 220355Z AUTO 21010KT 10SM CLR 11/M02 A2989 RMK AO2 SLP072 T01131022 $,K4MR,2024-03-22T03:55:00Z,34.29,-103.791,11.3,-2.2,210,10,,10+,29.89,1007.2,,TRUE,TRUE,TRUE,,,,,,CLR,,,,,,,,VFR,,,,,,,,,,,,METAR,1339
K1YT 220355Z AUTO 11007KT 10SM BKN190 11/03 A2998 RMK AO2 SLP158 T01100028 $,K1YT,2024-03-22T03:55:00Z,46.668,-120.457,11,2.8,110,7,,10+,29.98,1015.8,,TRUE,TRUE,TRUE,,,,,,BKN,19000,,,,,,,VFR,,,,,,,,,,,,METAR,423
K1OW 220355Z AUTO 34024G29KT 10SM FEW110 BKN160 OVC190 05/M04 A3008 RMK AO2 PK WND 35033/42 SLP172 T00451038 $,K1OW,2024-03-22T03:55:00Z,40.885,-103.999,4.5,-3.8,340,24,29,10+,30.08,1017.2,,TRUE,TRUE,TRUE,,,,,,FEW,11000,BKN,16000,OVC,19000,,,VFR,,,,,,,,,,,,METAR,1650
K1OM 220355Z AUTO 34012KT 9SM -SN OVC004 M06/M07 A3010 RMK AO2 SLP249 P0000 T10581069 $,K1OM,2024-03-22T03:55:00Z,47.328,-108.927,-5.8,-6.9,340,12,,9,30.10,1024.9,,TRUE,TRUE,TRUE,,,,,-SN,OVC,400,,,,,,,LIFR,,,,,,0.005,,,,,,METAR,1088
K1NW 220355Z AUTO 36023G31KT 10SM OVC095 11/M04 A2993 RMK AO2 PK WND 01031/50 SLP106 T01091036 $,K1NW,2024-03-22T03:55:00Z,40.632,-103.836,10.9,-3.6,360,23,31,10+,29.93,1010.6,,TRUE,TRUE,TRUE,,,,,,OVC,9500,,,,,,,VFR,,,,,,,,,,,,METAR,1461
K1NN 220355Z AUTO 04007KT 9SM -SN BKN044 OVC070 M07/M10 A3023 RMK AO2 SLP271 P0000 T10691101 $,K1NN,2024-03-22T03:55:00Z,48.76,-101.59,-6.9,-10.1,40,7,,9,30.23,1027.1,,TRUE,TRUE,TRUE,,,,,-SN,BKN,4400,OVC,7000,,,,,VFR,,,,,,0.005,,,,,,METAR,516
K1NM 220355Z AUTO 05005KT 10SM BKN017 OVC023 M02/M05 A3005 RMK AO2 SLP222 T10211048 $,K1NM,2024-03-22T03:55:00Z,47.059,-109.031,-2.1,-4.8,50,5,,10+,30.05,1022.2,,TRUE,TRUE,TRUE,,,,,,BKN,1700,OVC,2300,,,,,MVFR,,,,,,,,,,,,METAR,1169
K1MW 220355Z AUTO 35027G36KT 10SM FEW080 BKN100 10/M06 A2992 RMK AO2 PK WND 28040/38 PRESRR SLP110 T00991060 $,K1MW,2024-03-22T03:55:00Z,40.704,-103.477,9.9,-6,350,27,36,10+,29.92,1011,,TRUE,TRUE,TRUE,,,,,,FEW,8000,BKN,10000,,,,,VFR,,,,,,,,,,,,METAR,1338
K1MM 220355Z AUTO 34010KT 4SM -FZDZ BR BKN010 BKN075 OVC150 M05/M07 A3009 RMK AO2 SNB28E47FZDZB47 BKN010 V OVC SLP243 P0000 T10491070 $,K1MM,2024-03-22T03:55:00Z,47.014,-109.63,-4.9,-7,340,10,,4,30.09,1024.3,,TRUE,TRUE,TRUE,,,,,-FZDZ BR,BKN,1000,BKN,7500,OVC,15000,,,MVFR,,,,,,0.005,,,,,,METAR,1256
K1LN 220355Z AUTO 08006KT 7SM -SN BKN048 OVC075 M08/M08 A3021 RMK AO2 SLP270 P0000 T10771082 $,K1LN,2024-03-22T03:55:00Z,48.79,-102.27,-7.7,-8.2,80,6,,7,30.21,1027,,TRUE,TRUE,TRUE,,,,,-SN,BKN,4800,OVC,7500,,,,,VFR,,,,,,0.005,,,,,,METAR,601
K1LM 220355Z AUTO 35021KT 10SM OVC006 M05/M06 A3004 RMK AO2 PK WND 36027/31 SNE03 SLP231 P0000 T10491060 $,K1LM,2024-03-22T03:55:00Z,46.694,-109.74,-4.9,-6,350,21,,10+,30.04,1023.1,,TRUE,TRUE,TRUE,,,,,,OVC,600,,,,,,,IFR,,,,,,0.005,,,,,,METAR,1417
K1KW 220355Z AUTO 36011KT 10SM FEW160 BKN180 04/M05 A2994 RMK AO2 PK WND 20033/0258 SLP125 T00401050 $,K1KW,2024-03-22T03:55:00Z,41.137,-103.488,4,-5,360,11,,10+,29.94,1012.5,,TRUE,TRUE,TRUE,,,,,,FEW,16000,BKN,18000,,,,,VFR,,,,,,,,,,,,METAR,1443
K1KN 220355Z AUTO 05007KT 9SM -SN FEW008 BKN060 BKN075 OVC095 M09/M09 M RMK AO2 SLPNO P0000 T10871092 $,K1KN,2024-03-22T03:55:00Z,48.55,-102.12,-8.7,-9.2,50,7,,9,0.00,,,TRUE,TRUE,TRUE,,,,,-SN,FEW,800,BKN,6000,BKN,7500,OVC,9500,VFR,,,,,,0.005,,,,,,METAR,693
K1KM 220355Z AUTO 01023G28KT 10SM FEW030 OVC090 M03/M05 A3001 RMK AO2 PK WND 01028/48 SNE02 SLP214 P0000 T10291051 $,K1KM,2024-03-22T03:55:00Z,46.444,-109.801,-2.9,-5.1,10,23,28,10+,30.01,1021.4,,TRUE,TRUE,TRUE,,,,,,FEW,3000,OVC,9000,,,,,VFR,,,,,,0.005,,,,,,METAR,1332
K1JW 220355Z AUTO 33019KT 10SM SCT220 04/M06 A2992 RMK AO2 PK WND 35029/31 PRESRR SLP122 T00381065 PWINO $,K1JW,2024-03-22T03:55:00Z,40.961,-103.199,3.8,-6.5,330,19,,10+,29.92,1012.2,,TRUE,TRUE,TRUE,,,,TRUE,,SCT,22000,,,,,,,VFR,,,,,,,,,,,,METAR,1382
K1JN 220355Z AUTO 04009KT 8SM -SN FEW008 SCT018 BKN070 OVC080 M08/M08 M RMK AO2 SLPNO P0000 T10801081 $,K1JN,2024-03-22T03:55:00Z,48.41,-101.89,-8,-8.1,40,9,,8,0.00,,,TRUE,TRUE,TRUE,,,,,-SN,FEW,800,SCT,1800,BKN,7000,OVC,8000,VFR,,,,,,0.005,,,,,,METAR,670
K1JM 220355Z AUTO 35010KT 9SM -SN BKN011 OVC050 M06/M08 A3014 RMK AO2 CIG 011V050 BKN V SCT SLP265 P0000 T10611084 $,K1JM,2024-03-22T03:55:00Z,47.751,-111.547,-6.1,-8.4,350,10,,9,30.14,1026.5,,TRUE,TRUE,TRUE,,,,,-SN,BKN,1100,OVC,5000,,,,,MVFR,,,,,,0.005,,,,,,METAR,1154
K1IW 220355Z AUTO 01018KT 10SM FEW170 BKN230 03/M06 A2991 RMK AO2 PK WND 01034/21 PRESRR SLP123 T00281061 $,K1IW,2024-03-22T03:55:00Z,41.046,-102.865,2.8,-6.1,10,18,,10+,29.91,1012.3,,TRUE,TRUE,TRUE,,,,,,FEW,17000,BKN,23000,,,,,VFR,,,,,,,,,,,,METAR,1294
K1IM 220355Z AUTO 01008KT 7SM -SN BKN019 OVC026 M03/M06 A3014 RMK AO2 SLP250 P0000 T10351065 $,K1IM,2024-03-22T03:55:00Z,47.312,-111.473,-3.5,-6.5,10,8,,7,30.14,1025,,TRUE,TRUE,TRUE,,,,,-SN,BKN,1900,OVC,2600,,,,,MVFR,,,,,,0.005,,,,,,METAR,1110
K1HW 220355Z AUTO 34016KT 10SM BKN160 03/M06 A2993 RMK AO2 PK WND 35029/00 PRESRR SLP131 T00281056 $,K1HW,2024-03-22T03:55:00Z,41.325,-102.83,2.8,-5.6,340,16,,10+,29.93,1013.1,,TRUE,TRUE,TRUE,,,,,,BKN,16000,,,,,,,VFR,,,,,,,,,,,,METAR,1265
K1HM 220355Z AUTO 15008KT 3SM -SN BR OVC016 M06/M08 A3013 RMK AO2 CIG 016V020 SLP262 P0000 T10561077 $,K1HM,2024-03-22T03:55:00Z,47.698,-111.943,-5.6,-7.7,150,8,,3,30.13,1026.2,,TRUE,TRUE,TRUE,,,,,-SN BR,OVC,1600,,,,,,,MVFR,,,,,,0.005,,,,,,METAR,1181
K1GM 220355Z AUTO 03009KT 10SM -FZRA OVC017 M06/M07 A3007 RMK AO2 SNE43FZRAB43 SLP234 P0000 T10561070 $,K1GM,2024-03-22T03:55:00Z,47.325,-112.093,-5.6,-7,30,9,,10+,30.07,1023.4,,TRUE,TRUE,TRUE,,,,,-FZRA,OVC,1700,,,,,,,MVFR,,,,,,0.005,,,,,,METAR,1317
K1FM 220355Z AUTO 03008KT 9SM -SN SCT009 OVC034 M05/M05 A3011 RMK AO2 SLP250 P0000 T10521053 $,K1FM,2024-03-22T03:55:00Z,47.605,-112.311,-5.2,-5.3,30,8,,9,30.11,1025,,TRUE,TRUE,TRUE,,,,,-SN,SCT,900,OVC,3400,,,,,VFR,,,,,,0.005,,,,,,METAR,1344
K1EW 220355Z AUTO 34019G26KT 10SM BKN200 04/M04 M RMK AO2 PK WND 34032/05 SLPNO T00371045 $,K1EW,2024-03-22T03:55:00Z,41.103,-103.983,3.7,-4.5,340,19,26,10+,0.00,,,TRUE,TRUE,TRUE,,,,,,BKN,20000,,,,,,,VFR,,,,,,,,,,,,METAR,1609
K1EM 220355Z AUTO 31006KT 10SM -FZDZ BKN010 OVC014 M05/M07 A3011 RMK AO2 FZDZE01SNB18E27FZDZB27 CIG 010V012 SLP252 P0000 T10551072 $,K1EM,2024-03-22T03:55:00Z,47.454,-109.416,-5.5,-7.2,310,6,,10+,30.11,1025.2,,TRUE,TRUE,TRUE,,,,,-FZDZ,BKN,1000,OVC,1400,,,,,MVFR,,,,,,0.005,,,,,,METAR,1118
K1DM 220355Z AUTO 33015KT 10SM FEW010 OVC037 M06/M08 A3014 RMK AO2 SNB32E42 SLP264 P0000 T10561082 $,K1DM,2024-03-22T03:55:00Z,47.376,-109.814,-5.6,-8.2,330,15,,10+,30.14,1026.4,,TRUE,TRUE,TRUE,,,,,,FEW,1000,OVC,3700,,,,,VFR,,,,,,0.005,,,,,,METAR,1093
K1CW 220355Z AUTO 29006KT 10SM OVC230 03/M06 A3001 RMK AO2 PRESRR SLP154 T00311061 $,K1CW,2024-03-22T03:55:00Z,41.581,-103.573,3.1,-6.1,290,6,,10+,30.01,1015.4,,TRUE,TRUE,TRUE,,,,,,OVC,23000,,,,,,,VFR,,,,,,,,,,,,METAR,1370
K1CN 220355Z AUTO 36004KT 5SM -SN BR OVC040 M07/M08 A3017 RMK AO2 SLP254 P0001 T10721084 $,K1CN,2024-03-22T03:55:00Z,47.71,-101.01,-7.2,-8.4,360,4,,5,30.17,1025.4,,TRUE,TRUE,TRUE,,,,,-SN BR,OVC,4000,,,,,,,MVFR,,,,,,0.01,,,,,,METAR,599
K1CM 220355Z AUTO 03008KT 9SM OVC012 M05/M07 A3008 RMK AO2 SNE50 SLP240 P0000 T10481066 $,K1CM,2024-03-22T03:55:00Z,47.096,-110.164,-4.8,-6.6,30,8,,9,30.08,1024,,TRUE,TRUE,TRUE,,,,,,OVC,1200,,,,,,,MVFR,,,,,,0.005,,,,,,METAR,1338
K1AW 220355Z AUTO 36013KT 10SM FEW180 OVC220 03/M04 A3000 RMK AO2 SLP143 T00331040 $,K1AW,2024-03-22T03:55:00Z,41.329,-104.265,3.3,-4,360,13,,10+,30.00,1014.3,,TRUE,TRUE,TRUE,,,,,,FEW,18000,OVC,22000,,,,,VFR,,,,,,,,,,,,METAR,1670
K1AM 220355Z AUTO 31004KT 9SM -SN OVC014 M04/M07 A3012 RMK AO2 SNE14SNB22 SLP248 P0000 T10401066 $,K1AM,2024-03-22T03:55:00Z,47.281,-110.801,-4,-6.6,310,4,,9,30.12,1024.8,,TRUE,TRUE,TRUE,,,,,-SN,OVC,1400,,,,,,,MVFR,,,,,,0.005,,,,,,METAR,1228
FJDG 220355Z 19007KT 9999 FEW025 FEW080 BKN220 30/27 A2982 RMK SLP095 T03040267,FJDG,2024-03-22T03:55:00Z,-7.313,72.411,30.4,26.7,190,7,,6+,29.82,1009.5,,,,,,,,,,FEW,2500,FEW,8000,BKN,22000,,,VFR,,,,,,,,,,,,METAR,3
ETOU 220355Z AUTO 00000KT 4400 BR OVC100 06/04 A3018 RMK AO2 VIS 4400V9999 SLP224 T00590041,ETOU,2024-03-22T03:55:00Z,50.048,8.329,5.9,4.1,0,0,,2.73,30.18,1022.4,,TRUE,TRUE,,,,,,BR,OVC,10000,,,,,,,IFR,,,,,,,,,,,,METAR,141
ETAR 220355Z AUTO 00000KT 9999 OVC100 06/04 A3017 RMK AO2 SLP222 T00560044,ETAR,2024-03-22T03:55:00Z,49.437,7.6,5.6,4.4,0,0,,6+,30.17,1022.2,,TRUE,TRUE,,,,,,,OVC,10000,,,,,,,VFR,,,,,,,,,,,,METAR,231
EHFS 220355Z AUTO 22015KT 7000 NSC 10/08 Q1019,EHFS,2024-03-22T03:55:00Z,51.441,3.596,10,8,220,15,,4.35,30.09,,,TRUE,,,,,,,,CLR,,,,,,,,MVFR,,,,,,,,,,,,METAR,1
EGUL 220355Z AUTO 24012KT 9999 OVC016 11/07 A3003 RMK AO2 SLP173 T01050066 FZRANO $,EGUL,2024-03-22T03:55:00Z,52.409,0.561,10.5,6.6,240,12,,6+,30.03,1017.3,,TRUE,TRUE,TRUE,,,TRUE,,,OVC,1600,,,,,,,MVFR,,,,,,,,,,,,METAR,8
EBFS 220355Z AUTO 22005KT 9999 BKN023/// OVC110/// 10/08 Q1021 WHT,EBFS,2024-03-22T03:55:00Z,50.243,4.646,10,8,220,5,,6+,30.15,,,TRUE,,,,,,,,BKN,2300,OVC,11000,,,,,MVFR,,,,,,,,,,,,METAR,276
EBFN 220355Z AUTO 24010KT 6000 OVC008/// 10/09 Q1020 GRN,EBFN,2024-03-22T03:55:00Z,51.09,2.653,10,9,240,10,,3.73,30.12,,,TRUE,,,,,,,,OVC,800,,,,,,,IFR,,,,,,,,,,,,METAR,9
EBDT 220355Z AUTO 21006KT 9000 SCT094/// OVC150/// 12/09 Q1019 BLU,EBDT,2024-03-22T03:55:00Z,51.005,5.067,12,9,210,6,,5.59,30.09,,,TRUE,,,,,,,,SCT,9400,OVC,15000,,,,,VFR,,,,,,,,,,,,METAR,25
EBCV 220355Z AUTO 23007KT 9999 FEW100/// BKN120/// 10/09 Q1021 BLU,EBCV,2024-03-22T03:55:00Z,50.576,3.831,10,9,230,7,,6+,30.15,,,TRUE,,,,,,,,FEW,10000,BKN,12000,,,,,VFR,,,,,,,,,,,,METAR,56
EBBL 220355Z AUTO 22010KT 8000 FEW069/// BKN098/// OVC140/// 11/09 Q1019 BLU,EBBL,2024-03-22T03:55:00Z,51.168,5.47,11,9,220,10,,4.97,30.09,,,TRUE,,,,,,,,FEW,6900,BKN,9800,OVC,14000,,,MVFR,,,,,,,,,,,,METAR,50
EBBE 220355Z AUTO 22009KT 9999 OVC140/// 11/09 Q1020 BLU,EBBE,2024-03-22T03:55:00Z,50.759,4.768,11,9,220,9,,6+,30.12,,,TRUE,,,,,,,,OVC,14000,,,,,,,VFR,,,,,,,,,,,,METAR,127
BGTL 220355Z AUTO 09009KT 9999 CLR M27/M31 A3026 RMK AO2 SLP240 T12671312 411901306 TSNO $,BGTL,2024-03-22T03:55:00Z,76.527,-68.758,-26.7,-31.2,90,9,,6+,30.26,1024,,TRUE,TRUE,TRUE,,TRUE,,,,CLR,,,,,,,,VFR,,,,,,,,,,,,METAR,79
PHOG 220354Z 04015KT 10SM FEW050 23/16 A3013 RMK AO2 SLP208 T02280161,PHOG,2024-03-22T03:54:00Z,20.8887,-156.435,22.8,16.1,40,15,,10+,30.13,1020.8,,,TRUE,,,,,,,FEW,5000,,,,,,,VFR,,,,,,,,,,,,METAR,14
PHMK 220354Z 05011G22KT 10SM BKN036 23/16 A3014 RMK AO2 SLP209 T02280156,PHMK,2024-03-22T03:54:00Z,21.1545,-157.096,22.8,15.6,50,11,22,10+,30.14,1020.9,,,TRUE,,,,,,,BKN,3600,,,,,,,VFR,,,,,,,,,,,,METAR,135
PGUM 220354Z 03016G24KT 10SM FEW045 31/18 A2991 RMK AO2 SLP120 T03110178,PGUM,2024-03-22T03:54:00Z,13.4796,144.796,31.1,17.8,30,16,24,10+,29.91,1012,,,TRUE,,,,,,,FEW,4500,,,,,,,VFR,,,,,,,,,,,,METAR,74
PGSN 220354Z 07017KT 10SM SCT024 SCT029 BKN035 29/21 A2992 RMK AO2 SLP151 T02890211,PGSN,2024-03-22T03:54:00Z,15.116,145.72,28.9,21.1,70,17,,10+,29.92,1015.1,,,TRUE,,,,,,,SCT,2400,SCT,2900,BKN,3500,,,VFR,,,,,,,,,,,,METAR,65
PAKN 220354Z 14011G22KT 10SM BKN038 OVC100 07/00 A2978 RMK AO2 PK WND 16031/0256 SLP084 T00720000,PAKN,2024-03-22T03:54:00Z,58.683,-156.656,7.2,0,140,11,22,10+,29.78,1008.4,,,TRUE,,,,,,,BKN,3800,OVC,10000,,,,,VFR,,,,,,,,,,,,METAR,20
PAHN 220354Z AUTO 31007KT 10SM CLR 08/M05 A3011 RMK AO2 SLP197 T00831050 TSNO,PAHN,2024-03-22T03:54:00Z,59.243,-135.511,8.3,-5,310,7,,10+,30.11,1019.7,,TRUE,TRUE,,,TRUE,,,,CLR,,,,,,,,VFR,,,,,,,,,,,,METAR,15
KWAL 220354Z AUTO 33003KT 10SM CLR 01/M04 A3032 RMK AO2 SLP264 T00111039 $,KWAL,2024-03-22T03:54:00Z,37.9372,-75.4662,1.1,-3.9,330,3,,10+,30.32,1026.4,,TRUE,TRUE,TRUE,,,,,,CLR,,,,,,,,VFR,,,,,,,,,,,,METAR,10
KVSF 220354Z AUTO 29009G20KT 10SM CLR M04/M16 A3016 RMK AO2 SLP222 T10391156,KVSF,2024-03-22T03:54:00Z,43.3421,-72.5213,-3.9,-15.6,290,9,20,10+,30.16,1022.2,,TRUE,TRUE,,,,,,,CLR,,,,,,,,VFR,,,,,,,,,,,,METAR,176
KVAY 220354Z AUTO 00000KT 10SM CLR M01/M08 A3031 RMK AO2 SLP265 T10111078 PWINO FZRANO $,KVAY,2024-03-22T03:54:00Z,39.9408,-74.8407,-1.1,-7.8,0,0,,10+,30.31,1026.5,,TRUE,TRUE,TRUE,,,TRUE,TRUE,,CLR,,,,,,,,VFR,,,,,,,,,,,,METAR,15
KUZA 220354Z AUTO 14004KT 10SM CLR 14/04 A3015 RMK AO2 SLP205 T01440044,KUZA,2024-03-22T03:54:00Z,34.9836,-81.0562,14.4,4.4,140,4,,10+,30.15,1020.5,,TRUE,TRUE,,,,,,,CLR,,,,,,,,VFR,,,,,,,,,,,,METAR,198
KUIN 220354Z AUTO 12011KT 10SM CLR 06/M06 A3005 RMK AO2 SLP179 T00561056,KUIN,2024-03-22T03:54:00Z,39.9371,-91.1966,5.6,-5.6,120,11,,10+,30.05,1017.9,,TRUE,TRUE,,,,,,,CLR,,,,,,,,VFR,,,,,,,,,,,,METAR,233
KTQE 220354Z AUTO 12011KT 10SM OVC060 09/M07 A2993 RMK AO2 SLP136 T00891072,KTQE,2024-03-22T03:54:00Z,41.763,-96.1797,8.9,-7.2,120,11,,10+,29.93,1013.6,,TRUE,TRUE,,,,,,,OVC,6000,,,,,,,VFR,,,,,,,,,,,,METAR,312
KTAD 220354Z AUTO 31010KT 10SM OVC110 06/M03 A2995 RMK AO2 SLP107 T00611028,KTAD,2024-03-22T03:54:00Z,37.2618,-104.332,6.1,-2.8,310,10,,10+,29.95,1010.7,,TRUE,TRUE,,,,,,,OVC,11000,,,,,,,VFR,,,,,,,,,,,,METAR,1751
KSYR 220354Z 30010KT 10SM BKN044 M03/M12 A3033 RMK AO2 SNE19 SLP274 P0000 T10331122,KSYR,2024-03-22T03:54:00Z,43.1111,-76.1038,-3.3,-12.2,300,10,,10+,30.33,1027.4,,,TRUE,,,,,,,BKN,4400,,,,,,,VFR,,,,,,0.005,,,,,,METAR,125
KSUS 220354Z 11005KT 10SM CLR 08/M06 A3007 RMK AO2 SLP184 T00831056,KSUS,2024-03-22T03:54:00Z,38.6575,-90.6557,8.3,-5.6,110,5,,10+,30.07,1018.4,,,TRUE,,,,,,,CLR,,,,,,,,VFR,,,,,,,,,,,,METAR,140
KSLC 220354Z 00000KT 10SM FEW200 12/M04 A3006 RMK AO2 SLP155 T01171039,KSLC,2024-03-22T03:54:00Z,40.7707,-111.965,11.7,-3.9,0,0,,10+,30.06,1015.5,,,TRUE,,,,,,,FEW,20000,,,,,,,VFR,,,,,,,,,,,,METAR,1286
KSET 220354Z AUTO 11008KT 10SM CLR 05/M04 A3008 RMK AO2 SLP187 T00501044,KSET,2024-03-22T03:54:00Z,38.9304,-90.4329,5,-4.4,110,8,,10+,30.08,1018.7,,TRUE,TRUE,,,,,,,CLR,,,,,,,,VFR,,,,,,,,,,,,METAR,133
KSBY 220354Z AUTO 00000KT 10SM CLR M02/M07 A3033 RMK AO2 SLP272 T10221067,KSBY,2024-03-22T03:54:00Z,38.3409,-75.5132,-2.2,-6.7,0,0,,10+,30.33,1027.2,,TRUE,TRUE,,,,,,,CLR,,,,,,,,VFR,,,,,,,,,,,,METAR,14
KSBN 220354Z AUTO 12007KT 10SM BKN080 01/M09 A3023 RMK AO2 SLPNO T00111089 TSNO,KSBN,2024-03-22T03:54:00Z,41.7072,-86.3163,1.1,-8.9,120,7,,10+,30.23,,,TRUE,TRUE,,,TRUE,,,,BKN,8000,,,,,,,VFR,,,,,,,,,,,,METAR,236
KRSP 220354Z AUTO 34004KT 10SM CLR M01/M13 A3023 RMK AO2 SLP261 T10111133 $,KRSP,2024-03-22T03:54:00Z,39.646,-77.468,-1.1,-13.3,340,4,,10+,30.23,1026.1,,TRUE,TRUE,TRUE,,,,,,CLR,,,,,,,,VFR,,,,,,,,,,,,METAR,555
KROC 220354Z 28007KT 10SM OVC041 M03/M11 A3036 RMK AO2 SLP291 T10331111 $,KROC,2024-03-22T03:54:00Z,43.1172,-77.6754,-3.3,-11.1,280,7,,10+,30.36,1029.1,,,TRUE,TRUE,,,,,,OVC,4100,,,,,,,VFR,,,,,,,,,,,,METAR,166
KROA 220354Z 03005KT 10SM OVC120 11/M07 A3024 RMK AO2 SLP241 T01111072,KROA,2024-03-22T03:54:00Z,37.3172,-79.9737,11.1,-7.2,30,5,,10+,30.24,1024.1,,,TRUE,,,,,,,OVC,12000,,,,,,,VFR,,,,,,,,,,,,METAR,349
KRKS 220354Z AUTO 28011KT 10SM CLR 04/M03 A3006 RMK AO2 SLP156 T00441033,KRKS,2024-03-22T03:54:00Z,41.5947,-109.053,4.4,-3.3,280,11,,10+,30.06,1015.6,,TRUE,TRUE,,,,,,,CLR,,,,,,,,VFR,,,,,,,,,,,,METAR,2062
KRIC 220354Z 05006KT 10SM FEW120 04/M02 A3029 RMK AO2 SLP262 T00441017 $,KRIC,2024-03-22T03:54:00Z,37.5115,-77.3234,4.4,-1.7,50,6,,10+,30.29,1026.2,,,TRUE,TRUE,,,,,,FEW,12000,,,,,,,VFR,,,,,,,,,,,,METAR,51
KRFD 220354Z 09006KT 10SM SCT065 OVC095 02/M07 A3019 RMK AO2 SLP230 T00171067,KRFD,2024-03-22T03:54:00Z,42.1915,-89.0876,1.7,-6.7,90,6,,10+,30.19,1023,,,TRUE,,,,,,,SCT,6500,OVC,9500,,,,,VFR,,,,,,,,,,,,METAR,222
KRDG 220354Z 28005KT 10SM CLR 01/M12 A3030 RMK AO2 SLP269 T00061122,KRDG,2024-03-22T03:54:00Z,40.3734,-75.9593,0.6,-12.2,280,5,,10+,30.30,1026.9,,,TRUE,,,,,,,CLR,,,,,,,,VFR,,,,,,,,,,,,METAR,101
KRBL 220354Z AUTO VRB03KT 10SM CLR 14/08 A3005 RMK AO2 SLP176 T01440083,KRBL,2024-03-22T03:54:00Z,40.1519,-122.255,14.4,8.3,VRB,3,,10+,30.05,1017.6,,TRUE,TRUE,,,,,,,CLR,,,,,,,,VFR,,,,,,,,,,,,METAR,107
KPTW 220354Z AUTO 01006KT 10SM CLR 00/M12 A3032 RMK AO2 SLP269 T00001117,KPTW,2024-03-22T03:54:00Z,40.238,-75.5549,0,-11.7,10,6,,10+,30.32,1026.9,,TRUE,TRUE,,,,,,,CLR,,,,,,,,VFR,,,,,,,,,,,,METAR,88
KPSF 220354Z AUTO 30021G37KT 10SM CLR M05/M14 A3017 RMK AO2 PK WND 29037/0319 SLP232 T10501144,KPSF,2024-03-22T03:54:00Z,42.4268,-73.2891,-5,-14.4,300,21,37,10+,30.17,1023.2,,TRUE,TRUE,,,,,,,CLR,,,,,,,,VFR,,,,,,,,,,,,METAR,352
KPNE 220354Z AUTO 36007KT 10SM CLR 02/M11 A3033 RMK AO2 SLP272 T00171106,KPNE,2024-03-22T03:54:00Z,40.0789,-75.0133,1.7,-10.6,360,7,,10+,30.33,1027.2,,TRUE,TRUE,,,,,,,CLR,,,,,,,,VFR,,,,,,,,,,,,METAR,32
KPLN 220354Z AUTO 00000KT 10SM CLR M11/M14 A3030 RMK AO2 SLP276 T11111144,KPLN,2024-03-22T03:54:00Z,45.5644,-84.7929,-11.1,-14.4,0,0,,10+,30.30,1027.6,,TRUE,TRUE,,,,,,,CLR,,,,,,,,VFR,,,,,,,,,,,,METAR,215
KPIA 220354Z 11007KT 10SM CLR 04/M09 A3013 RMK AO2 SLP208 T00441089,KPIA,2024-03-22T03:54:00Z,40.6675,-89.6842,4.4,-8.9,110,7,,10+,30.13,1020.8,,,TRUE,,,,,,,CLR,,,,,,,,VFR,,,,,,,,,,,,METAR,200
KPHL 220354Z 33004KT 10SM CLR 02/M11 A3031 RMK AO2 SLP264 T00221111,KPHL,2024-03-22T03:54:00Z,39.8733,-75.2268,2.2,-11.1,330,4,,10+,30.31,1026.4,,,TRUE,,,,,,,CLR,,,,,,,,VFR,,,,,,,,,,,,METAR,2
KPHF 220354Z 07003KT 10SM CLR 03/00 A3029 RMK AO2 SLP257 T00330000,KPHF,2024-03-22T03:54:00Z,37.1322,-76.494,3.3,0,70,3,,10+,30.29,1025.7,,,TRUE,,,,,,,CLR,,,,,,,,VFR,,,,,,,,,,,,METAR,12
KORH 220354Z AUTO 29013G25KT 10SM CLR M04/M15 A3013 RMK AO2 PK WND 29029/0328 SLP218 T10441150,KORH,2024-03-22T03:54:00Z,42.2706,-71.8731,-4.4,-15,290,13,25,10+,30.13,1021.8,,TRUE,TRUE,,,,,,,CLR,,,,,,,,VFR,,,,,,,,,,,,METAR,306
KOLS 220354Z AUTO 05007KT 10SM CLR 14/M01 A3012 RMK AO2 SLP161 T01391011,KOLS,2024-03-22T03:54:00Z,31.4208,-110.847,13.9,-1.1,50,7,,10+,30.12,1016.1,,TRUE,TRUE,,,,,,,CLR,,,,,,,,VFR,,,,,,,,,,,,METAR,1194
KOLM 220354Z 00000KT 10SM OVC050 11/10 A3007 RMK AO2 RAE0258 SLP182 P0000 T01060100,KOLM,2024-03-22T03:54:00Z,46.9737,-122.905,10.6,10,0,0,,10+,30.07,1018.2,,,TRUE,,,,,,,OVC,5000,,,,,,,VFR,,,,,,0.005,,,,,,METAR,58
KOFP 220354Z AUTO VRB03KT 10SM CLR 05/M03 A3031 RMK AO2 SLP263 T00501028,KOFP,2024-03-22T03:54:00Z,37.7093,-77.4349,5,-2.8,VRB,3,,10+,30.31,1026.3,,TRUE,TRUE,,,,,,,CLR,,,,,,,,VFR,,,,,,,,,,,,METAR,63
KNAK 220354Z AUTO 00000KT 10SM CLR 04/M03 A3032 RMK AO2 SLP270 T00391033 $,KNAK,2024-03-22T03:54:00Z,38.9913,-76.4891,3.9,-3.3,0,0,,10+,30.32,1027,,TRUE,TRUE,TRUE,,,,,,CLR,,,,,,,,VFR,,,,,,,,,,,,METAR,2
KN60 220354Z AUTO 01003KT M08/M09 A3019 RMK AO1 SLP258 T10831094,KN60,2024-03-22T03:54:00Z,47.654,-101.436,-8.3,-9.4,10,3,,,30.19,1025.8,,TRUE,TRUE,,,,,,,,,,,,,,,VFR,,,,,,,,,,,,METAR,582
KMVL 220354Z AUTO 30008G17KT 10SM BKN050 M07/M16 A3017 RMK AO2 SLP229 T10671161,KMVL,2024-03-22T03:54:00Z,44.5328,-72.6152,-6.7,-16.1,300,8,17,10+,30.17,1022.9,,TRUE,TRUE,,,,,,,BKN,5000,,,,,,,VFR,,,,,,,,,,,,METAR,226
KMTP 220354Z AUTO 31011G25KT 01/M11 A3026 RMK AO1 SLP247 T00111106,KMTP,2024-03-22T03:54:00Z,41.073,-71.9235,1.1,-10.6,310,11,25,,30.26,1024.7,,TRUE,TRUE,,,,,,,,,,,,,,,VFR,,,,,,,,,,,,METAR,2
KMRY 220354Z AUTO 26004KT 10SM CLR 13/11 A3012 RMK AO2 SLP211 T01330106,KMRY,2024-03-22T03:54:00Z,36.5904,-121.849,13.3,10.6,260,4,,10+,30.12,1021.1,,TRUE,TRUE,,,,,,,CLR,,,,,,,,VFR,,,,,,,,,,,,METAR,51
KMKC 220354Z 11008KT 10SM CLR 12/M02 A2994 RMK AO2 SLP137 T01221022,KMKC,2024-03-22T03:54:00Z,39.1279,-94.5892,12.2,-2.2,110,8,,10+,29.94,1013.7,,,TRUE,,,,,,,CLR,,,,,,,,VFR,,,,,,,,,,,,METAR,228
KMIV 220354Z AUTO 00000KT 10SM CLR M04/M09 A3031 RMK AO2 SLP265 T10441094 $,KMIV,2024-03-22T03:54:00Z,39.3662,-75.0778,-4.4,-9.4,0,0,,10+,30.31,1026.5,,TRUE,TRUE,TRUE,,,,,,CLR,,,,,,,,VFR,,,,,,,,,,,,METAR,18
KMGJ 220354Z AUTO 27005KT 10SM CLR M03/M13 A3029 RMK AO2 SLP261 T10331133,KMGJ,2024-03-22T03:54:00Z,41.509,-74.2645,-3.3,-13.3,270,5,,10+,30.29,1026.1,,TRUE,TRUE,,,,,,,CLR,,,,,,,,VFR,,,,,,,,,,,,METAR,106
KMEM 220354Z 00000KT 10SM FEW095 OVC130 18/05 A2998 RMK AO2 SLP151 T01780050 $,KMEM,2024-03-22T03:54:00Z,35.0564,-89.9864,17.8,5,0,0,,10+,29.98,1015.1,,,TRUE,TRUE,,,,,,FEW,9500,OVC,13000,,,,,VFR,,,,,,,,,,,,METAR,78
KLYH 220354Z AUTO 03009KT 10SM OVC110 10/M04 A3022 RMK AO2 SLP234 T01001044,KLYH,2024-03-22T03:54:00Z,37.3213,-79.2065,10,-4.4,30,9,,10+,30.22,1023.4,,TRUE,TRUE,,,,,,,OVC,11000,,,,,,,VFR,,,,,,,,,,,,METAR,282
KLNK 220354Z AUTO 13011KT 10SM CLR 09/M04 A2990 RMK AO2 SLP129 T00891039,KLNK,2024-03-22T03:54:00Z,40.8478,-96.7647,8.9,-3.9,130,11,,10+,29.90,1012.9,,TRUE,TRUE,,,,,,,CLR,,,,,,,,VFR,,,,,,,,,,,,METAR,357
KLEX 220354Z 07011KT 10SM CLR 05/M09 A3017 RMK AO2 SLP221 T00501089 $,KLEX,2024-03-22T03:54:00Z,38.0339,-84.6114,5,-8.9,70,11,,10+,30.17,1022.1,,,TRUE,TRUE,,,,,,CLR,,,,,,,,VFR,,,,,,,,,,,,METAR,294
KLAF 220354Z AUTO 10010KT 10SM CLR 00/M10 A3020 RMK AO2 SLP230 T00001100 $,KLAF,2024-03-22T03:54:00Z,40.4124,-86.9474,0,-10,100,10,,10+,30.20,1023,,TRUE,TRUE,TRUE,,,,,,CLR,,,,,,,,VFR,,,,,,,,,,,,METAR,182
KJST 220354Z AUTO 00000KT 10SM CLR M04/M13 A3022 RMK AO2 SLP266 T10441128,KJST,2024-03-22T03:54:00Z,40.3149,-78.8307,-4.4,-12.8,0,0,,10+,30.22,1026.6,,TRUE,TRUE,,,,,,,CLR,,,,,,,,VFR,,,,,,,,,,,,METAR,695
KJAN 220354Z 12004KT 10SM BKN140 17/07 A2995 RMK AO2 SLP140 T01720072,KJAN,2024-03-22T03:54:00Z,32.3198,-90.0778,17.2,7.2,120,4,,10+,29.95,1014,,,TRUE,,,,,,,BKN,14000,,,,,,,VFR,,,,,,,,,,,,METAR,92
KIZG 220354Z AUTO 28011G31KT 10SM CLR M04/M16 A3004 RMK AO2 PK WND 26035/0333 SLP181 T10441161,KIZG,2024-03-22T03:54:00Z,43.9899,-70.9501,-4.4,-16.1,280,11,31,10+,30.04,1018.1,,TRUE,TRUE,,,,,,,CLR,,,,,,,,VFR,,,,,,,,,,,,METAR,138
KISW 220354Z AUTO 17007KT 10SM OVC050 M01/M11 A3020 RMK AO2 SLP240 T10111106,KISW,2024-03-22T03:54:00Z,44.3591,-89.837,-1.1,-10.6,170,7,,10+,30.20,1024,,TRUE,TRUE,,,,,,,OVC,5000,,,,,,,VFR,,,,,,,,,,,,METAR,311
KIPT 220354Z AUTO 00000KT 10SM CLR M02/M12 A3035 RMK AO2 SLP283 T10221117,KIPT,2024-03-22T03:54:00Z,41.243,-76.9217,-2.2,-11.7,0,0,,10+,30.35,1028.3,,TRUE,TRUE,,,,,,,CLR,,,,,,,,VFR,,,,,,,,,,,,METAR,160
KINT 220354Z AUTO 13005KT 10SM CLR 12/M03 A3019 RMK AO2 SLP220 T01171028,KINT,2024-03-22T03:54:00Z,36.1335,-80.2244,11.7,-2.8,130,5,,10+,30.19,1022,,TRUE,TRUE,,,,,,,CLR,,,,,,,,VFR,,,,,,,,,,,,METAR,292
KINL 220354Z AUTO 00000KT 10SM CLR M07/M17 A3022 RMK AO2 SLP259 T10671172,KINL,2024-03-22T03:54:00Z,48.5594,-93.3955,-6.7,-17.2,0,0,,10+,30.22,1025.9,,TRUE,TRUE,,,,,,,CLR,,,,,,,,VFR,,,,,,,,,,,,METAR,353
KIND 220354Z 08009KT 10SM CLR 02/M11 A3018 RMK AO2 SLP226 T00221106,KIND,2024-03-22T03:54:00Z,39.7252,-86.2816,2.2,-10.6,80,9,,10+,30.18,1022.6,,,TRUE,,,,,,,CLR,,,,,,,,VFR,,,,,,,,,,,,METAR,242
KIMT 220354Z AUTO 07003KT 10SM CLR M04/M13 A3018 RMK AO2 SLP241 T10441128,KIMT,2024-03-22T03:54:00Z,45.8134,-88.1129,-4.4,-12.8,70,3,,10+,30.18,1024.1,,TRUE,TRUE,,,,,,,CLR,,,,,,,,VFR,,,,,,,,,,,,METAR,343
KILN 220354Z AUTO 07007KT 10SM CLR 01/M10 A3022 RMK AO2 SLP256 T00061100,KILN,2024-03-22T03:54:00Z,39.4308,-83.777,0.6,-10,70,7,,10+,30.22,1025.6,,TRUE,TRUE,,,,,,,CLR,,,,,,,,VFR,,,,,,,,,,,,METAR,325
KHWD 220354Z AUTO 34005KT 10SM CLR 15/11 A3010 RMK AO2 SLP201 T01500106,KHWD,2024-03-22T03:54:00Z,37.6589,-122.121,15,10.6,340,5,,10+,30.10,1020.1,,TRUE,TRUE,,,,,,,CLR,,,,,,,,VFR,,,,,,,,,,,,METAR,9
KGSO 220354Z 14004KT 10SM FEW250 11/M01 A3017 RMK AO2 SLP215 T01111011,KGSO,2024-03-22T03:54:00Z,36.0969,-79.9432,11.1,-1.1,140,4,,10+,30.17,1021.5,,,TRUE,,,,,,,FEW,25000,,,,,,,VFR,,,,,,,,,,,,METAR,275
KGED 220354Z AUTO 00000KT 10SM CLR 00/M07 A3032 RMK AO2 SLP269 T00001067,KGED,2024-03-22T03:54:00Z,38.6898,-75.3625,0,-6.7,0,0,,10+,30.32,1026.9,,TRUE,TRUE,,,,,,,CLR,,,,,,,,VFR,,,,,,,,,,,,METAR,15
KGCN 220354Z AUTO 24003KT 10SM CLR 07/M05 A3018 RMK AO2 SLP178 T00671050,KGCN,2024-03-22T03:54:00Z,35.9458,-112.155,6.7,-5,240,3,,10+,30.18,1017.8,,TRUE,TRUE,,,,,,,CLR,,,,,,,,VFR,,,,,,,,,,,,METAR,1993
KGCK 220354Z AUTO 17008KT 10SM CLR 08/03 A2987 RMK AO2 SLP113 T00830033,KGCK,2024-03-22T03:54:00Z,37.9221,-100.723,8.3,3.3,170,8,,10+,29.87,1011.3,,TRUE,TRUE,,,,,,,CLR,,,,,,,,VFR,,,,,,,,,,,,METAR,877
KFZY 220354Z AUTO 31010KT 10SM SCT042 M04/M12 A3034 RMK AO2 SLP281 T10441122,KFZY,2024-03-22T03:54:00Z,43.3504,-76.3831,-4.4,-12.2,310,10,,10+,30.34,1028.1,,TRUE,TRUE,,,,,,,SCT,4200,,,,,,,VFR,,,,,,,,,,,,METAR,143
KFWA 220354Z 08006KT 10SM SCT140 M01/M09 A3025 RMK AO2 SLP252 T10111089,KFWA,2024-03-22T03:54:00Z,40.9725,-85.2064,-1.1,-8.9,80,6,,10+,30.25,1025.2,,,TRUE,,,,,,,SCT,14000,,,,,,,VFR,,,,,,,,,,,,METAR,243
KFIG 220354Z AUTO 04005KT 10SM CLR M04/M12 A3030 RMK AO2 SLP280 T10441122,KFIG,2024-03-22T03:54:00Z,41.0465,-78.4112,-4.4,-12.2,40,5,,10+,30.30,1028,,TRUE,TRUE,,,,,,,CLR,,,,,,,,VFR,,,,,,,,,,,,METAR,461
KFFZ 220354Z 11004KT 10SM CLR 19/06 A3000 RMK AO2 SLP144 T01940056,KFFZ,2024-03-22T03:54:00Z,33.4659,-111.721,19.4,5.6,110,4,,10+,30.00,1014.4,,,TRUE,,,,,,,CLR,,,,,,,,VFR,,,,,,,,,,,,METAR,420
KEWN 220354Z AUTO 11004KT 10SM CLR 09/07 A3027 RMK AO2 SLP248 T00890067,KEWN,2024-03-22T03:54:00Z,35.0684,-77.0478,8.9,6.7,110,4,,10+,30.27,1024.8,,TRUE,TRUE,,,,,,,CLR,,,,,,,,VFR,,,,,,,,,,,,METAR,3
KEVV 220354Z AUTO 04006KT 10SM CLR 06/M05 A3013 RMK AO2 SLP203 T00561050,KEVV,2024-03-22T03:54:00Z,38.0502,-87.5147,5.6,-5,40,6,,10+,30.13,1020.3,,TRUE,TRUE,,,,,,,CLR,,,,,,,,VFR,,,,,,,,,,,,METAR,123
KEUG 220354Z 29005KT 10SM FEW040 SCT070 BKN120 11/08 A3002 RMK AO2 SLP167 T01110083,KEUG,2024-03-22T03:54:00Z,44.1331,-123.216,11.1,8.3,290,5,,10+,30.02,1016.7,,,TRUE,,,,,,,FEW,4000,SCT,7000,BKN,12000,,,VFR,,,,,,,,,,,,METAR,109
KEFD 220354Z 13009KT 10SM OVC017 19/17 A2985,KEFD,2024-03-22T03:54:00Z,29.606,-95.16,19,17,130,9,,10+,29.85,,,,,,,,,,,OVC,1700,,,,,,,MVFR,,,,,,,,,,,,METAR,9
KECG 220354Z AUTO 10008KT 10SM CLR 07/02 A3028 RMK AO2 SLP253 T00670022,KECG,2024-03-22T03:54:00Z,36.2571,-76.1716,6.7,2.2,100,8,,10+,30.28,1025.3,,TRUE,TRUE,,,,,,,CLR,,,,,,,,VFR,,,,,,,,,,,,METAR,2
KDYL 220354Z AUTO 36005KT 10SM CLR 00/M11 A3030 RMK AO2 SLP267 T00001111 $,KDYL,2024-03-22T03:54:00Z,40.3302,-75.1228,0,-11.1,360,5,,10+,30.30,1026.7,,TRUE,TRUE,TRUE,,,,,,CLR,,,,,,,,VFR,,,,,,,,,,,,METAR,121
KDSV 220354Z AUTO 32007KT FEW038 OVC047 M03/M11 A3035 RMK AO2 SLP296 T10281111 $,KDSV,2024-03-22T03:54:00Z,42.5699,-77.7142,-2.8,-11.1,320,7,,,30.35,1029.6,,TRUE,TRUE,TRUE,,,,,,FEW,3800,OVC,4700,,,,,VFR,,,,,,,,,,,,METAR,195
KDSM 220354Z 11010KT 10SM OVC070 07/M07 A3000 RMK AO2 SLP164 T00721072,KDSM,2024-03-22T03:54:00Z,41.534,-93.6531,7.2,-7.2,110,10,,10+,30.00,1016.4,,,TRUE,,,,,,,OVC,7000,,,,,,,VFR,,,,,,,,,,,,METAR,286
KDEC 220354Z AUTO 09009KT 10SM FEW070 OVC085 03/M04 A3012 RMK AO2 SLP205 T00281039,KDEC,2024-03-22T03:54:00Z,39.8308,-88.8719,2.8,-3.9,90,9,,10+,30.12,1020.5,,TRUE,TRUE,,,,,,,FEW,7000,OVC,8500,,,,,VFR,,,,,,,,,,,,METAR,205
KDDH 220354Z AUTO 30007G15KT 280V350 10SM OVC055 M04/M13 A3021 RMK AO2 SLP240 T10391133,KDDH,2024-03-22T03:54:00Z,42.8935,-73.2488,-3.9,-13.3,300,7,15,10+,30.21,1024,,TRUE,TRUE,,,,,,,OVC,5500,,,,,,,VFR,,,,,,,,,,,,METAR,241
KCRW 220354Z 08004KT 10SM BKN120 04/M11 A3023 RMK AO2 SLP240 T00441106,KCRW,2024-03-22T03:54:00Z,38.3795,-81.5911,4.4,-10.6,80,4,,10+,30.23,1024,,,TRUE,,,,,,,BKN,12000,,,,,,,VFR,,,,,,,,,,,,METAR,278
KCOU 220354Z AUTO 12012KT 10SM SCT110 09/M04 A3001 RMK AO2 SLP163 T00891044,KCOU,2024-03-22T03:54:00Z,38.8171,-92.2148,8.9,-4.4,120,12,,10+,30.01,1016.3,,TRUE,TRUE,,,,,,,SCT,11000,,,,,,,VFR,,,,,,,,,,,,METAR,272
KCOS 220354Z 30007KT 10SM FEW110 FEW200 10/M06 A2997 RMK AO2 SLP105 T01001061,KCOS,2024-03-22T03:54:00Z,38.8095,-104.689,10,-6.1,300,7,,10+,29.97,1010.5,,,TRUE,,,,,,,FEW,11000,FEW,20000,,,,,VFR,,,,,,,,,,,,METAR,1886
KCEU 220354Z AUTO 00000KT 10SM CLR 15/06 A3010 RMK AO2 SLP188 T01500056,KCEU,2024-03-22T03:54:00Z,34.6722,-82.8814,15,5.6,0,0,,10+,30.10,1018.8,,TRUE,TRUE,,,,,,,CLR,,,,,,,,VFR,,,,,,,,,,,,METAR,270
KCAR 220354Z AUTO 27013G33KT 240V300 4SM UP FEW031 OVC041 M07/M12 A2960 RMK AO2 PK WND 29033/0346 SLP035 P0000 T10721122 $,KCAR,2024-03-22T03:54:00Z,46.8705,-68.0172,-7.2,-12.2,270,13,33,4,29.60,1003.5,,TRUE,TRUE,TRUE,,,,,UP,FEW,3100,OVC,4100,,,,,MVFR,,,,,,0.005,,,,,,METAR,189
KBWI 220354Z 00000KT 10SM SCT220 02/M09 A3031 RMK AO2 SLP266 T00171089 $,KBWI,2024-03-22T03:54:00Z,39.1733,-76.684,1.7,-8.9,0,0,,10+,30.31,1026.6,,,TRUE,TRUE,,,,,,SCT,22000,,,,,,,VFR,,,,,,,,,,,,METAR,42
KBUY 220354Z AUTO 00000KT 10SM CLR 08/00 A3018 RMK AO2 SLP220 T00780000,KBUY,2024-03-22T03:54:00Z,36.0475,-79.4737,7.8,0,0,0,,10+,30.18,1022,,TRUE,TRUE,,,,,,,CLR,,,,,,,,VFR,,,,,,,,,,,,METAR,185
KBUF 220354Z 30003KT 10SM FEW040 M05/M12 A3036 RMK AO2 SLP291 T10501122 $,KBUF,2024-03-22T03:54:00Z,42.94,-78.7361,-5,-12.2,300,3,,10+,30.36,1029.1,,,TRUE,TRUE,,,,,,FEW,4000,,,,,,,VFR,,,,,,,,,,,,METAR,217
KBTV 220354Z 32016G24KT 10SM FEW055 M06/M16 A3022 RMK AO2 PK WND 32028/0335 SLP240 LAST T10561161,KBTV,2024-03-22T03:54:00Z,44.4683,-73.1499,-5.6,-16.1,320,16,24,10+,30.22,1024,,,TRUE,,,,,,,FEW,5500,,,,,,,VFR,,,,,,,,,,,,METAR,101
KBOS 220354Z 29016G25KT 10SM CLR M02/M14 A3017 RMK AO2 PK WND 30030/0323 SLP214 T10171139,KBOS,2024-03-22T03:54:00Z,42.3606,-71.0097,-1.7,-13.9,290,16,25,10+,30.17,1021.4,,,TRUE,,,,,,,CLR,,,,,,,,VFR,,,,,,,,,,,,METAR,4
KBFL 220354Z 03006KT 10SM CLR 16/07 A3007 RMK AO2 SLP178 T01610067,KBFL,2024-03-22T03:54:00Z,35.4342,-119.055,16.1,6.7,30,6,,10+,30.07,1017.8,,,TRUE,,,,,,,CLR,,,,,,,,VFR,,,,,,,,,,,,METAR,146
KAVP 220354Z AUTO 33009KT 10SM CLR M03/M12 A3030 RMK AO2 SLP270 T10281122,KAVP,2024-03-22T03:54:00Z,41.3335,-75.7227,-2.8,-12.2,330,9,,10+,30.30,1027,,TRUE,TRUE,,,,,,,CLR,,,,,,,,VFR,,,,,,,,,,,,METAR,290
KAVL 220354Z AUTO 00000KT 10SM CLR 09/02 A3016 RMK AO2 SLP202 T00940017,KAVL,2024-03-22T03:54:00Z,35.4318,-82.5379,9.4,1.7,0,0,,10+,30.16,1020.2,,TRUE,TRUE,,,,,,,CLR,,,,,,,,VFR,,,,,,,,,,,,METAR,646
KAUW 220354Z AUTO 10005KT 9SM OVC050 M01/M14 A3016 RMK AO2 SNB41E51 SLP236 P0000 T10111139,KAUW,2024-03-22T03:54:00Z,44.9265,-89.6248,-1.1,-13.9,100,5,,9,30.16,1023.6,,TRUE,TRUE,,,,,,,OVC,5000,,,,,,,VFR,,,,,,0.005,,,,,,METAR,367
KAPN 220354Z AUTO 00000KT 10SM CLR M09/M11 A3032 RMK AO2 SLP281 T10941106,KAPN,2024-03-22T03:54:00Z,45.0716,-83.5645,-9.4,-10.6,0,0,,10+,30.32,1028.1,,TRUE,TRUE,,,,,,,CLR,,,,,,,,VFR,,,,,,,,,,,,METAR,208
KAPC 220354Z AUTO 28008KT 10SM CLR 13/10 A3008 RMK AO2 SLP179 T01280100,KAPC,2024-03-22T03:54:00Z,38.2075,-122.28,12.8,10,280,8,,10+,30.08,1017.9,,TRUE,TRUE,,,,,,,CLR,,,,,,,,VFR,,,,,,,,,,,,METAR,5
KALO 220354Z AUTO 08010KT 10SM OVC060 03/M12 A3008 RMK AO2 SLP195 T00281122,KALO,2024-03-22T03:54:00Z,42.5544,-92.4013,2.8,-12.2,80,10,,10+,30.08,1019.5,,TRUE,TRUE,,,,,,,OVC,6000,,,,,,,VFR,,,,,,,,,,,,METAR,264
KAKR 220354Z AUTO 08005KT 10SM CLR M03/M11 A3030 RMK AO2 SLP272 T10281106,KAKR,2024-03-22T03:54:00Z,41.0373,-81.4634,-2.8,-10.6,80,5,,10+,30.30,1027.2,,TRUE,TRUE,,,,,,,CLR,,,,,,,,VFR,,,,,,,,,,,,METAR,319
KAKQ 220354Z AUTO 00000KT 10SM CLR 04/00 A3028 RMK AO2 SLP254 T00390000,KAKQ,2024-03-22T03:54:00Z,36.9827,-77.0014,3.9,0,0,0,,10+,30.28,1025.4,,TRUE,TRUE,,,,,,,CLR,,,,,,,,VFR,,,,,,,,,,,,METAR,34
KAKH 220354Z AUTO VRB04KT 10SM CLR 14/03 A3014 RMK AO2 SLP206 T01440028,KAKH,2024-03-22T03:54:00Z,35.1968,-81.1555,14.4,2.8,VRB,4,,10+,30.14,1020.6,,TRUE,TRUE,,,,,,,CLR,,,,,,,,VFR,,,,,,,,,,,,METAR,242
KACY 220354Z 10SM CLR M02/M10 A3031 RMK AO2 SLP266 T10171100 $,KACY,2024-03-22T03:54:00Z,39.452,-74.567,-1.7,-10,,,,10+,30.31,1026.6,,,TRUE,TRUE,,,,,,CLR,,,,,,,,VFR,,,,,,,,,,,,METAR,18
KAAO 220354Z AUTO 17004KT 10SM CLR 11/09 A2991 RMK AO2 SLP130 T01060094,KAAO,2024-03-22T03:54:00Z,37.7496,-97.2191,10.6,9.4,170,4,,10+,29.91,1013,,TRUE,TRUE,,,,,,,CLR,,,,,,,,VFR,,,,,,,,,,,,METAR,429
K1V4 220354Z AUTO M06/M16 A3011 RMK AO1 SLP213 T10611156,K1V4,2024-03-22T03:54:00Z,44.42,-72.019,-6.1,-15.6,,,,,30.11,1021.3,,TRUE,TRUE,,,,,,,,,,,,,,,VFR,,,,,,,,,,,,METAR,213
K12N 220354Z AUTO 35005KT M02/M12 A3030 RMK AO1 SLP271 T10221117 $,K12N,2024-03-22T03:54:00Z,41.0093,-74.7363,-2.2,-11.7,350,5,,,30.30,1027.1,,TRUE,TRUE,TRUE,,,,,,,,,,,,,,VFR,,,,,,,,,,,,METAR,178
TJNR 220353Z AUTO 06006KT 10SM FEW022 FEW040 SCT047 26/23 A3002 RMK AO2 RAB14E34 SLP167 P0001 T02560228 403000228 $,TJNR,2024-03-22T03:53:00Z,18.253,-65.638,25.6,22.8,60,6,,10+,30.02,1016.7,,TRUE,TRUE,TRUE,,,,,,FEW,2200,FEW,4000,SCT,4700,,,VFR,,,,,,0.01,,,,,,METAR,7
TISX 220353Z AUTO 03004KT 10SM CLR 25/22 A3002 RMK AO2 SLP164 T02500217 403060239 $,TISX,2024-03-22T03:53:00Z,17.6997,-64.8126,25,21.7,30,4,,10+,30.02,1016.4,,TRUE,TRUE,TRUE,,,,,,CLR,,,,,,,,VFR,,,,,,,,,,,,METAR,16
TIST 220353Z AUTO 06003KT 10SM 26/23 A3001 RMK AO2 SLP162 T02560233 402830244 PNO,TIST,2024-03-22T03:53:00Z,18.3362,-64.9799,25.6,23.3,60,3,,10+,30.01,1016.2,,TRUE,TRUE,,,,,,,,,,,,,,,VFR,,,,,,,,,,,,METAR,5
PHTO 220353Z 05009KT 10SM FEW025 BKN036 BKN049 23/18 A3011 RMK AO2 RAB10E28 SLP196 P0000 T02280183,PHTO,2024-03-22T03:53:00Z,19.7191,-155.049,22.8,18.3,50,9,,10+,30.11,1019.6,,,TRUE,,,,,,,FEW,2500,BKN,3600,BKN,4900,,,VFR,,,,,,0.005,,,,,,METAR,9
PHNL 220353Z 05011KT 10SM FEW025 SCT045 24/13 A3013 RMK AO2 SLP202 T02390133,PHNL,2024-03-22T03:53:00Z,21.3151,-157.924,23.9,13.3,50,11,,10+,30.13,1020.2,,,TRUE,,,,,,,FEW,2500,SCT,4500,,,,,VFR,,,,,,,,,,,,METAR,2
PHLI 220353Z 03015KT 10SM CLR 21/16 A3016 RMK AO2 SLP210 T02060161,PHLI,2024-03-22T03:53:00Z,21.9805,-159.339,20.6,16.1,30,15,,10+,30.16,1021,,,TRUE,,,,,,,CLR,,,,,,,,VFR,,,,,,,,,,,,METAR,32
PHKO 220353Z 19010KT 10SM FEW040 SCT060 26/19 A3007 RMK AO2 SLP181 T02560189,PHKO,2024-03-22T03:53:00Z,19.7378,-156.048,25.6,18.9,190,10,,10+,30.07,1018.1,,,TRUE,,,,,,,FEW,4000,SCT,6000,,,,,VFR,,,,,,,,,,,,METAR,11
PHJR 220353Z 05012G21KT 10SM CLR 24/13 A3014 RMK AO2 SLP211 T02440128,PHJR,2024-03-22T03:53:00Z,21.312,-158.07,24.4,12.8,50,12,21,10+,30.14,1021.1,,,TRUE,,,,,,,CLR,,,,,,,,VFR,,,,,,,,,,,,METAR,9
PAYA 220353Z AUTO 31003KT 10SM CLR 03/01 A3015 RMK AO2 SLP209 T00280011 TSNO $,PAYA,2024-03-22T03:53:00Z,59.512,-139.671,2.8,1.1,310,3,,10+,30.15,1020.9,,TRUE,TRUE,TRUE,,TRUE,,,,CLR,,,,,,,,VFR,,,,,,,,,,,,METAR,9
PAWI 220353Z AUTO 14012KT 10SM SCT044 OVC055 00/M02 A2961 RMK AO2 SLP027 T00001022 TSNO PNO $,PAWI,2024-03-22T03:53:00Z,70.637,-160.013,0,-2.2,140,12,,10+,29.61,1002.7,,TRUE,TRUE,TRUE,,TRUE,,,,SCT,4400,OVC,5500,,,,,VFR,,,,,,,,,,,,METAR,12
PAWD 220353Z AUTO 20007KT 10SM BKN008 OVC015 02/00 A3013 RMK AO2 CIG 006V012 SLP204 T00170000 TSNO,PAWD,2024-03-22T03:53:00Z,60.129,-149.418,1.7,0,200,7,,10+,30.13,1020.4,,TRUE,TRUE,,,TRUE,,,,BKN,800,OVC,1500,,,,,IFR,,,,,,,,,,,,METAR,3
PATO 220353Z AUTO 12007G18KT 090V150 10SM CLR 04/M01 A3012 RMK AO2 SLP201 T00391011 TSNO,PATO,2024-03-22T03:53:00Z,60.783,-148.843,3.9,-1.1,120,7,18,10+,30.12,1020.1,,TRUE,TRUE,,,TRUE,,,,CLR,,,,,,,,VFR,,,,,,,,,,,,METAR,47
PATK 220353Z AUTO 00000KT 10SM CLR 03/M03 A3006 RMK AO2 SLP186 T00331033 TSNO $,PATK,2024-03-22T03:53:00Z,62.319,-150.097,3.3,-3.3,0,0,,10+,30.06,1018.6,,TRUE,TRUE,TRUE,,TRUE,,,,CLR,,,,,,,,VFR,,,,,,,,,,,,METAR,107
PASO 220353Z AUTO 16006KT 10SM OVC060 05/00 A3006 RMK AO2 SLP178 T00500000 TSNO $,PASO,2024-03-22T03:53:00Z,59.443,-151.702,5,0,160,6,,10+,30.06,1017.8,,TRUE,TRUE,TRUE,,TRUE,,,,OVC,6000,,,,,,,VFR,,,,,,,,,,,,METAR,20
PASN 220353Z AUTO 33013KT 10SM BKN031 M02/M06 A2953 RMK AO2 SLP999 T10171061 TSNO $,PASN,2024-03-22T03:53:00Z,57.155,-170.223,-1.7,-6.1,330,13,,10+,29.53,999.9,,TRUE,TRUE,TRUE,,TRUE,,,,BKN,3100,,,,,,,VFR,,,,,,,,,,,,METAR,8
PASI 220353Z 00000KT 10SM SCT010 SCT200 06/02 A3010 RMK AO2 SLP192 T00610017,PASI,2024-03-22T03:53:00Z,57.047,-135.364,6.1,1.7,0,0,,10+,30.10,1019.2,,,TRUE,,,,,,,SCT,1000,SCT,20000,,,,,VFR,,,,,,,,,,,,METAR,2
PASC 220353Z 09009KT 10SM FEW170 BKN260 M11/M14 A2985 RMK AO2 SLP110 T11061139 PNO,PASC,2024-03-22T03:53:00Z,70.191,-148.48,-10.6,-13.9,90,9,,10+,29.85,1011,,,TRUE,,,,,,,FEW,17000,BKN,26000,,,,,VFR,,,,,,,,,,,,METAR,17
PAQT 220353Z AUTO 12009KT 10SM CLR M05/M08 A2981 RMK AO2 SLP097 T10501083 TSNO PNO,PAQT,2024-03-22T03:53:00Z,70.213,-150.994,-5,-8.3,120,9,,10+,29.81,1009.7,,TRUE,TRUE,,,TRUE,,,,CLR,,,,,,,,VFR,,,,,,,,,,,,METAR,11
PAPB 220353Z AUTO 33014KT 10SM BKN024 M03/M06 A2954 RMK AO2 SLP993 T10281061 TSNO $,PAPB,2024-03-22T03:53:00Z,56.576,-169.663,-2.8,-6.1,330,14,,10+,29.54,999.3,,TRUE,TRUE,TRUE,,TRUE,,,,BKN,2400,,,,,,,MVFR,,,,,,,,,,,,METAR,33
PAOT 220353Z 14019KT 9SM -RA OVC027 00/00 A2963 RMK AO2 PK WND 16029/0327 SLP035 P0001 T00000000,PAOT,2024-03-22T03:53:00Z,66.886,-162.607,0,0,140,19,,9,29.63,1003.5,,,TRUE,,,,,,-RA,OVC,2700,,,,,,,MVFR,,,,,,0.01,,,,,,METAR,3
PAOR 220353Z 12005KT 10SM SCT110 03/M07 A2999 RMK AO2 SLP201 T00281067,PAOR,2024-03-22T03:53:00Z,62.962,-141.938,2.8,-6.7,120,5,,10+,29.99,1020.1,,,TRUE,,,,,,,SCT,11000,,,,,,,VFR,,,,,,,,,,,,METAR,524
PANN 220353Z AUTO 07005KT 10SM CLR 06/M07 A2987 RMK AO2 SLP124 T00561067 TSNO,PANN,2024-03-22T03:53:00Z,64.547,-149.087,5.6,-6.7,70,5,,10+,29.87,1012.4,,TRUE,TRUE,,,TRUE,,,,CLR,,,,,,,,VFR,,,,,,,,,,,,METAR,110
PANC 220353Z 00000KT 10SM FEW040 SCT150 BKN250 02/M03 A3005 RMK AO2 SLP179 T00171033,PANC,2024-03-22T03:53:00Z,61.1691,-150.028,1.7,-3.3,0,0,,10+,30.05,1017.9,,,TRUE,,,,,,,FEW,4000,SCT,15000,BKN,25000,,,VFR,,,,,,,,,,,,METAR,39
PAMR 220353Z 00000KT 10SM CLR 03/M03 A3005 RMK AO2 SLP179 T00281028,PAMR,2024-03-22T03:53:00Z,61.215,-149.85,2.8,-2.8,0,0,,10+,30.05,1017.9,,,TRUE,,,,,,,CLR,,,,,,,,VFR,,,,,,,,,,,,METAR,43
PAMC 220353Z AUTO 12005KT 10SM CLR 06/M03 A2984 RMK AO2 SLP109 T00611028 TSNO,PAMC,2024-03-22T03:53:00Z,62.957,-155.61,6.1,-2.8,120,5,,10+,29.84,1010.9,,TRUE,TRUE,,,TRUE,,,,CLR,,,,,,,,VFR,,,,,,,,,,,,METAR,101
PALH 220353Z 00000KT 10SM CLR 01/M03 A3006 RMK AO2 SLP180 T00111028,PALH,2024-03-22T03:53:00Z,61.179,-149.962,1.1,-2.8,0,0,,10+,30.06,1018,,,TRUE,,,,,,,CLR,,,,,,,,VFR,,,,,,,,,,,,METAR,26
PAKW 220353Z AUTO 18003KT 10SM CLR 06/02 A3007 RMK AO2 SLP184 T00610022 TSNO,PAKW,2024-03-22T03:53:00Z,55.582,-133.075,6.1,2.2,180,3,,10+,30.07,1018.4,,TRUE,TRUE,,,TRUE,,,,CLR,,,,,,,,VFR,,,,,,,,,,,,METAR,7
PAKV 220353Z AUTO 00000KT 10SM OVC055 02/01 A2979 RMK AO2 SLP090 T00220006 TSNO,PAKV,2024-03-22T03:53:00Z,64.321,-158.732,2.2,0.6,0,0,,10+,29.79,1009,,TRUE,TRUE,,,TRUE,,,,OVC,5500,,,,,,,VFR,,,,,,,,,,,,METAR,53
PAKT 220353Z 22003KT 10SM CLR 04/00 A3007 RMK AO2 SLP185 HARBOR WIND VRB03KT T00390000,PAKT,2024-03-22T03:53:00Z,55.3592,-131.722,3.9,0,220,3,,10+,30.07,1018.5,,,TRUE,,,,,,,CLR,,,,,,,,VFR,,,,,,,,,,,,METAR,27
PAJN 220353Z 00000KT 10SM FEW200 FEW260 03/M02 A3011 RMK AO2 SLP197 T00281017,PAJN,2024-03-22T03:53:00Z,58.354,-134.556,2.8,-1.7,0,0,,10+,30.11,1019.7,,,TRUE,,,,,,,FEW,20000,FEW,26000,,,,,VFR,,,,,,,,,,,,METAR,6
PAIL 220353Z 09014G28KT 10SM FEW030 BKN080 BKN110 01/M01 A2993 RMK AO2 PK WND 07030/0342 SLP138 T00111011 $,PAIL,2024-03-22T03:53:00Z,59.7492,-154.909,1.1,-1.1,90,14,28,10+,29.93,1013.8,,,TRUE,TRUE,,,,,,FEW,3000,BKN,8000,BKN,11000,,,VFR,,,,,,,,,,,,METAR,44
PAHO 220353Z 27006KT 10SM CLR 05/M01 A3007 RMK AO2 SLP184 T00501006,PAHO,2024-03-22T03:53:00Z,59.642,-151.491,5,-0.6,270,6,,10+,30.07,1018.4,,,TRUE,,,,,,,CLR,,,,,,,,VFR,,,,,,,,,,,,METAR,6
PAGY 220353Z AUTO 04003KT 10SM CLR 05/M02 A3010 RMK AO2 SLP193 T00501022 TSNO,PAGY,2024-03-22T03:53:00Z,59.457,-135.322,5,-2.2,40,3,,10+,30.10,1019.3,,TRUE,TRUE,,,TRUE,,,,CLR,,,,,,,,VFR,,,,,,,,,,,,METAR,7
PAGK 220353Z AUTO 00000KT 10SM CLR M02/M07 A3008 RMK AO2 SLP228 T10221072 TSNO,PAGK,2024-03-22T03:53:00Z,62.1592,-145.459,-2.2,-7.2,0,0,,10+,30.08,1022.8,,TRUE,TRUE,,,TRUE,,,,CLR,,,,,,,,VFR,,,,,,,,,,,,METAR,481
PAFA 220353Z 04004KT 10SM FEW100 SCT140 BKN200 01/M07 A2991 RMK AO2 SLP138 T00111067,PAFA,2024-03-22T03:53:00Z,64.8031,-147.876,1.1,-6.7,40,4,,10+,29.91,1013.8,,,TRUE,,,,,,,FEW,10000,SCT,14000,BKN,20000,,,VFR,,,,,,,,,,,,METAR,130
PAEN 220353Z 36005KT 10SM CLR 01/M03 A3006 RMK AO2 SLP183 T00111028,PAEN,2024-03-22T03:53:00Z,60.579,-151.242,1.1,-2.8,360,5,,10+,30.06,1018.3,,,TRUE,,,,,,,CLR,,,,,,,,VFR,,,,,,,,,,,,METAR,30
PAEG 220353Z AUTO 00000KT 10SM CLR M01/M08 A3003 RMK AO2 SLP190 T10061078 TSNO,PAEG,2024-03-22T03:53:00Z,64.7761,-141.164,-0.6,-7.8,0,0,,10+,30.03,1019,,TRUE,TRUE,,,TRUE,,,,CLR,,,,,,,,VFR,,,,,,,,,,,,METAR,273
PADQ 220353Z 14011G21KT 10SM OVC025 04/02 A3003 RMK AO2 SLP169 T00390017,PADQ,2024-03-22T03:53:00Z,57.7507,-152.488,3.9,1.7,140,11,21,10+,30.03,1016.9,,,TRUE,,,,,,,OVC,2500,,,,,,,MVFR,,,,,,,,,,,,METAR,5
PACV 220353Z 00000KT 10SM BKN200 03/01 A3015 RMK AO2 SLP211 T00280006,PACV,2024-03-22T03:53:00Z,60.486,-145.445,2.8,0.6,0,0,,10+,30.15,1021.1,,,TRUE,,,,,,,BKN,20000,,,,,,,VFR,,,,,,,,,,,,METAR,15
PABT 220353Z 00000KT 10SM BKN030 OVC050 01/M04 A2994 RMK SLP155 T00061044,PABT,2024-03-22T03:53:00Z,66.9176,-151.519,0.6,-4.4,0,0,,10+,29.94,1015.5,,,,,,,,,,BKN,3000,OVC,5000,,,,,MVFR,,,,,,,,,,,,METAR,195
PABR 220353Z 13011KT 10SM BKN032 OVC065 M06/M09 A2970,PABR,2024-03-22T03:53:00Z,71.2837,-156.784,-6,-9,130,11,,10+,29.70,,,,,,,,,,,BKN,3200,OVC,6500,,,,,VFR,,,,,,,,,,,,METAR,6
PABI 220353Z 11015KT 10SM FEW080 SCT100 BKN140 BKN200 03/M07 A2994 RMK AO2 SLP168 T00331067,PABI,2024-03-22T03:53:00Z,63.9931,-145.721,3.3,-6.7,110,15,,10+,29.94,1016.8,,,TRUE,,,,,,,FEW,8000,SCT,10000,BKN,14000,BKN,20000,VFR,,,,,,,,,,,,METAR,388
PABE 220353Z 11013KT 10SM BKN043 BKN060 OVC080 03/M01 A2957 RMK AO2 SLP014 T00281006,PABE,2024-03-22T03:53:00Z,60.785,-161.829,2.8,-0.6,110,13,,10+,29.57,1001.4,,,TRUE,,,,,,,BKN,4300,BKN,6000,OVC,8000,,,VFR,,,,,,,,,,,,METAR,28
PAAQ 220353Z AUTO 11005KT 10SM CLR 03/M02 A3006 RMK AO2 SLP183 T00331022 TSNO,PAAQ,2024-03-22T03:53:00Z,61.5951,-149.092,3.3,-2.2,110,5,,10+,30.06,1018.3,,TRUE,TRUE,,,TRUE,,,,CLR,,,,,,,,VFR,,,,,,,,,,,,METAR,68
KZZV 220353Z AUTO 05004KT 10SM CLR 01/M11 A3027 RMK AO2 SLP259 T00061111,KZZV,2024-03-22T03:53:00Z,39.9461,-81.8932,0.6,-11.1,50,4,,10+,30.27,1025.9,,TRUE,TRUE,,,,,,,CLR,,,,,,,,VFR,,,,,,,,,,,,METAR,268
KYKM 220353Z 33004KT 10SM CLR 13/03 A3002 RMK AO2 SLP168 T01280033,KYKM,2024-03-22T03:53:00Z,46.564,-120.535,12.8,3.3,330,4,,10+,30.02,1016.8,,,TRUE,,,,,,,CLR,,,,,,,,VFR,,,,,,,,,,,,METAR,319
KYIP 220353Z 08003KT 10SM CLR M03/M08 A3030 RMK AO2 SLP269 T10281078,KYIP,2024-03-22T03:53:00Z,42.242,-83.5214,-2.8,-7.8,80,3,,10+,30.30,1026.9,,,TRUE,,,,,,,CLR,,,,,,,,VFR,,,,,,,,,,,,METAR,215
KXNA 220353Z 13009KT 10SM BKN100 15/06 A2996 RMK AO2 SLP138 T01500056,KXNA,2024-03-22T03:53:00Z,36.2897,-94.3115,15,5.6,130,9,,10+,29.96,1013.8,,,TRUE,,,,,,,BKN,10000,,,,,,,VFR,,,,,,,,,,,,METAR,390
KWST 220353Z AUTO VRB04KT 10SM CLR M01/M13 A3024 RMK AO2 SLP239 T10111128,KWST,2024-03-22T03:53:00Z,41.3509,-71.8055,-1.1,-12.8,VRB,4,,10+,30.24,1023.9,,TRUE,TRUE,,,,,,,CLR,,,,,,,,VFR,,,,,,,,,,,,METAR,20
KWRL 220353Z AUTO 21004KT 10SM OVC070 04/03 A2998 RMK AO2 SLP169 T00440028,KWRL,2024-03-22T03:53:00Z,43.9654,-107.95,4.4,2.8,210,4,,10+,29.98,1016.9,,TRUE,TRUE,,,,,,,OVC,7000,,,,,,,VFR,,,,,,,,,,,,METAR,1281
KVUO 220353Z AUTO 00000KT 10SM OVC120 11/08 A3007 RMK AO2 SLP182 T01060083,KVUO,2024-03-22T03:53:00Z,45.621,-122.654,10.6,8.3,0,0,,10+,30.07,1018.2,,TRUE,TRUE,,,,,,,OVC,12000,,,,,,,VFR,,,,,,,,,,,,METAR,7
KVRB 220353Z AUTO 11010G18KT 10SM CLR 22/15 A3007 RMK AO2 SLP180 T02220150,KVRB,2024-03-22T03:53:00Z,27.6553,-80.4142,22.2,15,110,10,18,10+,30.07,1018,,TRUE,TRUE,,,,,,,CLR,,,,,,,,VFR,,,,,,,,,,,,METAR,7
KVLD 220353Z 13006KT 10SM CLR 19/06 A3006 RMK AO2 SLP187 T01940061 $,KVLD,2024-03-22T03:53:00Z,30.7763,-83.2739,19.4,6.1,130,6,,10+,30.06,1018.7,,,TRUE,TRUE,,,,,,CLR,,,,,,,,VFR,,,,,,,,,,,,METAR,59
KVIH 220353Z AUTO 10009KT 10SM CLR 08/M04 A3002 RMK AO2 SLP167 T00831039,KVIH,2024-03-22T03:53:00Z,38.1318,-91.7647,8.3,-3.9,100,9,,10+,30.02,1016.7,,TRUE,TRUE,,,,,,,CLR,,,,,,,,VFR,,,,,,,,,,,,METAR,342
KVGT 220353Z AUTO 22007KT 10SM CLR 22/M02 A2997 RMK AO2 SLP150 T02171022,KVGT,2024-03-22T03:53:00Z,36.2121,-115.194,21.7,-2.2,220,7,,10+,29.97,1015,,TRUE,TRUE,,,,,,,CLR,,,,,,,,VFR,,,,,,,,,,,,METAR,664
KVEL 220353Z AUTO 33003KT 10SM CLR 06/M02 A3003 RMK AO2 SLP152 T00561022,KVEL,2024-03-22T03:53:00Z,40.4429,-109.513,5.6,-2.2,330,3,,10+,30.03,1015.2,,TRUE,TRUE,,,,,,,CLR,,,,,,,,VFR,,,,,,,,,,,,METAR,1604
KVCB 220353Z AUTO 22008G16KT 10SM CLR 16/09 A3006 RMK AO2 SLP180 T01560089,KVCB,2024-03-22T03:53:00Z,38.3775,-121.959,15.6,8.9,220,8,16,10+,30.06,1018,,TRUE,TRUE,,,,,,,CLR,,,,,,,,VFR,,,,,,,,,,,,METAR,30
KUUU 220353Z AUTO 30010G24KT 10SM CLR M02/M12 A3021 RMK AO2 PK WND 29027/0324 SLP230 T10221122,KUUU,2024-03-22T03:53:00Z,41.5299,-71.2833,-2.2,-12.2,300,10,24,10+,30.21,1023,,TRUE,TRUE,,,,,,,CLR,,,,,,,,VFR,,,,,,,,,,,,METAR,45
KUNO 220353Z AUTO 10004KT 10SM CLR 12/M01 A3002 RMK AO2 SLP163 T01171006,KUNO,2024-03-22T03:53:00Z,36.8791,-91.9052,11.7,-0.6,100,4,,10+,30.02,1016.3,,TRUE,TRUE,,,,,,,CLR,,,,,,,,VFR,,,,,,,,,,,,METAR,376
KUIL 220353Z AUTO 7SM -RA BKN005 OVC010 12/09 A3003 RMK AO2 SLP168 P0008 T01170094,KUIL,2024-03-22T03:53:00Z,47.937,-124.558,11.7,9.4,,,,7,30.03,1016.8,,TRUE,TRUE,,,,,,-RA,BKN,500,OVC,1000,,,,,IFR,,,,,,0.08,,,,,,METAR,58
KUAO 220353Z AUTO 04003KT 10SM OVC120 12/08 A3005 RMK AO2 SLP175 T01220083,KUAO,2024-03-22T03:53:00Z,45.2466,-122.771,12.2,8.3,40,3,,10+,30.05,1017.5,,TRUE,TRUE,,,,,,,OVC,12000,,,,,,,VFR,,,,,,,,,,,,METAR,60
KTYS 220353Z 35007KT 10SM FEW130 BKN250 13/00 A3010 RMK AO2 SLP190 T01280000,KTYS,2024-03-22T03:53:00Z,35.818,-83.9857,12.8,0,350,7,,10+,30.10,1019,,,TRUE,,,,,,,FEW,13000,BKN,25000,,,,,VFR,,,,,,,,,,,,METAR,300
KTYR 220353Z AUTO 13012KT 10SM OVC006 14/13 A2986 RMK AO2 RAB05E19 SLP107 P0000 T01440128,KTYR,2024-03-22T03:53:00Z,32.3587,-95.404,14.4,12.8,130,12,,10+,29.86,1010.7,,TRUE,TRUE,,,,,,,OVC,600,,,,,,,IFR,,,,,,0.005,,,,,,METAR,161
KTXK 220353Z AUTO 14008KT 10SM -RA OVC044 15/12 A2993 RMK AO2 SLP132 P0004 T01500122,KTXK,2024-03-22T03:53:00Z,33.4561,-93.9878,15,12.2,140,8,,10+,29.93,1013.2,,TRUE,TRUE,,,,,,-RA,OVC,4400,,,,,,,VFR,,,,,,0.04,,,,,,METAR,118
KTWF 220353Z AUTO 20007KT 10SM CLR 04/M01 A3009 RMK AO2 SLP171 T00441006,KTWF,2024-03-22T03:53:00Z,42.4785,-114.477,4.4,-0.6,200,7,,10+,30.09,1017.1,,TRUE,TRUE,,,,,,,CLR,,,,,,,,VFR,,,,,,,,,,,,METAR,1269
KTVR 220353Z AUTO 00000KT 10SM CLR 14/10 A2996 RMK AO2 SLP153 T01390100,KTVR,2024-03-22T03:53:00Z,32.3481,-91.0299,13.9,10,0,0,,10+,29.96,1015.3,,TRUE,TRUE,,,,,,,CLR,,,,,,,,VFR,,,,,,,,,,,,METAR,25
KTVL 220353Z AUTO 20006KT 10SM CLR 06/01 A3015 RMK AO2 SLP186 T00560011,KTVL,2024-03-22T03:53:00Z,38.8984,-119.996,5.6,1.1,200,6,,10+,30.15,1018.6,,TRUE,TRUE,,,,,,,CLR,,,,,,,,VFR,,,,,,,,,,,,METAR,1907
KTVC 220353Z AUTO 00000KT 10SM CLR M04/M12 A3027 RMK AO2 SLP260 T10441122,KTVC,2024-03-22T03:53:00Z,44.739,-85.5694,-4.4,-12.2,0,0,,10+,30.27,1026,,TRUE,TRUE,,,,,,,CLR,,,,,,,,VFR,,,,,,,,,,,,METAR,188
KTUS 220353Z 00000KT 10SM CLR 19/02 A3009 RMK AO2 SLP160 T01940017,KTUS,2024-03-22T03:53:00Z,32.1315,-110.956,19.4,1.7,0,0,,10+,30.09,1016,,,TRUE,,,,,,,CLR,,,,,,,,VFR,,,,,,,,,,,,METAR,776
KTUL 220353Z 09003KT 10SM OVC075 14/11 A2993 RMK AO2 SLP132 T01440111,KTUL,2024-03-22T03:53:00Z,36.1985,-95.8783,14.4,11.1,90,3,,10+,29.93,1013.2,,,TRUE,,,,,,,OVC,7500,,,,,,,VFR,,,,,,,,,,,,METAR,196
KTTN 220353Z AUTO 36005KT 10SM CLR M01/M11 A3030 RMK AO2 SLP258 T10111111,KTTN,2024-03-22T03:53:00Z,40.2768,-74.8159,-1.1,-11.1,360,5,,10+,30.30,1025.8,,TRUE,TRUE,,,,,,,CLR,,,,,,,,VFR,,,,,,,,,,,,METAR,58
KTTD 220353Z 00000KT 10SM SCT120 12/08 A3005 RMK AO2 SLP175 T01220078,KTTD,2024-03-22T03:53:00Z,45.551,-122.41,12.2,7.8,0,0,,10+,30.05,1017.5,,,TRUE,,,,,,,SCT,12000,,,,,,,VFR,,,,,,,,,,,,METAR,8
KTRL 220353Z AUTO 14008KT 10SM -RA OVC095 14/13 A2987 RMK AO2 LTG DSNT E-S TSB01E16 SLP110 P0012 T01390128,KTRL,2024-03-22T03:53:00Z,32.7131,-96.2688,13.9,12.8,140,8,,10+,29.87,1011,,TRUE,TRUE,,,,,,-RA,OVC,9500,,,,,,,VFR,,,,,,0.12,,,,,,METAR,144
KTRI 220353Z 00000KT 10SM FEW250 07/M02 A3015 RMK AO2 SLP199 T00721017,KTRI,2024-03-22T03:53:00Z,36.4797,-82.3989,7.2,-1.7,0,0,,10+,30.15,1019.9,,,TRUE,,,,,,,FEW,25000,,,,,,,VFR,,,,,,,,,,,,METAR,456
KTPA 220353Z 13007KT 10SM BKN038 BKN047 BKN070 22/17 A3004 RMK AO2 SLP170 T02220172 $,KTPA,2024-03-22T03:53:00Z,27.9633,-82.54,22.2,17.2,130,7,,10+,30.04,1017,,,TRUE,TRUE,,,,,,BKN,3800,BKN,4700,BKN,7000,,,VFR,,,,,,,,,,,,METAR,2
KTOR 220353Z AUTO 32003KT 10SM BKN090 OVC110 04/M06 A3000 RMK AO2 SLP157 T00391056,KTOR,2024-03-22T03:53:00Z,42.0613,-104.158,3.9,-5.6,320,3,,10+,30.00,1015.7,,TRUE,TRUE,,,,,,,BKN,9000,OVC,11000,,,,,VFR,,,,,,,,,,,,METAR,1285
KTOP 220353Z AUTO 11008KT 10SM CLR 12/01 A2991 RMK AO2 SLP130 T01170006,KTOP,2024-03-22T03:53:00Z,39.0724,-95.626,11.7,0.6,110,8,,10+,29.91,1013,,TRUE,TRUE,,,,,,,CLR,,,,,,,,VFR,,,,,,,,,,,,METAR,268
KTOI 220353Z AUTO 21005KT 10SM SCT090 14/09 A3005 RMK AO2 SLP174 T01440089,KTOI,2024-03-22T03:53:00Z,31.8574,-86.0103,14.4,8.9,210,5,,10+,30.05,1017.4,,TRUE,TRUE,,,,,,,SCT,9000,,,,,,,VFR,,,,,,,,,,,,METAR,120
KTMB 220353Z AUTO 11014G20KT 10SM CLR 23/16 A3006 RMK AO2 SLP178 T02280161,KTMB,2024-03-22T03:53:00Z,25.6423,-80.4347,22.8,16.1,110,14,20,10+,30.06,1017.8,,TRUE,TRUE,,,,,,,CLR,,,,,,,,VFR,,,,,,,,,,,,METAR,2
KTLH 220353Z AUTO 00000KT 10SM OVC090 17/09 A3005 RMK AO2 SLP173 T01670094,KTLH,2024-03-22T03:53:00Z,30.3935,-84.3513,16.7,9.4,0,0,,10+,30.05,1017.3,,TRUE,TRUE,,,,,,,OVC,9000,,,,,,,VFR,,,,,,,,,,,,METAR,17
KTKI 220353Z AUTO 14004KT 10SM OVC006 15/14 A2985 RMK AO2 CIG 004V009 SLP111 T01500139,KTKI,2024-03-22T03:53:00Z,33.1828,-96.5899,15,13.9,140,4,,10+,29.85,1011.1,,TRUE,TRUE,,,,,,,OVC,600,,,,,,,IFR,,,,,,,,,,,,METAR,173
KTHV 220353Z AUTO 00000KT 10SM CLR 01/M11 A3029 RMK AO2 SLP264 T00111111,KTHV,2024-03-22T03:53:00Z,39.9194,-76.8768,1.1,-11.1,0,0,,10+,30.29,1026.4,,TRUE,TRUE,,,,,,,CLR,,,,,,,,VFR,,,,,,,,,,,,METAR,141
KTDZ 220353Z AUTO 10005KT 10SM CLR M02/M10 A3030 RMK AO2 SLP266 T10171100,KTDZ,2024-03-22T03:53:00Z,41.5633,-83.4767,-1.7,-10,100,5,,10+,30.30,1026.6,,TRUE,TRUE,,,,,,,CLR,,,,,,,,VFR,,,,,,,,,,,,METAR,189
KTCS 220353Z AUTO 31010KT 10SM CLR 14/M06 A3003 RMK AO2 SLP118 T01391061,KTCS,2024-03-22T03:53:00Z,33.2369,-107.268,13.9,-6.1,310,10,,10+,30.03,1011.8,,TRUE,TRUE,,,,,,,CLR,,,,,,,,VFR,,,,,,,,,,,,METAR,1471
KTCL 220353Z AUTO 00000KT 10SM BKN100 14/10 A3000 RMK AO2 SLP158 T01390100,KTCL,2024-03-22T03:53:00Z,33.2122,-87.6155,13.9,10,0,0,,10+,30.00,1015.8,,TRUE,TRUE,,,,,,,BKN,10000,,,,,,,VFR,,,,,,,,,,,,METAR,48
KTCC 220353Z AUTO 19004KT 10SM CLR 09/M04 A2988 RMK AO2 SLP097 T00941044,KTCC,2024-03-22T03:53:00Z,35.1805,-103.601,9.4,-4.4,190,4,,10+,29.88,1009.7,,TRUE,TRUE,,,,,,,CLR,,,,,,,,VFR,,,,,,,,,,,,METAR,1233
KSWO 220353Z AUTO 11005KT 6SM -RA BR BKN080 OVC100 14/13 A2991 RMK AO2 RAE02B48 SLP123 P0001 T01440133,KSWO,2024-03-22T03:53:00Z,36.1624,-97.0832,14.4,13.3,110,5,,6,29.91,1012.3,,TRUE,TRUE,,,,,,-RA BR,BKN,8000,OVC,10000,,,,,VFR,,,,,,0.01,,,,,,METAR,293
KSTS 220353Z AUTO 00000KT 10SM CLR 12/09 A3010 RMK AO2 SLP188 T01220094,KSTS,2024-03-22T03:53:00Z,38.5037,-122.811,12.2,9.4,0,0,,10+,30.10,1018.8,,TRUE,TRUE,,,,,,,CLR,,,,,,,,VFR,,,,,,,,,,,,METAR,35
KSTJ 220353Z AUTO 10004KT 10SM CLR 09/M04 A2995 RMK AO2 SLP143 T00891044,KSTJ,2024-03-22T03:53:00Z,39.7683,-94.9095,8.9,-4.4,100,4,,10+,29.95,1014.3,,TRUE,TRUE,,,,,,,CLR,,,,,,,,VFR,,,,,,,,,,,,METAR,247
KSSF 220353Z AUTO 00000KT 7SM CLR 17/16 A2986 RMK AO2 SLP106 T01670161,KSSF,2024-03-22T03:53:00Z,29.339,-98.472,16.7,16.1,0,0,,7,29.86,1010.6,,TRUE,TRUE,,,,,,,CLR,,,,,,,,VFR,,,,,,,,,,,,METAR,175
KSRQ 220353Z AUTO 13011KT 10SM OVC038 22/18 A3002 RMK AO2 RAB18E36 SLP165 P0000 T02170183,KSRQ,2024-03-22T03:53:00Z,27.4015,-82.5596,21.7,18.3,130,11,,10+,30.02,1016.5,,TRUE,TRUE,,,,,,,OVC,3800,,,,,,,VFR,,,,,,0.005,,,,,,METAR,5
KSPW 220353Z AUTO 08016KT 10SM OVC055 00/M06 A3003 RMK AO2 SLP183 T00001056,KSPW,2024-03-22T03:53:00Z,43.1682,-95.2101,0,-5.6,80,16,,10+,30.03,1018.3,,TRUE,TRUE,,,,,,,OVC,5500,,,,,,,VFR,,,,,,,,,,,,METAR,407
KSPG 220353Z AUTO 12013KT 10SM BKN034 OVC042 22/19 A3002 RMK AO2 SLP165 T02170194,KSPG,2024-03-22T03:53:00Z,27.7685,-82.6257,21.7,19.4,120,13,,10+,30.02,1016.5,,TRUE,TRUE,,,,,,,BKN,3400,OVC,4200,,,,,VFR,,,,,,,,,,,,METAR,1
KSPB 220353Z AUTO 26004KT 10SM OVC110 11/08 A3005 RMK AO2 SLP175 T01060083 $,KSPB,2024-03-22T03:53:00Z,45.7691,-122.864,10.6,8.3,260,4,,10+,30.05,1017.5,,TRUE,TRUE,TRUE,,,,,,OVC,11000,,,,,,,VFR,,,,,,,,,,,,METAR,15
KSNY 220353Z AUTO 34016G25KT 10SM CLR 03/M09 A2995 RMK AO2 PK WND 01035/0317 WSHFT 0243 SLP135 T00281089,KSNY,2024-03-22T03:53:00Z,41.0993,-102.986,2.8,-8.9,340,16,25,10+,29.95,1013.5,,TRUE,TRUE,,,,,,,CLR,,,,,,,,VFR,,,,,,,,,,,,METAR,1307
KSNS 220353Z AUTO 31006KT 10SM CLR 14/11 A3011 RMK AO2 SLP203 T01390111,KSNS,2024-03-22T03:53:00Z,36.6635,-121.609,13.9,11.1,310,6,,10+,30.11,1020.3,,TRUE,TRUE,,,,,,,CLR,,,,,,,,VFR,,,,,,,,,,,,METAR,20
KSNA 220353Z 20003KT 10SM FEW250 16/12 A3008 RMK AO2 SLP186 T01560117,KSNA,2024-03-22T03:53:00Z,33.6798,-117.867,15.6,11.7,200,3,,10+,30.08,1018.6,,,TRUE,,,,,,,FEW,25000,,,,,,,VFR,,,,,,,,,,,,METAR,14
KSMQ 220353Z AUTO 32003KT 10SM CLR 00/M12 A3031 RMK AO2 SLP265 T00001117,KSMQ,2024-03-22T03:53:00Z,40.6241,-74.669,0,-11.7,320,3,,10+,30.31,1026.5,,TRUE,TRUE,,,,,,,CLR,,,,,,,,VFR,,,,,,,,,,,,METAR,30
KSMF 220353Z 15008KT 10SM BKN220 17/11 A3006 RMK AO2 SLP177 T01670106,KSMF,2024-03-22T03:53:00Z,38.7007,-121.595,16.7,10.6,150,8,,10+,30.06,1017.7,,,TRUE,,,,,,,BKN,22000,,,,,,,VFR,,,,,,,,,,,,METAR,7
KSLN 220353Z 17008KT 10SM CLR 09/05 A2989 RMK AO2 SLP123 T00940050,KSLN,2024-03-22T03:53:00Z,38.78,-97.6446,9.4,5,170,8,,10+,29.89,1012.3,,,TRUE,,,,,,,CLR,,,,,,,,VFR,,,,,,,,,,,,METAR,377
KSJC 220353Z 31006KT 10SM FEW030 BKN120 16/10 A3009 RMK AO2 SLP190 T01560100,KSJC,2024-03-22T03:53:00Z,37.3594,-121.924,15.6,10,310,6,,10+,30.09,1019,,,TRUE,,,,,,,FEW,3000,BKN,12000,,,,,VFR,,,,,,,,,,,,METAR,13
KSIY 220353Z AUTO 14007KT 10SM CLR 12/M01 A3003 RMK AO2 SLP178 T01171006,KSIY,2024-03-22T03:53:00Z,41.7737,-122.468,11.7,-0.6,140,7,,10+,30.03,1017.8,,TRUE,TRUE,,,,,,,CLR,,,,,,,,VFR,,,,,,,,,,,,METAR,807
KSHN 220353Z AUTO 00000KT 10SM SCT030 BKN035 OVC055 11/10 A3004 RMK AO2 SLP176 T01060100,KSHN,2024-03-22T03:53:00Z,47.2384,-123.142,10.6,10,0,0,,10+,30.04,1017.6,,TRUE,TRUE,,,,,,,SCT,3000,BKN,3500,OVC,5500,,,VFR,,,,,,,,,,,,METAR,84
KSGR 220353Z AUTO 14010KT 10SM OVC014 20/18 A2985 RMK AO2 SLP110 T02000178,KSGR,2024-03-22T03:53:00Z,29.6197,-95.6575,20,17.8,140,10,,10+,29.85,1011,,TRUE,TRUE,,,,,,,OVC,1400,,,,,,,MVFR,,,,,,,,,,,,METAR,22
KSFF 220353Z AUTO 00000KT 10SM OVC095 10/01 A3002 RMK AO2 SLP167 T01000011,KSFF,2024-03-22T03:53:00Z,47.6857,-117.321,10,1.1,0,0,,10+,30.02,1016.7,,TRUE,TRUE,,,,,,,OVC,9500,,,,,,,VFR,,,,,,,,,,,,METAR,593
KSFB 220353Z 14005KT 10SM CLR 19/17 A3007 RMK AO2 SLP180 T01890167,KSFB,2024-03-22T03:53:00Z,28.7795,-81.2436,18.9,16.7,140,5,,10+,30.07,1018,,,TRUE,,,,,,,CLR,,,,,,,,VFR,,,,,,,,,,,,METAR,16
KSEG 220353Z AUTO 01006KT 10SM CLR M03/M10 A3034 RMK AO2 SLP280 T10281100,KSEG,2024-03-22T03:53:00Z,40.8193,-76.8658,-2.8,-10,10,6,,10+,30.34,1028,,TRUE,TRUE,,,,,,,CLR,,,,,,,,VFR,,,,,,,,,,,,METAR,136
KSDM 220353Z AUTO 7SM CLR 14/12 A3009 RMK AO2 SLP186 T01390117 $,KSDM,2024-03-22T03:53:00Z,32.5758,-116.994,13.9,11.7,,,,7,30.09,1018.6,,TRUE,TRUE,TRUE,,,,,,CLR,,,,,,,,VFR,,,,,,,,,,,,METAR,161
KSDL 220353Z AUTO 00000KT 10SM CLR 22/04 A3002 RMK AO2 SLP148 T02170044,KSDL,2024-03-22T03:53:00Z,33.6124,-111.923,21.7,4.4,0,0,,10+,30.02,1014.8,,TRUE,TRUE,,,,,,,CLR,,,,,,,,VFR,,,,,,,,,,,,METAR,438
KSBM 220353Z AUTO 14004KT 10SM OVC065 M02/M11 A3024 RMK AO2 SLP251 T10221106,KSBM,2024-03-22T03:53:00Z,43.7748,-87.849,-2.2,-10.6,140,4,,10+,30.24,1025.1,,TRUE,TRUE,,,,,,,OVC,6500,,,,,,,VFR,,,,,,,,,,,,METAR,225
KSBA 220353Z 00000KT 8SM CLR 14/13 A3007 RMK AO2 SLP182 T01440133 $,KSBA,2024-03-22T03:53:00Z,34.4241,-119.842,14.4,13.3,0,0,,8,30.07,1018.2,,,TRUE,TRUE,,,,,,CLR,,,,,,,,VFR,,,,,,,,,,,,METAR,2
KSAV 220353Z 09008KT 6SM BR FEW006 BKN250 16/14 A3012 RMK AO2 SLP199 LAST T01610144,KSAV,2024-03-22T03:53:00Z,32.1313,-81.2023,16.1,14.4,90,8,,6,30.12,1019.9,,,TRUE,,,,,,BR,FEW,600,BKN,25000,,,,,VFR,,,,,,,,,,,,METAR,10
KSAF 220353Z AUTO 09006KT 10SM CLR 08/M07 A3003 RMK AO2 SLP123 T00781067,KSAF,2024-03-22T03:53:00Z,35.611,-106.096,7.8,-6.7,90,6,,10+,30.03,1012.3,,TRUE,TRUE,,,,,,,CLR,,,,,,,,VFR,,,,,,,,,,,,METAR,1918
KSAC 220353Z 16003KT 10SM CLR 16/09 A3007 RMK AO2 SLP181 T01560094,KSAC,2024-03-22T03:53:00Z,38.5066,-121.496,15.6,9.4,160,3,,10+,30.07,1018.1,,,TRUE,,,,,,,CLR,,,,,,,,VFR,,,,,,,,,,,,METAR,5
KRXE 220353Z AUTO 19004KT 10SM CLR 06/M01 A3002 RMK AO2 SLP167 T00611006,KRXE,2024-03-22T03:53:00Z,43.8321,-111.808,6.1,-0.6,190,4,,10+,30.02,1016.7,,TRUE,TRUE,,,,,,,CLR,,,,,,,,VFR,,,,,,,,,,,,METAR,1483
KRWL 220353Z AUTO 24014G21KT 10SM CLR 05/M04 A3002 RMK AO2 PK WND 25031/0301 SLP130 T00501044,KRWL,2024-03-22T03:53:00Z,41.8065,-107.195,5,-4.4,240,14,21,10+,30.02,1013,,TRUE,TRUE,,,,,,,CLR,,,,,,,,VFR,,,,,,,,,,,,METAR,2066
KRWI 220353Z AUTO 16005KT 10SM CLR 09/03 A3024 RMK AO2 SLP240 T00890033,KRWI,2024-03-22T03:53:00Z,35.8502,-77.8951,8.9,3.3,160,5,,10+,30.24,1024,,TRUE,TRUE,,,,,,,CLR,,,,,,,,VFR,,,,,,,,,,,,METAR,46
KRUE 220353Z AUTO 08003KT 10SM FEW050 OVC070 15/06 A2996 RMK AO2 SLP142 T01500056,KRUE,2024-03-22T03:53:00Z,35.2573,-93.095,15,5.6,80,3,,10+,29.96,1014.2,,TRUE,TRUE,,,,,,,FEW,5000,OVC,7000,,,,,VFR,,,,,,,,,,,,METAR,119
KRTN 220353Z AUTO 02003KT 10SM CLR 04/M04 A2997 RMK AO2 SLP117 T00391044 $,KRTN,2024-03-22T03:53:00Z,36.7418,-104.508,3.9,-4.4,20,3,,10+,29.97,1011.7,,TRUE,TRUE,TRUE,,,,,,CLR,,,,,,,,VFR,,,,,,,,,,,,METAR,1939
KRSW 220353Z 12007KT 10SM CLR 21/18 A3005 RMK AO2 SLP173 T02110178,KRSW,2024-03-22T03:53:00Z,26.538,-81.7567,21.1,17.8,120,7,,10+,30.05,1017.3,,,TRUE,,,,,,,CLR,,,,,,,,VFR,,,,,,,,,,,,METAR,8
KRSL 220353Z AUTO 16012KT 10SM CLR 12/05 A2985 RMK AO2 SLP110 T01170050,KRSL,2024-03-22T03:53:00Z,38.8725,-98.8093,11.7,5,160,12,,10+,29.85,1011,,TRUE,TRUE,,,,,,,CLR,,,,,,,,VFR,,,,,,,,,,,,METAR,569
KRQE 220353Z AUTO 00000KT 10SM FEW095 07/M03 A3015 RMK AO2 SLP167 T00671028,KRQE,2024-03-22T03:53:00Z,35.6571,-109.06,6.7,-2.8,0,0,,10+,30.15,1016.7,,TRUE,TRUE,,,,,,,FEW,9500,,,,,,,VFR,,,,,,,,,,,,METAR,2056
KRNT 220353Z AUTO 11003KT 10SM BKN037 OVC050 12/10 A3007 RMK AO2 RAE06 SLP187 P0000 T01170100,KRNT,2024-03-22T03:53:00Z,47.4951,-122.214,11.7,10,110,3,,10+,30.07,1018.7,,TRUE,TRUE,,,,,,,BKN,3700,OVC,5000,,,,,VFR,,,,,,0.005,,,,,,METAR,7
KRNM 220353Z AUTO 00000KT 8SM CLR 11/09 A3009 RMK AO2 SLP185 T01110089,KRNM,2024-03-22T03:53:00Z,33.038,-116.916,11.1,8.9,0,0,,8,30.09,1018.5,,TRUE,TRUE,,,,,,,CLR,,,,,,,,VFR,,,,,,,,,,,,METAR,423
KRMG 220353Z AUTO 03004KT 10SM FEW100 18/03 A3004 RMK AO2 SLP165 T01780033 $,KRMG,2024-03-22T03:53:00Z,34.3483,-85.1616,17.8,3.3,30,4,,10+,30.04,1016.5,,TRUE,TRUE,TRUE,,,,,,FEW,10000,,,,,,,VFR,,,,,,,,,,,,METAR,196
KRME 220353Z AUTO 31014KT 10SM SCT043 M05/M12 A3031 RMK AO2 SLP269 T10501122,KRME,2024-03-22T03:53:00Z,43.2242,-75.3956,-5,-12.2,310,14,,10+,30.31,1026.9,,TRUE,TRUE,,,,,,,SCT,4300,,,,,,,VFR,,,,,,,,,,,,METAR,146
KRIW 220353Z AUTO 07008G17KT 10SM OVC090 05/M02 A2999 RMK AO2 SLP142 T00501022,KRIW,2024-03-22T03:53:00Z,43.0622,-108.447,5,-2.2,70,8,17,10+,29.99,1014.2,,TRUE,TRUE,,,,,,,OVC,9000,,,,,,,VFR,,,,,,,,,,,,METAR,1662
KRIL 220353Z AUTO 11003KT 10SM CLR 08/01 A3007 RMK AO2 SLP165 T00780006,KRIL,2024-03-22T03:53:00Z,39.5279,-107.72,7.8,0.6,110,3,,10+,30.07,1016.5,,TRUE,TRUE,,,,,,,CLR,,,,,,,,VFR,,,,,,,,,,,,METAR,1683
KRHI 220353Z AUTO 24005KT 10SM OVC065 M03/M16 A3015 RMK AO2 SLP237 T10281161,KRHI,2024-03-22T03:53:00Z,45.6315,-89.4822,-2.8,-16.1,240,5,,10+,30.15,1023.7,,TRUE,TRUE,,,,,,,OVC,6500,,,,,,,VFR,,,,,,,,,,,,METAR,493
KRDD 220353Z 00000KT 10SM SCT055 16/07 A3005 RMK AO2 SLP173 T01560072,KRDD,2024-03-22T03:53:00Z,40.5146,-122.298,15.6,7.2,0,0,,10+,30.05,1017.3,,,TRUE,,,,,,,SCT,5500,,,,,,,VFR,,,,,,,,,,,,METAR,152
KRBG 220353Z AUTO 00000KT 10SM CLR 15/06 A3000 RMK AO2 SLP159 T01500061,KRBG,2024-03-22T03:53:00Z,43.2337,-123.358,15,6.1,0,0,,10+,30.00,1015.9,,TRUE,TRUE,,,,,,,CLR,,,,,,,,VFR,,,,,,,,,,,,METAR,152
KRBD 220353Z AUTO 18004KT 10SM FEW120 13/13 A2985 RMK AO2 LTG DSNT SE RAE27 SLP104 P0001 T01330128,KRBD,2024-03-22T03:53:00Z,32.6782,-96.8677,13.3,12.8,180,4,,10+,29.85,1010.4,,TRUE,TRUE,,,,,,,FEW,12000,,,,,,,VFR,,,,,,0.01,,,,,,METAR,200
KRAL 220353Z AUTO 26005KT 10SM CLR 14/09 A3008 RMK AO2 SLP176 T01390094,KRAL,2024-03-22T03:53:00Z,33.9528,-117.435,13.9,9.4,260,5,,10+,30.08,1017.6,,TRUE,TRUE,,,,,,,CLR,,,,,,,,VFR,,,,,,,,,,,,METAR,254
KRAC 220353Z AUTO 11010KT 10SM BKN060 OVC075 01/M05 A3023 RMK AO2 SLP246 T00111050,KRAC,2024-03-22T03:53:00Z,42.7586,-87.8178,1.1,-5,110,10,,10+,30.23,1024.6,,TRUE,TRUE,,,,,,,BKN,6000,OVC,7500,,,,,VFR,,,,,,,,,,,,METAR,203
KPUW 220353Z AUTO 00000KT 10SM FEW080 06/03 A3006 RMK AO2 SLP190 T00610028,KPUW,2024-03-22T03:53:00Z,46.7438,-117.116,6.1,2.8,0,0,,10+,30.06,1019,,TRUE,TRUE,,,,,,,FEW,8000,,,,,,,VFR,,,,,,,,,,,,METAR,774
KPUC 220353Z AUTO 02005KT 10SM CLR 04/M04 A3008 RMK AO2 SLP183 T00441039,KPUC,2024-03-22T03:53:00Z,39.6089,-110.755,4.4,-3.9,20,5,,10+,30.08,1018.3,,TRUE,TRUE,,,,,,,CLR,,,,,,,,VFR,,,,,,,,,,,,METAR,1777
KPUB 220353Z 36012KT 10SM CLR 09/M03 A2989 RMK AO2 SLP096 T00891028,KPUB,2024-03-22T03:53:00Z,38.2887,-104.506,8.9,-2.8,360,12,,10+,29.89,1009.6,,,TRUE,,,,,,,CLR,,,,,,,,VFR,,,,,,,,,,,,METAR,1441
KPTK 220353Z 11003KT 10SM FEW130 SCT230 M03/M12 A3028 RMK AO2 SLP267 LAST T10281117,KPTK,2024-03-22T03:53:00Z,42.6632,-83.41,-2.8,-11.7,110,3,,10+,30.28,1026.7,,,TRUE,,,,,,,FEW,13000,SCT,23000,,,,,VFR,,,,,,,,,,,,METAR,295
KPSP 220353Z AUTO 29008KT 10SM CLR 24/04 A2999 RMK AO2 SLP154 T02440044 PNO $,KPSP,2024-03-22T03:53:00Z,33.8222,-116.504,24.4,4.4,290,8,,10+,29.99,1015.4,,TRUE,TRUE,TRUE,,,,,,CLR,,,,,,,,VFR,,,,,,,,,,,,METAR,123
KPSC 220353Z 00000KT 10SM BKN110 14/04 A3002 RMK AO2 SLP167 T01440039,KPSC,2024-03-22T03:53:00Z,46.2695,-119.118,14.4,3.9,0,0,,10+,30.02,1016.7,,,TRUE,,,,,,,BKN,11000,,,,,,,VFR,,,,,,,,,,,,METAR,121
KPRC 220353Z 21007KT 10SM CLR 12/M01 A3016 RMK AO2 SLP172 T01171011,KPRC,2024-03-22T03:53:00Z,34.6491,-112.422,11.7,-1.1,210,7,,10+,30.16,1017.2,,,TRUE,,,,,,,CLR,,,,,,,,VFR,,,,,,,,,,,,METAR,1528
KPRB 220353Z AUTO 32006KT 10SM CLR 14/09 A3008 RMK AO2 SLP185 T01390094 $,KPRB,2024-03-22T03:53:00Z,35.6693,-120.629,13.9,9.4,320,6,,10+,30.08,1018.5,,TRUE,TRUE,TRUE,,,,,,CLR,,,,,,,,VFR,,,,,,,,,,,,METAR,249
KPQL 220353Z AUTO 11005KT 10SM OVC100 15/13 A2998 RMK AO2 RAB27E51 SLP154 P0000 T01500128,KPQL,2024-03-22T03:53:00Z,30.4631,-88.5316,15,12.8,110,5,,10+,29.98,1015.4,,TRUE,TRUE,,,,,,,OVC,10000,,,,,,,VFR,,,,,,0.005,,,,,,METAR,4
KPOU 220353Z 31005KT 10SM CLR M03/M13 A3030 RMK AO2 SLP258 T10281133,KPOU,2024-03-22T03:53:00Z,41.6257,-73.8816,-2.8,-13.3,310,5,,10+,30.30,1025.8,,,TRUE,,,,,,,CLR,,,,,,,,VFR,,,,,,,,,,,,METAR,45
KPOF 220353Z AUTO 03006KT 10SM FEW085 11/00 A3003 RMK AO2 SLP171 T01110000,KPOF,2024-03-22T03:53:00Z,36.7697,-90.3224,11.1,0,30,6,,10+,30.03,1017.1,,TRUE,TRUE,,,,,,,FEW,8500,,,,,,,VFR,,,,,,,,,,,,METAR,99
KPNS 220353Z 12004KT 10SM FEW100 BKN120 17/12 A2999 RMK AO2 SLP156 T01720122,KPNS,2024-03-22T03:53:00Z,30.478,-87.1869,17.2,12.2,120,4,,10+,29.99,1015.6,,,TRUE,,,,,,,FEW,10000,BKN,12000,,,,,VFR,,,,,,,,,,,,METAR,34
KPNC 220353Z AUTO 12005KT 10SM FEW075 13/12 A2992 RMK AO2 SLP127 T01330122,KPNC,2024-03-22T03:53:00Z,36.7369,-97.1024,13.3,12.2,120,5,,10+,29.92,1012.7,,TRUE,TRUE,,,,,,,FEW,7500,,,,,,,VFR,,,,,,,,,,,,METAR,304
KPMP 220353Z 11014G22KT 10SM FEW035 23/15 A3008 RMK AO2 SLP185 T02280150 $,KPMP,2024-03-22T03:53:00Z,26.2464,-80.111,22.8,15,110,14,22,10+,30.08,1018.5,,,TRUE,TRUE,,,,,,FEW,3500,,,,,,,VFR,,,,,,,,,,,,METAR,4
KPMD 220353Z 23010KT 10SM CLR 15/04 A3008 RMK AO2 SLP172 T01500044,KPMD,2024-03-22T03:53:00Z,34.6295,-118.083,15,4.4,230,10,,10+,30.08,1017.2,,,TRUE,,,,,,,CLR,,,,,,,,VFR,,,,,,,,,,,,METAR,764
KPKB 220353Z AUTO 00000KT 10SM CLR M01/M08 A3026 RMK AO2 SLP256 T10111083,KPKB,2024-03-22T03:53:00Z,39.3395,-81.4438,-1.1,-8.3,0,0,,10+,30.26,1025.6,,TRUE,TRUE,,,,,,,CLR,,,,,,,,VFR,,,,,,,,,,,,METAR,245
KPIR 220353Z AUTO 05013G20KT 10SM BKN055 M03/M08 A3008 RMK AO2 PRESRR SLP205 T10281078,KPIR,2024-03-22T03:53:00Z,44.3819,-100.286,-2.8,-7.8,50,13,20,10+,30.08,1020.5,,TRUE,TRUE,,,,,,,BKN,5500,,,,,,,VFR,,,,,,,,,,,,METAR,524
KPIL 220353Z AUTO 13004KT 10SM CLR 20/19 A2984 RMK AO2 SLP104 T02000189,KPIL,2024-03-22T03:53:00Z,26.1597,-97.3378,20,18.9,130,4,,10+,29.84,1010.4,,TRUE,TRUE,,,,,,,CLR,,,,,,,,VFR,,,,,,,,,,,,METAR,5
KPIH 220353Z 21012G21KT 10SM CLR 08/M01 A3006 RMK AO2 SLP166 T00831011,KPIH,2024-03-22T03:53:00Z,42.9197,-112.572,8.3,-1.1,210,12,21,10+,30.06,1016.6,,,TRUE,,,,,,,CLR,,,,,,,,VFR,,,,,,,,,,,,METAR,1357
KPIE 220353Z AUTO 13005KT 10SM BKN038 OVC065 22/18 A3003 RMK AO2 SLP169 T02170178,KPIE,2024-03-22T03:53:00Z,27.9126,-82.6855,21.7,17.8,130,5,,10+,30.03,1016.9,,TRUE,TRUE,,,,,,,BKN,3800,OVC,6500,,,,,VFR,,,,,,,,,,,,METAR,1
KPHD 220353Z AUTO 03004KT 10SM CLR M01/M10 A3031 RMK AO2 SLP273 T10111100,KPHD,2024-03-22T03:53:00Z,40.4703,-81.4218,-1.1,-10,30,4,,10+,30.31,1027.3,,TRUE,TRUE,,,,,,,CLR,,,,,,,,VFR,,,,,,,,,,,,METAR,272
KPGD 220353Z AUTO 13009KT 10SM -RA FEW047 BKN055 BKN120 22/18 A3005 RMK AO2 RAB27 SLP175 P0001 T02170178,KPGD,2024-03-22T03:53:00Z,26.9185,-81.9939,21.7,17.8,130,9,,10+,30.05,1017.5,,TRUE,TRUE,,,,,,-RA,FEW,4700,BKN,5500,BKN,12000,,,VFR,,,,,,0.01,,,,,,METAR,7
KPEO 220353Z AUTO 25006KT 10SM OVC045 M05/M11 A3033 RMK AO2 SLP285 T10501111,KPEO,2024-03-22T03:53:00Z,42.6441,-77.0528,-5,-11.1,250,6,,10+,30.33,1028.5,,TRUE,TRUE,,,,,,,OVC,4500,,,,,,,VFR,,,,,,,,,,,,METAR,268
KPDX 220353Z 00000KT 10SM SCT120 BKN180 OVC240 12/08 A3006 RMK AO2 SLP177 T01170083,KPDX,2024-03-22T03:53:00Z,45.5958,-122.609,11.7,8.3,0,0,,10+,30.06,1017.7,,,TRUE,,,,,,,SCT,12000,BKN,18000,OVC,24000,,,VFR,,,,,,,,,,,,METAR,7
KPDT 220353Z AUTO 00000KT 10SM CLR 13/03 A3005 RMK AO2 SLP170 T01280033,KPDT,2024-03-22T03:53:00Z,45.6975,-118.834,12.8,3.3,0,0,,10+,30.05,1017,,TRUE,TRUE,,,,,,,CLR,,,,,,,,VFR,,,,,,,,,,,,METAR,453
KPDK 220353Z AUTO VRB04KT 7SM CLR 19/05 A3006 RMK AO2 SLP169 T01890050,KPDK,2024-03-22T03:53:00Z,33.8783,-84.298,18.9,5,VRB,4,,7,30.06,1016.9,,TRUE,TRUE,,,,,,,CLR,,,,,,,,VFR,,,,,,,,,,,,METAR,299
KPBI 220353Z 11014KT 10SM SCT036 23/14 A3008 RMK AO2 SLP185 T02280144 $,KPBI,2024-03-22T03:53:00Z,26.6851,-80.0992,22.8,14.4,110,14,,10+,30.08,1018.5,,,TRUE,TRUE,,,,,,SCT,3600,,,,,,,VFR,,,,,,,,,,,,METAR,4
KPBG 220353Z AUTO 31009G17KT 10SM CLR M06/M17 A3024 RMK AO2 SLP244 T10611172,KPBG,2024-03-22T03:53:00Z,44.6392,-73.4631,-6.1,-17.2,310,9,17,10+,30.24,1024.4,,TRUE,TRUE,,,,,,,CLR,,,,,,,,VFR,,,,,,,,,,,,METAR,61
KPBF 220353Z AUTO 05003KT 10SM OVC065 17/09 A2995 RMK AO2 SLP142 T01670094,KPBF,2024-03-22T03:53:00Z,34.1798,-91.9344,16.7,9.4,50,3,,10+,29.95,1014.2,,TRUE,TRUE,,,,,,,OVC,6500,,,,,,,VFR,,,,,,,,,,,,METAR,63
KPAH 220353Z 07005KT 10SM CLR 11/M06 A3005 RMK AO2 SLP175 T01061056 $,KPAH,2024-03-22T03:53:00Z,37.0652,-88.7793,10.6,-5.6,70,5,,10+,30.05,1017.5,,,TRUE,TRUE,,,,,,CLR,,,,,,,,VFR,,,,,,,,,,,,METAR,125
KOXB 220353Z AUTO 00000KT 10SM CLR M01/M05 A3033 RMK AO2 SLP269 T10061050,KOXB,2024-03-22T03:53:00Z,38.3091,-75.1234,-0.6,-5,0,0,,10+,30.33,1026.9,,TRUE,TRUE,,,,,,,CLR,,,,,,,,VFR,,,,,,,,,,,,METAR,2
KOWD 220353Z AUTO 28016G25KT 10SM CLR M01/M14 A3019 RMK AO2 PK WND 31026/0304 SLP222 T10111139,KOWD,2024-03-22T03:53:00Z,42.1912,-71.1732,-1.1,-13.9,280,16,25,10+,30.19,1022.2,,TRUE,TRUE,,,,,,,CLR,,,,,,,,VFR,,,,,,,,,,,,METAR,14
KOTM 220353Z AUTO 13009KT 10SM SCT060 BKN075 05/M06 A3002 RMK AO2 SLP172 T00501056,KOTM,2024-03-22T03:53:00Z,41.1008,-92.4445,5,-5.6,130,9,,10+,30.02,1017.2,,TRUE,TRUE,,,,,,,SCT,6000,BKN,7500,,,,,VFR,,,,,,,,,,,,METAR,254
KOSU 220353Z AUTO 06006KT 10SM CLR 00/M09 A3027 RMK AO2 SLP258 T00001094,KOSU,2024-03-22T03:53:00Z,40.0784,-83.0782,0,-9.4,60,6,,10+,30.27,1025.8,,TRUE,TRUE,,,,,,,CLR,,,,,,,,VFR,,,,,,,,,,,,METAR,276
KOSH 220353Z AUTO 15008KT 10SM BKN060 OVC075 M01/M08 A3022 RMK AO2 SLP248 T10111078,KOSH,2024-03-22T03:53:00Z,43.9669,-88.5582,-1.1,-7.8,150,8,,10+,30.22,1024.8,,TRUE,TRUE,,,,,,,BKN,6000,OVC,7500,,,,,VFR,,,,,,,,,,,,METAR,239
KORL 220353Z 14009KT 10SM FEW055 OVC070 21/16 A3007 RMK AO2 SLP184 T02110156,KORL,2024-03-22T03:53:00Z,28.5465,-81.3354,21.1,15.6,140,9,,10+,30.07,1018.4,,,TRUE,,,,,,,FEW,5500,OVC,7000,,,,,VFR,,,,,,,,,,,,METAR,32
KOQT 220353Z AUTO VRB03KT 10SM CLR 13/M04 A3012 RMK AO2 SLP199 T01281039,KOQT,2024-03-22T03:53:00Z,36.023,-84.2336,12.8,-3.9,VRB,3,,10+,30.12,1019.9,,TRUE,TRUE,,,,,,,CLR,,,,,,,,VFR,,,,,,,,,,,,METAR,276
KOPF 220353Z AUTO 11010KT 10SM CLR 23/15 A3007 RMK AO2 SLP184 T02280150,KOPF,2024-03-22T03:53:00Z,25.9102,-80.2828,22.8,15,110,10,,10+,30.07,1018.4,,TRUE,TRUE,,,,,,,CLR,,,,,,,,VFR,,,,,,,,,,,,METAR,1
KONT 220353Z 25006KT 10SM SCT250 15/09 A3008 RMK AO2 SLP182 T01500094 $,KONT,2024-03-22T03:53:00Z,34.0531,-117.577,15,9.4,250,6,,10+,30.08,1018.2,,,TRUE,TRUE,,,,,,SCT,25000,,,,,,,VFR,,,,,,,,,,,,METAR,279
KOMK 220353Z AUTO 30007KT 10SM CLR 09/01 A3001 RMK AO2 SLP165 T00890011,KOMK,2024-03-22T03:53:00Z,48.4611,-119.521,8.9,1.1,300,7,,10+,30.01,1016.5,,TRUE,TRUE,,,,,,,CLR,,,,,,,,VFR,,,,,,,,,,,,METAR,395
KOLF 220353Z AUTO 05006KT 10SM FEW055 BKN070 OVC110 M07/M09 A3020 RMK AO2 SNE36 SLP261 P0000 T10671089 $,KOLF,2024-03-22T03:53:00Z,48.0942,-105.578,-6.7,-8.9,50,6,,10+,30.20,1026.1,,TRUE,TRUE,TRUE,,,,,,FEW,5500,BKN,7000,OVC,11000,,,VFR,,,,,,0.005,,,,,,METAR,605
KOJC 220353Z AUTO 12006KT 10SM CLR 11/M01 A2994 RMK AO2 SLP137 T01061011,KOJC,2024-03-22T03:53:00Z,38.85,-94.7395,10.6,-1.1,120,6,,10+,29.94,1013.7,,TRUE,TRUE,,,,,,,CLR,,,,,,,,VFR,,,,,,,,,,,,METAR,328
KOGD 220353Z AUTO 00000KT 10SM CLR 11/M05 A3006 RMK AO2 SLP151 T01111050,KOGD,2024-03-22T03:53:00Z,41.1941,-112.017,11.1,-5,0,0,,10+,30.06,1015.1,,TRUE,TRUE,,,,,,,CLR,,,,,,,,VFR,,,,,,,,,,,,METAR,1356
KOGB 220353Z AUTO 11003KT 10SM CLR 16/07 A3016 RMK AO2 SLP210 T01560067,KOGB,2024-03-22T03:53:00Z,33.4637,-80.8534,15.6,6.7,110,3,,10+,30.16,1021,,TRUE,TRUE,,,,,,,CLR,,,,,,,,VFR,,,,,,,,,,,,METAR,59
KODX 220353Z AUTO 13006KT 10SM CLR 08/M02 A2978 RMK AO2 SLP095 T00781022,KODX,2024-03-22T03:53:00Z,41.6234,-98.9489,7.8,-2.2,130,6,,10+,29.78,1009.5,,TRUE,TRUE,,,,,,,CLR,,,,,,,,VFR,,,,,,,,,,,,METAR,628
KODO 220353Z AUTO 00000KT 10SM CLR 15/07 A2992 RMK AO2 SLP105 T01500072,KODO,2024-03-22T03:53:00Z,31.925,-102.387,15,7.2,0,0,,10+,29.92,1010.5,,TRUE,TRUE,,,,,,,CLR,,,,,,,,VFR,,,,,,,,,,,,METAR,912
KOAK 220353Z 32006KT 10SM FEW024 BKN200 13/12 A3010 RMK AO2 SLP194 T01330117,KOAK,2024-03-22T03:53:00Z,37.7178,-122.233,13.3,11.7,320,6,,10+,30.10,1019.4,,,TRUE,,,,,,,FEW,2400,BKN,20000,,,,,VFR,,,,,,,,,,,,METAR,3
KNUW 220353Z 11005KT 10SM FEW038 SCT050 BKN100 OVC220 10/06 A3006 RMK AO2 SLP184 T01000061,KNUW,2024-03-22T03:53:00Z,48.355,-122.664,10,6.1,110,5,,10+,30.06,1018.4,,,TRUE,,,,,,,FEW,3800,SCT,5000,BKN,10000,OVC,22000,VFR,,,,,,,,,,,,METAR,14
KNUI 220353Z AUTO 00000KT 10SM CLR 01/M02 A3031 RMK AO2 SLP262 T00111022,KNUI,2024-03-22T03:53:00Z,38.152,-76.432,1.1,-2.2,0,0,,10+,30.31,1026.2,,TRUE,TRUE,,,,,,,CLR,,,,,,,,VFR,,,,,,,,,,,,METAR,4
KNSI 220353Z AUTO 31015KT 10SM CLR 12/11 A3010 RMK AO2 SLP187 T01220106 $,KNSI,2024-03-22T03:53:00Z,33.2337,-119.456,12.2,10.6,310,15,,10+,30.10,1018.7,,TRUE,TRUE,TRUE,,,,,,CLR,,,,,,,,VFR,,,,,,,,,,,,METAR,161
KNRS 220353Z 33003KT 10SM FEW018 SCT250 17/16 A3010 RMK AO2 SLP190 T01670161 $,KNRS,2024-03-22T03:53:00Z,32.563,-117.111,16.7,16.1,330,3,,10+,30.10,1019,,,TRUE,TRUE,,,,,,FEW,1800,SCT,25000,,,,,VFR,,,,,,,,,,,,METAR,15
KNQX 220353Z AUTO 12018G28KT 10SM SCT029 BKN034 BKN100 26/21 A3002 RMK AO2 PK WND 11028/0348 SLP165 T02560206 TSNO $,KNQX,2024-03-22T03:53:00Z,24.5801,-81.6829,25.6,20.6,120,18,28,10+,30.02,1016.5,,TRUE,TRUE,TRUE,,TRUE,,,,SCT,2900,BKN,3400,BKN,10000,,,VFR,,,,,,,,,,,,METAR,2
KNIP 220353Z AUTO 09006KT 10SM FEW050 19/14 A3009 RMK AO2 SLP183 T01940139,KNIP,2024-03-22T03:53:00Z,30.2346,-81.6746,19.4,13.9,90,6,,10+,30.09,1018.3,,TRUE,TRUE,,,,,,,FEW,5000,,,,,,,VFR,,,,,,,,,,,,METAR,3
KNEW 220353Z AUTO 12010G20KT 10SM BKN060 17/14 A2995 RMK AO2 SLP135 T01720144,KNEW,2024-03-22T03:53:00Z,30.0494,-90.029,17.2,14.4,120,10,20,10+,29.95,1013.5,,TRUE,TRUE,,,,,,,BKN,6000,,,,,,,VFR,,,,,,,,,,,,METAR,1
KMYV 220353Z AUTO 14007KT 10SM CLR 16/07 A3006 RMK AO2 SLP183 T01610072,KMYV,2024-03-22T03:53:00Z,39.102,-121.569,16.1,7.2,140,7,,10+,30.06,1018.3,,TRUE,TRUE,,,,,,,CLR,,,,,,,,VFR,,,,,,,,,,,,METAR,18
KMYF 220353Z AUTO 34005KT 10SM CLR 15/12 A3009 RMK AO2 SLP186 T01500117,KMYF,2024-03-22T03:53:00Z,32.8145,-117.137,15,11.7,340,5,,10+,30.09,1018.6,,TRUE,TRUE,,,,,,,CLR,,,,,,,,VFR,,,,,,,,,,,,METAR,128
KMVY 220353Z AUTO 30013G24KT 10SM CLR M01/M13 A3020 RMK AO2 PK WND 29032/0303 SLP225 T10061128,KMVY,2024-03-22T03:53:00Z,41.393,-70.6159,-0.6,-12.8,300,13,24,10+,30.20,1022.5,,TRUE,TRUE,,,,,,,CLR,,,,,,,,VFR,,,,,,,,,,,,METAR,18
KMTO 220353Z AUTO 09007KT 10SM CLR 03/M06 A3012 RMK AO2 SLP205 T00331061,KMTO,2024-03-22T03:53:00Z,39.4744,-88.2724,3.3,-6.1,90,7,,10+,30.12,1020.5,,TRUE,TRUE,,,,,,,CLR,,,,,,,,VFR,,,,,,,,,,,,METAR,216
KMTJ 220353Z AUTO 32005KT 10SM BKN100 10/M01 A3009 RMK AO2 SLP152 T01001006,KMTJ,2024-03-22T03:53:00Z,38.5054,-107.898,10,-0.6,320,5,,10+,30.09,1015.2,,TRUE,TRUE,,,,,,,BKN,10000,,,,,,,VFR,,,,,,,,,,,,METAR,1755
KMTH 220353Z AUTO 11018G26KT 10SM SCT028 24/19 A3002 RMK AO2 PK WND 10026/0311 SLP166 T02440189 $,KMTH,2024-03-22T03:53:00Z,24.7262,-81.0477,24.4,18.9,110,18,26,10+,30.02,1016.6,,TRUE,TRUE,TRUE,,,,,,SCT,2800,,,,,,,VFR,,,,,,,,,,,,METAR,1
KMSY 220353Z 14007KT 10SM BKN011 BKN048 OVC200 16/15 A2995 RMK AO2 SLP146 T01610150,KMSY,2024-03-22T03:53:00Z,29.9974,-90.2777,16.1,15,140,7,,10+,29.95,1014.6,,,TRUE,,,,,,,BKN,1100,BKN,4800,OVC,20000,,,MVFR,,,,,,,,,,,,METAR,
KMSS 220353Z AUTO 31006G18KT 10SM CLR M07/M17 A3031 RMK AO2 SLP274 T10721167,KMSS,2024-03-22T03:53:00Z,44.9334,-74.8484,-7.2,-16.7,310,6,18,10+,30.31,1027.4,,TRUE,TRUE,,,,,,,CLR,,,,,,,,VFR,,,,,,,,,,,,METAR,60
KMSO 220353Z 34005KT 10SM BKN045 OVC055 08/00 A3005 RMK AO2 SLP185 T00780000,KMSO,2024-03-22T03:53:00Z,46.9208,-114.094,7.8,0,340,5,,10+,30.05,1018.5,,,TRUE,,,,,,,BKN,4500,OVC,5500,,,,,VFR,,,,,,,,,,,,METAR,974
KMSL 220353Z AUTO 07005KT 10SM BKN120 17/07 A3001 RMK AO2 SLP157 T01720072,KMSL,2024-03-22T03:53:00Z,34.7439,-87.5997,17.2,7.2,70,5,,10+,30.01,1015.7,,TRUE,TRUE,,,,,,,BKN,12000,,,,,,,VFR,,,,,,,,,,,,METAR,170
KMRB 220353Z AUTO 36003KT 10SM CLR 01/M11 A3030 RMK AO2 SLP264 T00111111,KMRB,2024-03-22T03:53:00Z,39.4037,-77.975,1.1,-11.1,360,3,,10+,30.30,1026.4,,TRUE,TRUE,,,,,,,CLR,,,,,,,,VFR,,,,,,,,,,,,METAR,165
KMPO 220353Z AUTO 31014G20KT 10SM CLR M06/M13 A3021 RMK AO2 SLP258 T10611128,KMPO,2024-03-22T03:53:00Z,41.1368,-75.3771,-6.1,-12.8,310,14,20,10+,30.21,1025.8,,TRUE,TRUE,,,,,,,CLR,,,,,,,,VFR,,,,,,,,,,,,METAR,576
KMOD 220353Z 33006KT 10SM CLR 17/10 A3006 RMK AO2 SLP180 T01670100,KMOD,2024-03-22T03:53:00Z,37.6254,-120.955,16.7,10,330,6,,10+,30.06,1018,,,TRUE,,,,,,,CLR,,,,,,,,VFR,,,,,,,,,,,,METAR,25
KMNN 220353Z AUTO 10006KT 10SM CLR M03/M10 A3028 RMK AO2 SLP266 T10331100,KMNN,2024-03-22T03:53:00Z,40.6158,-83.0673,-3.3,-10,100,6,,10+,30.28,1026.6,,TRUE,TRUE,,,,,,,CLR,,,,,,,,VFR,,,,,,,,,,,,METAR,301
KMMV 220353Z AUTO 00000KT 10SM OVC110 12/08 A3004 RMK AO2 SLP170 T01170083,KMMV,2024-03-22T03:53:00Z,45.1957,-123.134,11.7,8.3,0,0,,10+,30.04,1017,,TRUE,TRUE,,,,,,,OVC,11000,,,,,,,VFR,,,,,,,,,,,,METAR,48
KMMK 220353Z AUTO 32008KT 10SM CLR M01/M13 A3027 RMK AO2 SLP253 T10111133,KMMK,2024-03-22T03:53:00Z,41.5097,-72.8278,-1.1,-13.3,320,8,,10+,30.27,1025.3,,TRUE,TRUE,,,,,,,CLR,,,,,,,,VFR,,,,,,,,,,,,METAR,30
KMLU 220353Z AUTO 00000KT 10SM FEW065 BKN080 16/11 A2996 RMK AO2 SLP144 T01560106,KMLU,2024-03-22T03:53:00Z,32.5155,-92.03,15.6,10.6,0,0,,10+,29.96,1014.4,,TRUE,TRUE,,,,,,,FEW,6500,BKN,8000,,,,,VFR,,,,,,,,,,,,METAR,22
KMLT 220353Z AUTO 28017G34KT 220V310 4SM -SN BKN030 OVC040 M07/M13 A2982 RMK AO2 PK WND 29034/0353 SLP108 P0000 T10671128,KMLT,2024-03-22T03:53:00Z,45.6478,-68.6925,-6.7,-12.8,280,17,34,4,29.82,1010.8,,TRUE,TRUE,,,,,,-SN,BKN,3000,OVC,4000,,,,,MVFR,,,,,,0.005,,,,,,METAR,121
KMLS 220353Z AUTO 03007KT 10SM OVC009 M03/M04 A3010 RMK AO2 SLP222 T10281039,KMLS,2024-03-22T03:53:00Z,46.4265,-105.883,-2.8,-3.9,30,7,,10+,30.10,1022.2,,TRUE,TRUE,,,,,,,OVC,900,,,,,,,IFR,,,,,,,,,,,,METAR,800
KMLP 220353Z AUTO VRB04KT 10SM BKN017 BKN024 OVC055 M01/M02 A3002 RMK AO2 SLP144 T10061022 $,KMLP,2024-03-22T03:53:00Z,47.4548,-115.671,-0.6,-2.2,VRB,4,,10+,30.02,1014.4,,TRUE,TRUE,TRUE,,,,,,BKN,1700,BKN,2400,OVC,5500,,,MVFR,,,,,,,,,,,,METAR,1837
KMLB 220353Z AUTO 13011G18KT 10SM FEW070 22/16 A3006 RMK AO2 SLP178 T02170161,KMLB,2024-03-22T03:53:00Z,28.0997,-80.6356,21.7,16.1,130,11,18,10+,30.06,1017.8,,TRUE,TRUE,,,,,,,FEW,7000,,,,,,,VFR,,,,,,,,,,,,METAR,7
KMKO 220353Z AUTO 13006KT 8SM -RA OVC080 14/12 A2995 RMK AO2 RAB0258 SLP137 P0004 T01390117,KMKO,2024-03-22T03:53:00Z,35.6576,-95.3658,13.9,11.7,130,6,,8,29.95,1013.7,,TRUE,TRUE,,,,,,-RA,OVC,8000,,,,,,,VFR,,,,,,0.04,,,,,,METAR,184
KMKL 220353Z AUTO 08006KT 10SM CLR 17/03 A3001 RMK AO2 SLP160 T01670028,KMKL,2024-03-22T03:53:00Z,35.5933,-88.917,16.7,2.8,80,6,,10+,30.01,1016,,TRUE,TRUE,,,,,,,CLR,,,,,,,,VFR,,,,,,,,,,,,METAR,130
KMIW 220353Z AUTO 10011KT 10SM OVC055 03/M09 A3004 RMK AO2 SLP181 T00331089,KMIW,2024-03-22T03:53:00Z,42.1106,-92.9163,3.3,-8.9,100,11,,10+,30.04,1018.1,,TRUE,TRUE,,,,,,,OVC,5500,,,,,,,VFR,,,,,,,,,,,,METAR,296
KMIE 220353Z AUTO 10007KT 10SM CLR M03/M09 A3021 RMK AO2 SLP237 T10281089,KMIE,2024-03-22T03:53:00Z,40.2345,-85.3936,-2.8,-8.9,100,7,,10+,30.21,1023.7,,TRUE,TRUE,,,,,,,CLR,,,,,,,,VFR,,,,,,,,,,,,METAR,286
KMIC 220353Z AUTO 08003KT 1 1/2SM -SN BR OVC018 M03/M05 A3019 RMK AO2 SLP238 P0000 T10281050,KMIC,2024-03-22T03:53:00Z,45.0623,-93.3511,-2.8,-5,80,3,,1.5,30.19,1023.8,,TRUE,TRUE,,,,,,-SN BR,OVC,1800,,,,,,,IFR,,,,,,0.005,,,,,,METAR,263
KMIA 220353Z 11014KT 10SM FEW040 SCT250 23/15 A3007 RMK AO2 SLP181 T02280150,KMIA,2024-03-22T03:53:00Z,25.7881,-80.3169,22.8,15,110,14,,10+,30.07,1018.1,,,TRUE,,,,,,,FEW,4000,SCT,25000,,,,,VFR,,,,,,,,,,,,METAR,1
KMHT 220353Z 31019G28KT 10SM CLR M02/M16 A3013 RMK AO2 PK WND 30038/0254 SLP223 T10221161,KMHT,2024-03-22T03:53:00Z,42.9245,-71.4377,-2.2,-16.1,310,19,28,10+,30.13,1022.3,,,TRUE,,,,,,,CLR,,,,,,,,VFR,,,,,,,,,,,,METAR,68
KMHE 220353Z AUTO 08015KT 10SM SCT046 OVC085 01/M11 A3005 RMK AO2 PK WND 09026/0312 SLP192 T00061106,KMHE,2024-03-22T03:53:00Z,43.7743,-98.0384,0.6,-10.6,80,15,,10+,30.05,1019.2,,TRUE,TRUE,,,,,,,SCT,4600,OVC,8500,,,,,VFR,,,,,,,,,,,,METAR,397
KMGY 220353Z AUTO 07007KT 10SM CLR 01/M12 A3020 RMK AO2 SLP236 T00111117,KMGY,2024-03-22T03:53:00Z,39.5918,-84.2263,1.1,-11.7,70,7,,10+,30.20,1023.6,,TRUE,TRUE,,,,,,,CLR,,,,,,,,VFR,,,,,,,,,,,,METAR,290
KMGW 220353Z AUTO 00000KT 10SM CLR 01/M11 A3028 RMK AO2 SLP266 T00061111 $,KMGW,2024-03-22T03:53:00Z,39.6498,-79.9206,0.6,-11.1,0,0,,10+,30.28,1026.6,,TRUE,TRUE,TRUE,,,,,,CLR,,,,,,,,VFR,,,,,,,,,,,,METAR,375
KMGM 220353Z AUTO 15003KT 10SM SCT110 15/10 A3003 RMK AO2 SLP166 T01500100,KMGM,2024-03-22T03:53:00Z,32.2997,-86.4074,15,10,150,3,,10+,30.03,1016.6,,TRUE,TRUE,,,,,,,SCT,11000,,,,,,,VFR,,,,,,,,,,,,METAR,64
KMFR 220353Z 00000KT 10SM CLR 14/06 A2998 RMK AO2 SLP151 T01440056,KMFR,2024-03-22T03:53:00Z,42.375,-122.877,14.4,5.6,0,0,,10+,29.98,1015.1,,,TRUE,,,,,,,CLR,,,,,,,,VFR,,,,,,,,,,,,METAR,397
KMFE 220353Z 00000KT 10SM CLR 21/19 A2987 RMK AO2 SLP111 T02060189,KMFE,2024-03-22T03:53:00Z,26.1791,-98.2445,20.6,18.9,0,0,,10+,29.87,1011.1,,,TRUE,,,,,,,CLR,,,,,,,,VFR,,,,,,,,,,,,METAR,29
KMDW 220353Z 12009KT 10SM FEW100 SCT120 BKN150 03/M08 A3020 RMK AO2 SLP237 T00281083,KMDW,2024-03-22T03:53:00Z,41.7841,-87.7551,2.8,-8.3,120,9,,10+,30.20,1023.7,,,TRUE,,,,,,,FEW,10000,SCT,12000,BKN,15000,,,VFR,,,,,,,,,,,,METAR,186
KMCW 220353Z AUTO 06011KT 10SM OVC060 M02/M04 A3010 RMK AO2 SLP204 T10221039,KMCW,2024-03-22T03:53:00Z,43.1543,-93.3262,-2.2,-3.9,60,11,,10+,30.10,1020.4,,TRUE,TRUE,,,,,,,OVC,6000,,,,,,,VFR,,,,,,,,,,,,METAR,363
KMCO 220353Z 12008KT 10SM SCT048 BKN060 OVC300 22/16 A3007 RMK AO2 SLP180 T02170156,KMCO,2024-03-22T03:53:00Z,28.4182,-81.3241,21.7,15.6,120,8,,10+,30.07,1018,,,TRUE,,,,,,,SCT,4800,BKN,6000,OVC,30000,,,VFR,,,,,,,,,,,,METAR,27
KMCN 220353Z AUTO 13007KT 10SM CLR 16/08 A3007 RMK AO2 SLP180 T01560083,KMCN,2024-03-22T03:53:00Z,32.6889,-83.6529,15.6,8.3,130,7,,10+,30.07,1018,,TRUE,TRUE,,,,,,,CLR,,,,,,,,VFR,,,,,,,,,,,,METAR,104
KMCK 220353Z AUTO 22007KT 10SM FEW120 14/04 A2980 RMK AO2 SLP092 T01390044 $,KMCK,2024-03-22T03:53:00Z,40.204,-100.59,13.9,4.4,220,7,,10+,29.80,1009.2,,TRUE,TRUE,TRUE,,,,,,FEW,12000,,,,,,,VFR,,,,,,,,,,,,METAR,780
KMCI 220353Z 13011KT 10SM CLR 10/M02 A2993 RMK AO2 SLP137 T01001017,KMCI,2024-03-22T03:53:00Z,39.2975,-94.7309,10,-1.7,130,11,,10+,29.93,1013.7,,,TRUE,,,,,,,CLR,,,,,,,,VFR,,,,,,,,,,,,METAR,308
KMCE 220353Z AUTO 35003KT 10SM CLR 18/11 A3006 RMK AO2 SLP178 T01780106,KMCE,2024-03-22T03:53:00Z,37.286,-120.518,17.8,10.6,350,3,,10+,30.06,1017.8,,TRUE,TRUE,,,,,,,CLR,,,,,,,,VFR,,,,,,,,,,,,METAR,49
KMBS 220353Z AUTO 17006KT 10SM CLR M03/M11 A3029 RMK AO2 SLP265 T10281111,KMBS,2024-03-22T03:53:00Z,43.5281,-84.0813,-2.8,-11.1,170,6,,10+,30.29,1026.5,,TRUE,TRUE,,,,,,,CLR,,,,,,,,VFR,,,,,,,,,,,,METAR,201
KMAI 220353Z AUTO 00000KT 10SM OVC090 17/11 A3005 RMK AO2 SLP174 T01670111,KMAI,2024-03-22T03:53:00Z,30.837,-85.1835,16.7,11.1,0,0,,10+,30.05,1017.4,,TRUE,TRUE,,,,,,,OVC,9000,,,,,,,VFR,,,,,,,,,,,,METAR,33
KMAF 220353Z 23005KT 10SM CLR 14/06 A2991 RMK AO2 SLP101 T01440061 $,KMAF,2024-03-22T03:53:00Z,31.9475,-102.209,14.4,6.1,230,5,,10+,29.91,1010.1,,,TRUE,TRUE,,,,,,CLR,,,,,,,,VFR,,,,,,,,,,,,METAR,874
KMAE 220353Z AUTO 00000KT 10SM CLR 15/09 A3008 RMK AO2 SLP183 T01500094,KMAE,2024-03-22T03:53:00Z,36.9851,-120.111,15,9.4,0,0,,10+,30.08,1018.3,,TRUE,TRUE,,,,,,,CLR,,,,,,,,VFR,,,,,,,,,,,,METAR,77
KLXT 220353Z AUTO 11006KT 10SM CLR 11/M02 A2995 RMK AO2 SLP142 T01111022,KLXT,2024-03-22T03:53:00Z,38.9577,-94.3712,11.1,-2.2,110,6,,10+,29.95,1014.2,,TRUE,TRUE,,,,,,,CLR,,,,,,,,VFR,,,,,,,,,,,,METAR,306
KLWV 220353Z AUTO 06007KT 10SM CLR 05/M06 A3014 RMK AO2 SLP209 T00501061,KLWV,2024-03-22T03:53:00Z,38.7604,-87.599,5,-6.1,60,7,,10+,30.14,1020.9,,TRUE,TRUE,,,,,,,CLR,,,,,,,,VFR,,,,,,,,,,,,METAR,128
KLWD 220353Z AUTO 12008KT 10SM CLR 07/M07 A2997 RMK AO2 SLP156 T00671072,KLWD,2024-03-22T03:53:00Z,40.6306,-93.9005,6.7,-7.2,120,8,,10+,29.97,1015.6,,TRUE,TRUE,,,,,,,CLR,,,,,,,,VFR,,,,,,,,,,,,METAR,345
KLVS 220353Z AUTO 30008KT 10SM CLR 06/M06 A3002 RMK AO2 SLP113 T00611061 $,KLVS,2024-03-22T03:53:00Z,35.6558,-105.139,6.1,-6.1,300,8,,10+,30.02,1011.3,,TRUE,TRUE,TRUE,,,,,,CLR,,,,,,,,VFR,,,,,,,,,,,,METAR,2095
KLVM 220353Z AUTO 00000KT 10SM SCT049 BKN065 OVC080 06/M01 A3000 RMK AO2 SLP176 T00611011 $,KLVM,2024-03-22T03:53:00Z,45.6984,-110.442,6.1,-1.1,0,0,,10+,30.00,1017.6,,TRUE,TRUE,TRUE,,,,,,SCT,4900,BKN,6500,OVC,8000,,,VFR,,,,,,,,,,,,METAR,1418
KLVK 220353Z 28006KT 10SM CLR 13/08 A3008 RMK AO2 SLP183 T01330083,KLVK,2024-03-22T03:53:00Z,37.6931,-121.815,13.3,8.3,280,6,,10+,30.08,1018.3,,,TRUE,,,,,,,CLR,,,,,,,,VFR,,,,,,,,,,,,METAR,120
KLUK 220353Z AUTO 05006KT 10SM CLR 02/M08 A3024 RMK AO2 SLP242 T00171083,KLUK,2024-03-22T03:53:00Z,39.106,-84.4161,1.7,-8.3,50,6,,10+,30.24,1024.2,,TRUE,TRUE,,,,,,,CLR,,,,,,,,VFR,,,,,,,,,,,,METAR,144
KLPR 220353Z AUTO 11004KT 10SM CLR M03/M10 A3032 RMK AO2 SLP278 T10331100 TSNO,KLPR,2024-03-22T03:53:00Z,41.3463,-82.1788,-3.3,-10,110,4,,10+,30.32,1027.8,,TRUE,TRUE,,,TRUE,,,,CLR,,,,,,,,VFR,,,,,,,,,,,,METAR,241
KLOZ 220353Z AUTO 04004KT 10SM CLR 08/M07 A3014 RMK AO2 SLP210 T00831072 $,KLOZ,2024-03-22T03:53:00Z,37.0896,-84.0688,8.3,-7.2,40,4,,10+,30.14,1021,,TRUE,TRUE,TRUE,,,,,,CLR,,,,,,,,VFR,,,,,,,,,,,,METAR,361
KLOU 220353Z 07008KT 3SM HZ CLR 06/M07 A3017 RMK AO2 SLP217 T00561067,KLOU,2024-03-22T03:53:00Z,38.2302,-85.6629,5.6,-6.7,70,8,,3,30.17,1021.7,,,TRUE,,,,,,HZ,CLR,,,,,,,,MVFR,,,,,,,,,,,,METAR,165
KLOL 220353Z AUTO 32005KT 10SM CLR 11/M05 A3004 RMK AO2 SLP168 T01061050,KLOL,2024-03-22T03:53:00Z,40.0685,-118.57,10.6,-5,320,5,,10+,30.04,1016.8,,TRUE,TRUE,,,,,,,CLR,,,,,,,,VFR,,,,,,,,,,,,METAR,1191
KLNS 220353Z AUTO 35006KT 10SM CLR 01/M10 A3031 RMK AO2 SLP267 T00061100,KLNS,2024-03-22T03:53:00Z,40.1206,-76.2944,0.6,-10,350,6,,10+,30.31,1026.7,,TRUE,TRUE,,,,,,,CLR,,,,,,,,VFR,,,,,,,,,,,,METAR,122
KLND 220353Z AUTO 13003KT 10SM CLR 06/M04 A2998 RMK AO2 SLP134 T00561044 $,KLND,2024-03-22T03:53:00Z,42.8154,-108.726,5.6,-4.4,130,3,,10+,29.98,1013.4,,TRUE,TRUE,TRUE,,,,,,CLR,,,,,,,,VFR,,,,,,,,,,,,METAR,1700
KLMT 220353Z AUTO 14007KT 10SM CLR 08/M02 A3005 RMK AO2 SLP169 T00831017,KLMT,2024-03-22T03:53:00Z,42.147,-121.726,8.3,-1.7,140,7,,10+,30.05,1016.9,,TRUE,TRUE,,,,,,,CLR,,,,,,,,VFR,,,,,,,,,,,,METAR,1246
KLLQ 220353Z AUTO 00000KT 10SM OVC065 16/11 A2995 RMK AO2 SLP139 T01610106,KLLQ,2024-03-22T03:53:00Z,33.636,-91.7555,16.1,10.6,0,0,,10+,29.95,1013.9,,TRUE,TRUE,,,,,,,OVC,6500,,,,,,,VFR,,,,,,,,,,,,METAR,86
KLKV 220353Z AUTO 20008KT 10SM CLR 07/00 A3009 RMK AO2 SLP195 T00670000,KLKV,2024-03-22T03:53:00Z,42.1538,-120.403,6.7,0,200,8,,10+,30.09,1019.5,,TRUE,TRUE,,,,,,,CLR,,,,,,,,VFR,,,,,,,,,,,,METAR,1440
KLIT 220353Z 09004KT 10SM OVC065 16/08 A2997 RMK AO2 SLP149 T01560083,KLIT,2024-03-22T03:53:00Z,34.7273,-92.2358,15.6,8.3,90,4,,10+,29.97,1014.9,,,TRUE,,,,,,,OVC,6500,,,,,,,VFR,,,,,,,,,,,,METAR,77
KLHX 220353Z AUTO 21007KT 10SM CLR 12/M05 A2986 RMK AO2 SLP088 T01171050,KLHX,2024-03-22T03:53:00Z,38.0495,-103.513,11.7,-5,210,7,,10+,29.86,1008.8,,TRUE,TRUE,,,,,,,CLR,,,,,,,,VFR,,,,,,,,,,,,METAR,1289
KLHQ 220353Z AUTO 07007KT 10SM CLR M01/M08 A3026 RMK AO2 SLP254 T10061083 $,KLHQ,2024-03-22T03:53:00Z,39.7573,-82.6633,-0.6,-8.3,70,7,,10+,30.26,1025.4,,TRUE,TRUE,TRUE,,,,,,CLR,,,,,,,,VFR,,,,,,,,,,,,METAR,259
KLGB 220353Z 30005KT 10SM CLR 16/12 A3008 RMK AO2 SLP186 T01610117,KLGB,2024-03-22T03:53:00Z,33.8118,-118.147,16.1,11.7,300,5,,10+,30.08,1018.6,,,TRUE,,,,,,,CLR,,,,,,,,VFR,,,,,,,,,,,,METAR,10
KLEE 220353Z AUTO 12006KT 10SM SCT047 OVC060 21/16 A3007 RMK AO2 SLP181 T02110161,KLEE,2024-03-22T03:53:00Z,28.8214,-81.8006,21.1,16.1,120,6,,10+,30.07,1018.1,,TRUE,TRUE,,,,,,,SCT,4700,OVC,6000,,,,,VFR,,,,,,,,,,,,METAR,21
KLEB 220353Z AUTO 00000KT 10SM OVC060 M04/M16 A3015 RMK AO2 SLP220 T10391156,KLEB,2024-03-22T03:53:00Z,43.6271,-72.3054,-3.9,-15.6,0,0,,10+,30.15,1022,,TRUE,TRUE,,,,,,,OVC,6000,,,,,,,VFR,,,,,,,,,,,,METAR,169
KLCH 220353Z AUTO 09009KT 10SM OVC019 15/14 A2990 RMK AO2 SLP132 T01500139,KLCH,2024-03-22T03:53:00Z,30.1255,-93.2277,15,13.9,90,9,,10+,29.90,1013.2,,TRUE,TRUE,,,,,,,OVC,1900,,,,,,,MVFR,,,,,,,,,,,,METAR,2
KLBX 220353Z AUTO 15011G18KT 10SM OVC013 20/19 A2984 RMK AO2 SLP103 T02000189,KLBX,2024-03-22T03:53:00Z,29.1154,-95.4632,20,18.9,150,11,18,10+,29.84,1010.3,,TRUE,TRUE,,,,,,,OVC,1300,,,,,,,MVFR,,,,,,,,,,,,METAR,4
KLBF 220353Z AUTO 19015G25KT 10SM CLR 13/04 A2973 RMK AO2 PK WND 17030/0333 SLP066 T01330044,KLBF,2024-03-22T03:53:00Z,41.122,-100.669,13.3,4.4,190,15,25,10+,29.73,1006.6,,TRUE,TRUE,,,,,,,CLR,,,,,,,,VFR,,,,,,,,,,,,METAR,843
KLBB 220353Z 11007KT 10SM FEW250 11/09 A2992 RMK AO2 SLP108 T01110089,KLBB,2024-03-22T03:53:00Z,33.6658,-101.823,11.1,8.9,110,7,,10+,29.92,1010.8,,,TRUE,,,,,,,FEW,25000,,,,,,,VFR,,,,,,,,,,,,METAR,996
KLAX 220353Z 27006KT 10SM SCT010 14/12 A3009 RMK AO2 SLP187 T01390122 $,KLAX,2024-03-22T03:53:00Z,33.9382,-118.387,13.9,12.2,270,6,,10+,30.09,1018.7,,,TRUE,TRUE,,,,,,SCT,1000,,,,,,,VFR,,,,,,,,,,,,METAR,30
KLAW 220353Z AUTO 35005KT 10SM BKN009 BKN090 13/12 A2987 RMK AO2 SLP112 T01280122,KLAW,2024-03-22T03:53:00Z,34.5577,-98.4172,12.8,12.2,350,5,,10+,29.87,1011.2,,TRUE,TRUE,,,,,,,BKN,900,BKN,9000,,,,,IFR,,,,,,,,,,,,METAR,328
KLAR 220353Z AUTO 30014KT 10SM CLR 06/M04 A3000 RMK AO2 SLP100 T00611044,KLAR,2024-03-22T03:53:00Z,41.3165,-105.673,6.1,-4.4,300,14,,10+,30.00,1010,,TRUE,TRUE,,,,,,,CLR,,,,,,,,VFR,,,,,,,,,,,,METAR,2217
KLAN 220353Z 10003KT 10SM CLR M03/M11 A3028 RMK AO2 SLP266 T10331106,KLAN,2024-03-22T03:53:00Z,42.7761,-84.5997,-3.3,-10.6,100,3,,10+,30.28,1026.6,,,TRUE,,,,,,,CLR,,,,,,,,VFR,,,,,,,,,,,,METAR,261
KLAA 220353Z AUTO 18013KT 10SM CLR 12/M02 A2985 RMK AO2 SLP089 T01171017,KLAA,2024-03-22T03:53:00Z,38.0718,-102.687,11.7,-1.7,180,13,,10+,29.85,1008.9,,TRUE,TRUE,,,,,,,CLR,,,,,,,,VFR,,,,,,,,,,,,METAR,1129
KJLN 220353Z AUTO 14008KT 10SM FEW120 15/04 A2995 RMK AO2 SLP138 T01500044,KJLN,2024-03-22T03:53:00Z,37.1522,-94.4952,15,4.4,140,8,,10+,29.95,1013.8,,TRUE,TRUE,,,,,,,FEW,12000,,,,,,,VFR,,,,,,,,,,,,METAR,297
KJKL 220353Z AUTO 07004KT 10SM CLR 07/M09 A3017 RMK AO2 SLP219 T00721094,KJKL,2024-03-22T03:53:00Z,37.5913,-83.3137,7.2,-9.4,70,4,,10+,30.17,1021.9,,TRUE,TRUE,,,,,,,CLR,,,,,,,,VFR,,,,,,,,,,,,METAR,414
KJER 220353Z AUTO 22004KT 10SM CLR 09/M01 A3008 RMK AO2 SLP178 T00891006,KJER,2024-03-22T03:53:00Z,42.7274,-114.455,8.9,-0.6,220,4,,10+,30.08,1017.8,,TRUE,TRUE,,,,,,,CLR,,,,,,,,VFR,,,,,,,,,,,,METAR,1226
KJEF 220353Z AUTO 11006KT 10SM FEW090 09/M03 A3002 RMK AO2 SLP158 T00891028,KJEF,2024-03-22T03:53:00Z,38.5945,-92.1567,8.9,-2.8,110,6,,10+,30.02,1015.8,,TRUE,TRUE,,,,,,,FEW,9000,,,,,,,VFR,,,,,,,,,,,,METAR,167
KJBR 220353Z AUTO 05009KT 10SM BKN095 15/03 A3000 RMK AO2 SLP159 T01500033 $,KJBR,2024-03-22T03:53:00Z,35.8357,-90.6442,15,3.3,50,9,,10+,30.00,1015.9,,TRUE,TRUE,TRUE,,,,,,BKN,9500,,,,,,,VFR,,,,,,,,,,,,METAR,79
KIXD 220353Z AUTO 11007KT 10SM CLR 11/M02 A2993 RMK AO2 SLP136 T01111017 $,KIXD,2024-03-22T03:53:00Z,38.8221,-94.8902,11.1,-1.7,110,7,,10+,29.93,1013.6,,TRUE,TRUE,TRUE,,,,,,CLR,,,,,,,,VFR,,,,,,,,,,,,METAR,322
KIWI 220353Z AUTO 26008G17KT 230V310 10SM CLR M04/M14 A3002 RMK AO2 SLP166 T10441139,KIWI,2024-03-22T03:53:00Z,43.9639,-69.7114,-4.4,-13.9,260,8,17,10+,30.02,1016.6,,TRUE,TRUE,,,,,,,CLR,,,,,,,,VFR,,,,,,,,,,,,METAR,16
KITR 220353Z AUTO 27009KT 10SM CLR 09/M05 A2988 RMK AO2 SLP098 T00891050,KITR,2024-03-22T03:53:00Z,39.2415,-102.282,8.9,-5,270,9,,10+,29.88,1009.8,,TRUE,TRUE,,,,,,,CLR,,,,,,,,VFR,,,,,,,,,,,,METAR,1285
KIPL 220353Z AUTO 25003KT CLR 23/07 A2997 RMK AO2 SLP147 T02280067 PWINO $,KIPL,2024-03-22T03:53:00Z,32.8346,-115.577,22.8,6.7,250,3,,,29.97,1014.7,,TRUE,TRUE,TRUE,,,,TRUE,,CLR,,,,,,,,VFR,,,,,,,,,,,,METAR,-16
KINK 220353Z AUTO 32003KT 10SM CLR 17/01 A2990 RMK AO2 SLP095 T01720006 $,KINK,2024-03-22T03:53:00Z,31.7801,-103.202,17.2,0.6,320,3,,10+,29.90,1009.5,,TRUE,TRUE,TRUE,,,,,,CLR,,,,,,,,VFR,,,,,,,,,,,,METAR,857
KILM 220353Z AUTO 08004KT 10SM CLR 12/10 A3023 RMK AO2 SLP235 T01220100,KILM,2024-03-22T03:53:00Z,34.2668,-77.8999,12.2,10,80,4,,10+,30.23,1023.5,,TRUE,TRUE,,,,,,,CLR,,,,,,,,VFR,,,,,,,,,,,,METAR,9
KIDA 220353Z AUTO 20010KT 10SM CLR 08/M02 A3004 RMK AO2 SLP166 T00781017,KIDA,2024-03-22T03:53:00Z,43.5204,-112.068,7.8,-1.7,200,10,,10+,30.04,1016.6,,TRUE,TRUE,,,,,,,CLR,,,,,,,,VFR,,,,,,,,,,,,METAR,1444
KICT 220353Z 16006KT 10SM CLR 10/08 A2991 RMK AO2 SLP127 T01000083,KICT,2024-03-22T03:53:00Z,37.6475,-97.43,10,8.3,160,6,,10+,29.91,1012.7,,,TRUE,,,,,,,CLR,,,,,,,,VFR,,,,,,,,,,,,METAR,428
KICR 220353Z AUTO 04013KT 10SM BKN050 OVC080 03/M09 A2998 RMK AO2 SLP169 T00281089 $,KICR,2024-03-22T03:53:00Z,43.391,-99.8462,2.8,-8.9,40,13,,10+,29.98,1016.9,,TRUE,TRUE,TRUE,,,,,,BKN,5000,OVC,8000,,,,,VFR,,,,,,,,,,,,METAR,618
KIAH 220353Z 05006KT 3SM -RA BR SCT008 OVC023 18/17 A2988 RMK AO2 TSE15 SLP116 P0002 T01780167,KIAH,2024-03-22T03:53:00Z,29.9844,-95.3607,17.8,16.7,50,6,,3,29.88,1011.6,,,TRUE,,,,,,-RA BR,SCT,800,OVC,2300,,,,,MVFR,,,,,,0.02,,,,,,METAR,27
KIAG 220353Z AUTO 29004KT 10SM CLR M06/M13 A3036 RMK AO2 SLP300 T10561133 $,KIAG,2024-03-22T03:53:00Z,43.1083,-78.9382,-5.6,-13.3,290,4,,10+,30.36,1030,,TRUE,TRUE,TRUE,,,,,,CLR,,,,,,,,VFR,,,,,,,,,,,,METAR,179
KHZY 220353Z AUTO 00000KT 10SM CLR M05/M09 A3034 RMK AO2 SLP285 T10501089,KHZY,2024-03-22T03:53:00Z,41.7794,-80.6968,-5,-8.9,0,0,,10+,30.34,1028.5,,TRUE,TRUE,,,,,,,CLR,,,,,,,,VFR,,,,,,,,,,,,METAR,279
KHYR 220353Z AUTO 03004KT 10SM OVC044 M03/M14 RMK AO2 SLPNO T10331139,KHYR,2024-03-22T03:53:00Z,46.0303,-91.4426,-3.3,-13.9,30,4,,10+,0.00,,,TRUE,TRUE,,,,,,,OVC,4400,,,,,,,VFR,,,,,,,,,,,,METAR,369
KHWO 220353Z AUTO 11011G19KT CLR 23/16 A3008 RMK AO2 SLP186 T02280156 $,KHWO,2024-03-22T03:53:00Z,25.9996,-80.2412,22.8,15.6,110,11,19,,30.08,1018.6,,TRUE,TRUE,TRUE,,,,,,CLR,,,,,,,,VFR,,,,,,,,,,,,METAR,2
KHVN 220353Z AUTO 32009G17KT 10SM CLR 01/M11 A3027 RMK AO2 SLP251 T00061111,KHVN,2024-03-22T03:53:00Z,41.259,-72.8891,0.6,-11.1,320,9,17,10+,30.27,1025.1,,TRUE,TRUE,,,,,,,CLR,,,,,,,,VFR,,,,,,,,,,,,METAR,4
KHUL 220353Z AUTO 27018G31KT 10SM OVC049 M07/M13 A2969 RMK AO2 PK WND 25034/0311 SLP063 T10721133,KHUL,2024-03-22T03:53:00Z,46.1185,-67.7929,-7.2,-13.3,270,18,31,10+,29.69,1006.3,,TRUE,TRUE,,,,,,,OVC,4900,,,,,,,VFR,,,,,,,,,,,,METAR,148
KHUF 220353Z 08007KT 10SM CLR 03/M07 A3015 RMK AO2 SLP214 T00331067,KHUF,2024-03-22T03:53:00Z,39.4429,-87.3221,3.3,-6.7,80,7,,10+,30.15,1021.4,,,TRUE,,,,,,,CLR,,,,,,,,VFR,,,,,,,,,,,,METAR,174
KHTL 220353Z AUTO 04005KT 10SM CLR M07/M13 A3027 RMK AO2 SLP269 T10671133,KHTL,2024-03-22T03:53:00Z,44.359,-84.6739,-6.7,-13.3,40,5,,10+,30.27,1026.9,,TRUE,TRUE,,,,,,,CLR,,,,,,,,VFR,,,,,,,,,,,,METAR,350
KHSV 220353Z 08003KT 10SM BKN110 OVC150 17/07 A3002 RMK AO2 SLP160 T01670072 $,KHSV,2024-03-22T03:53:00Z,34.6441,-86.7861,16.7,7.2,80,3,,10+,30.02,1016,,,TRUE,TRUE,,,,,,BKN,11000,OVC,15000,,,,,VFR,,,,,,,,,,,,METAR,190
KHSI 220353Z AUTO 16009KT 10SM CLR 09/01 A2982 RMK AO2 SLP102 T00940011,KHSI,2024-03-22T03:53:00Z,40.6002,-98.4264,9.4,1.1,160,9,,10+,29.82,1010.2,,TRUE,TRUE,,,,,,,CLR,,,,,,,,VFR,,,,,,,,,,,,METAR,592
KHRO 220353Z AUTO 13009KT 10SM OVC044 13/04 A2999 RMK AO2 SLP153 T01280044 $,KHRO,2024-03-22T03:53:00Z,36.2673,-93.1566,12.8,4.4,130,9,,10+,29.99,1015.3,,TRUE,TRUE,TRUE,,,,,,OVC,4400,,,,,,,VFR,,,,,,,,,,,,METAR,417
KHRI 220353Z AUTO 19007KT 10SM CLR 11/06 A3003 RMK AO2 SLP169 T01110056,KHRI,2024-03-22T03:53:00Z,45.8259,-119.261,11.1,5.6,190,7,,10+,30.03,1016.9,,TRUE,TRUE,,,,,,,CLR,,,,,,,,VFR,,,,,,,,,,,,METAR,194
KHQM 220353Z AUTO 10004KT 10SM OVC029 11/10 A3004 RMK AO2 RAB37E50 SLP176 P0000 T01060100,KHQM,2024-03-22T03:53:00Z,46.9729,-123.931,10.6,10,100,4,,10+,30.04,1017.6,,TRUE,TRUE,,,,,,,OVC,2900,,,,,,,MVFR,,,,,,0.005,,,,,,METAR,4
KHOT 220353Z AUTO 09004KT 10SM BKN050 OVC060 15/08 A2996 RMK AO2 SLP143 T01500083,KHOT,2024-03-22T03:53:00Z,34.4755,-93.1041,15,8.3,90,4,,10+,29.96,1014.3,,TRUE,TRUE,,,,,,,BKN,5000,OVC,6000,,,,,VFR,,,,,,,,,,,,METAR,153
KHLN 220353Z AUTO 35010KT 10SM OVC022 01/M04 A3008 RMK AO2 SLP230 T00061039,KHLN,2024-03-22T03:53:00Z,46.6045,-111.989,0.6,-3.9,350,10,,10+,30.08,1023,,TRUE,TRUE,,,,,,,OVC,2200,,,,,,,MVFR,,,,,,,,,,,,METAR,1178
KHLG 220353Z AUTO 06006KT 10SM CLR M01/M12 A3028 RMK AO2 SLP270 T10061122,KHLG,2024-03-22T03:53:00Z,40.1699,-80.6441,-0.6,-12.2,60,6,,10+,30.28,1027,,TRUE,TRUE,,,,,,,CLR,,,,,,,,VFR,,,,,,,,,,,,METAR,365
KHLC 220353Z AUTO A2984 RMK AO2 SLPNO PWINO FZRANO TSNO $,KHLC,2024-03-22T03:53:00Z,39.3741,-99.8299,,,,,,,29.84,,,TRUE,TRUE,TRUE,,TRUE,TRUE,TRUE,,,,,,,,,,VFR,,,,,,,,,,,,METAR,667
KHKY 220353Z AUTO 03003KT 10SM CLR 12/01 A3016 RMK AO2 SLP197 T01220006 $,KHKY,2024-03-22T03:53:00Z,35.742,-81.3822,12.2,0.6,30,3,,10+,30.16,1019.7,,TRUE,TRUE,TRUE,,,,,,CLR,,,,,,,,VFR,,,,,,,,,,,,METAR,357
KHKS 220353Z AUTO 14004KT 10SM BKN080 17/07 A2996 RMK AO2 SLP138 T01670072,KHKS,2024-03-22T03:53:00Z,32.3376,-90.2214,16.7,7.2,140,4,,10+,29.96,1013.8,,TRUE,TRUE,,,,,,,BKN,8000,,,,,,,VFR,,,,,,,,,,,,METAR,103
KHKA 220353Z AUTO 08007KT 10SM BKN100 16/00 A3000 RMK AO2 SLP157 T01560000 $,KHKA,2024-03-22T03:53:00Z,35.9378,-89.8332,15.6,0,80,7,,10+,30.00,1015.7,,TRUE,TRUE,TRUE,,,,,,BKN,10000,,,,,,,VFR,,,,,,,,,,,,METAR,78
KHJO 220353Z AUTO 00000KT 10SM CLR 14/08 A3008 RMK AO2 SLP186 T01440083,KHJO,2024-03-22T03:53:00Z,36.3114,-119.623,14.4,8.3,0,0,,10+,30.08,1018.6,,TRUE,TRUE,,,,,,,CLR,,,,,,,,VFR,,,,,,,,,,,,METAR,73
KHIO 220353Z 31004KT 10SM OVC110 10/10 A3004 RMK AO2 SLP174 T01000100,KHIO,2024-03-22T03:53:00Z,45.5476,-122.956,10,10,310,4,,10+,30.04,1017.4,,,TRUE,,,,,,,OVC,11000,,,,,,,VFR,,,,,,,,,,,,METAR,62
KHIB 220353Z AUTO 05004KT 10SM OVC110 M06/M23 A3018 RMK AO2 SLP248 T10561228,KHIB,2024-03-22T03:53:00Z,47.3804,-92.8325,-5.6,-22.8,50,4,,10+,30.18,1024.8,,TRUE,TRUE,,,,,,,OVC,11000,,,,,,,VFR,,,,,,,,,,,,METAR,409
KHHR 220353Z 27003KT 10SM OVC012 16/12 A3009 RMK AO2 SLP188 T01560122,KHHR,2024-03-22T03:53:00Z,33.9235,-118.333,15.6,12.2,270,3,,10+,30.09,1018.8,,,TRUE,,,,,,,OVC,1200,,,,,,,MVFR,,,,,,,,,,,,METAR,21
KHGR 220353Z AUTO 15005KT 10SM CLR 02/M12 A3029 RMK AO2 SLP274 T00221117 $,KHGR,2024-03-22T03:53:00Z,39.7062,-77.7304,2.2,-11.7,150,5,,10+,30.29,1027.4,,TRUE,TRUE,TRUE,,,,,,CLR,,,,,,,,VFR,,,,,,,,,,,,METAR,206
KHFD 220353Z AUTO 31011G16KT 10SM CLR M01/M13 A3026 RMK AO2 SLP248 T10111128,KHFD,2024-03-22T03:53:00Z,41.7352,-72.6512,-1.1,-12.8,310,11,16,10+,30.26,1024.8,,TRUE,TRUE,,,,,,,CLR,,,,,,,,VFR,,,,,,,,,,,,METAR,3
KHEI 220353Z AUTO 08006KT 10SM OVC044 M07/M09 A3009 RMK AO2 SLP231 T10671089,KHEI,2024-03-22T03:53:00Z,46.0108,-102.652,-6.7,-8.9,80,6,,10+,30.09,1023.1,,TRUE,TRUE,,,,,,,OVC,4400,,,,,,,VFR,,,,,,,,,,,,METAR,824
KHBR 220353Z AUTO 36007KT 10SM FEW110 10/10 A2991 RMK AO2 SLP123 T01000100,KHBR,2024-03-22T03:53:00Z,34.9891,-99.0528,10,10,360,7,,10+,29.91,1012.3,,TRUE,TRUE,,,,,,,FEW,11000,,,,,,,VFR,,,,,,,,,,,,METAR,475
KHBG 220353Z AUTO 18006KT 10SM CLR 15/07 A2998 RMK AO2 SLP150 T01500072,KHBG,2024-03-22T03:53:00Z,31.2648,-89.2561,15,7.2,180,6,,10+,29.98,1015,,TRUE,TRUE,,,,,,,CLR,,,,,,,,VFR,,,,,,,,,,,,METAR,45
KHAO 220353Z AUTO 10004KT 10SM CLR 02/M10 A3023 RMK AO2 SLP243 T00171100,KHAO,2024-03-22T03:53:00Z,39.3612,-84.5206,1.7,-10,100,4,,10+,30.23,1024.3,,TRUE,TRUE,,,,,,,CLR,,,,,,,,VFR,,,,,,,,,,,,METAR,185
KGZH 220353Z AUTO 16004KT 10SM CLR 16/06 A3002 RMK AO2 SLP164 T01610061,KGZH,2024-03-22T03:53:00Z,31.4191,-87.0484,16.1,6.1,160,4,,10+,30.02,1016.4,,TRUE,TRUE,,,,,,,CLR,,,,,,,,VFR,,,,,,,,,,,,METAR,77
KGWO 220353Z AUTO 10008KT 10SM OVC080 18/07 A2996 RMK AO2 SLP144 T01780072,KGWO,2024-03-22T03:53:00Z,33.4961,-90.0894,17.8,7.2,100,8,,10+,29.96,1014.4,,TRUE,TRUE,,,,,,,OVC,8000,,,,,,,VFR,,,,,,,,,,,,METAR,42
KGVL 220353Z AUTO 12004KT 10SM CLR 17/04 A3010 RMK AO2 SLP180 T01720044,KGVL,2024-03-22T03:53:00Z,34.2721,-83.8305,17.2,4.4,120,4,,10+,30.10,1018,,TRUE,TRUE,,,,,,,CLR,,,,,,,,VFR,,,,,,,,,,,,METAR,387
KGUY 220353Z AUTO 22006KT 10SM CLR 08/05 A2989 RMK AO2 SLP110 T00780050,KGUY,2024-03-22T03:53:00Z,36.6819,-101.505,7.8,5,220,6,,10+,29.89,1011,,TRUE,TRUE,,,,,,,CLR,,,,,,,,VFR,,,,,,,,,,,,METAR,950
KGUP 220353Z AUTO 25004KT 10SM CLR 07/M02 A3014 RMK AO2 SLP150 T00721022,KGUP,2024-03-22T03:53:00Z,35.5086,-108.793,7.2,-2.2,250,4,,10+,30.14,1015,,TRUE,TRUE,,,,,,,CLR,,,,,,,,VFR,,,,,,,,,,,,METAR,1972
KGSP 220353Z AUTO 14008KT 10SM CLR 16/02 A3013 RMK AO2 SLP195 T01610017,KGSP,2024-03-22T03:53:00Z,34.8842,-82.2209,16.1,1.7,140,8,,10+,30.13,1019.5,,TRUE,TRUE,,,,,,,CLR,,,,,,,,VFR,,,,,,,,,,,,METAR,285
KGSH 220353Z AUTO 09005KT 10SM BKN080 OVC120 M01/M07 A3024 RMK AO2 SLP249 T10061072,KGSH,2024-03-22T03:53:00Z,41.5265,-85.7872,-0.6,-7.2,90,5,,10+,30.24,1024.9,,TRUE,TRUE,,,,,,,BKN,8000,OVC,12000,,,,,VFR,,,,,,,,,,,,METAR,252
KGRR 220353Z 08004KT 10SM FEW110 SCT150 M03/M11 A3025 RMK AO2 SLP256 LAST T10281106,KGRR,2024-03-22T03:53:00Z,42.8821,-85.523,-2.8,-10.6,80,4,,10+,30.25,1025.6,,,TRUE,,,,,,,FEW,11000,SCT,15000,,,,,VFR,,,,,,,,,,,,METAR,239
KGRI 220353Z 14011KT 10SM CLR 09/M01 A2983 RMK AO2 SLP112 T00891006,KGRI,2024-03-22T03:53:00Z,40.9615,-98.313,8.9,-0.6,140,11,,10+,29.83,1011.2,,,TRUE,,,,,,,CLR,,,,,,,,VFR,,,,,,,,,,,,METAR,562
KGRB 220353Z 16008KT 10SM OVC090 M02/M09 A3024 RMK AO2 SLP249 T10171094,KGRB,2024-03-22T03:53:00Z,44.4796,-88.137,-1.7,-9.4,160,8,,10+,30.24,1024.9,,,TRUE,,,,,,,OVC,9000,,,,,,,VFR,,,,,,,,,,,,METAR,209
KGPT 220353Z 12011KT 10SM SCT110 16/13 A2995 RMK AO2 SLP140 T01610133,KGPT,2024-03-22T03:53:00Z,30.4121,-89.0809,16.1,13.3,120,11,,10+,29.95,1014,,,TRUE,,,,,,,SCT,11000,,,,,,,VFR,,,,,,,,,,,,METAR,5
KGOK 220353Z AUTO 08009KT 7SM BKN008 OVC070 14/13 A2989 RMK AO2 RAE13 CIG 006V011 SLP118 P0000 T01390128,KGOK,2024-03-22T03:53:00Z,35.8517,-97.4142,13.9,12.8,80,9,,7,29.89,1011.8,,TRUE,TRUE,,,,,,,BKN,800,OVC,7000,,,,,IFR,,,,,,0.005,,,,,,METAR,326
KGNV 220353Z AUTO 09006KT 10SM CLR 18/14 A3007 RMK AO2 SLP182 T01780144,KGNV,2024-03-22T03:53:00Z,29.6917,-82.276,17.8,14.4,90,6,,10+,30.07,1018.2,,TRUE,TRUE,,,,,,,CLR,,,,,,,,VFR,,,,,,,,,,,,METAR,41
KGMU 220353Z AUTO 13007KT 10SM CLR 17/03 A3013 RMK AO2 SLP196 T01670028,KGMU,2024-03-22T03:53:00Z,34.8487,-82.3501,16.7,2.8,130,7,,10+,30.13,1019.6,,TRUE,TRUE,,,,,,,CLR,,,,,,,,VFR,,,,,,,,,,,,METAR,309
KGLR 220353Z AUTO 00000KT 10SM CLR M09/M16 A3025 RMK AO2 SLP268 T10941156,KGLR,2024-03-22T03:53:00Z,45.0166,-84.6894,-9.4,-15.6,0,0,,10+,30.25,1026.8,,TRUE,TRUE,,,,,,,CLR,,,,,,,,VFR,,,,,,,,,,,,METAR,403
KGLH 220353Z AUTO 14003KT 10SM CLR 18/09 A2996 RMK AO2 SLP150 T01780089,KGLH,2024-03-22T03:53:00Z,33.4772,-90.9847,17.8,8.9,140,3,,10+,29.96,1015,,TRUE,TRUE,,,,,,,CLR,,,,,,,,VFR,,,,,,,,,,,,METAR,40
KGLD 220353Z AUTO 20012KT 10SM CLR 11/03 A2984 RMK AO2 SLP094 T01110028,KGLD,2024-03-22T03:53:00Z,39.3673,-101.693,11.1,2.8,200,12,,10+,29.84,1009.4,,TRUE,TRUE,,,,,,,CLR,,,,,,,,VFR,,,,,,,,,,,,METAR,1111
KGKY 220353Z AUTO 06003KT 10SM FEW120 14/13 A2984 RMK AO2 SLP101 T01440128,KGKY,2024-03-22T03:53:00Z,32.6583,-97.0951,14.4,12.8,60,3,,10+,29.84,1010.1,,TRUE,TRUE,,,,,,,FEW,12000,,,,,,,VFR,,,,,,,,,,,,METAR,189
KGKJ 220353Z AUTO 10SM CLR M06/M12 A3030 RMK AO2 SLP280 T10561117,KGKJ,2024-03-22T03:53:00Z,41.6258,-80.2123,-5.6,-11.7,,,,10+,30.30,1028,,TRUE,TRUE,,,,,,,CLR,,,,,,,,VFR,,,,,,,,,,,,METAR,428
KGJT 220353Z AUTO 00000KT 10SM CLR 10/M01 A3002 RMK AO2 SLP135 T01001006,KGJT,2024-03-22T03:53:00Z,39.1344,-108.541,10,-0.6,0,0,,10+,30.02,1013.5,,TRUE,TRUE,,,,,,,CLR,,,,,,,,VFR,,,,,,,,,,,,METAR,1475
KGIF 220353Z AUTO 14013KT 10SM BKN048 22/16 A3006 RMK AO2 SLP176 T02170161,KGIF,2024-03-22T03:53:00Z,28.0614,-81.7568,21.7,16.1,140,13,,10+,30.06,1017.6,,TRUE,TRUE,,,,,,,BKN,4800,,,,,,,VFR,,,,,,,,,,,,METAR,44
KGGW 220353Z AUTO 02008KT 6SM -SN BKN032 OVC100 M08/M11 A3019 RMK AO2 SNE10B32 SLP264 P0000 T10781106,KGGW,2024-03-22T03:53:00Z,48.2142,-106.621,-7.8,-10.6,20,8,,6,30.19,1026.4,,TRUE,TRUE,,,,,,-SN,BKN,3200,OVC,10000,,,,,VFR,,,,,,0.005,,,,,,METAR,698
KGFL 220353Z AUTO 28004KT 10SM BKN060 M04/M13 A3024 RMK AO2 SLP250 T10391133,KGFL,2024-03-22T03:53:00Z,43.3385,-73.6102,-3.9,-13.3,280,4,,10+,30.24,1025,,TRUE,TRUE,,,,,,,BKN,6000,,,,,,,VFR,,,,,,,,,,,,METAR,99
KGFK 220353Z 00000KT 10SM OVC060 M03/M13 A3025 RMK AO2 SLP258 T10331133,KGFK,2024-03-22T03:53:00Z,47.9428,-97.1829,-3.3,-13.3,0,0,,10+,30.25,1025.8,,,TRUE,,,,,,,OVC,6000,,,,,,,VFR,,,,,,,,,,,,METAR,256
KGEY 220353Z AUTO 00000KT 10SM OVC100 06/02 A2997 RMK AO2 SLP167 T00560022,KGEY,2024-03-22T03:53:00Z,44.5173,-108.075,5.6,2.2,0,0,,10+,29.97,1016.7,,TRUE,TRUE,,,,,,,OVC,10000,,,,,,,VFR,,,,,,,,,,,,METAR,1191
KGEG 220353Z 22007KT 10SM BKN090 11/M01 A3001 RMK AO2 SLP168 T01061006 $,KGEG,2024-03-22T03:53:00Z,47.6217,-117.528,10.6,-0.6,220,7,,10+,30.01,1016.8,,,TRUE,TRUE,,,,,,BKN,9000,,,,,,,VFR,,,,,,,,,,,,METAR,718
KGCC 220353Z AUTO 00000KT 10SM FEW075 SCT090 01/M01 A2997 RMK AO2 SLP174 T00111011,KGCC,2024-03-22T03:53:00Z,44.3398,-105.542,1.1,-1.1,0,0,,10+,29.97,1017.4,,TRUE,TRUE,,,,,,,FEW,7500,SCT,9000,,,,,VFR,,,,,,,,,,,,METAR,1328
KGAG 220353Z AUTO 17007KT 10SM CLR 08/07 A2992 RMK AO2 SLP122 T00830072,KGAG,2024-03-22T03:53:00Z,36.2966,-99.7686,8.3,7.2,170,7,,10+,29.92,1012.2,,TRUE,TRUE,,,,,,,CLR,,,,,,,,VFR,,,,,,,,,,,,METAR,670
KFYV 220353Z AUTO 00000KT 10SM OVC090 15/06 A2996 RMK AO2 SLP141 T01500056,KFYV,2024-03-22T03:53:00Z,36.0103,-94.1624,15,5.6,0,0,,10+,29.96,1014.1,,TRUE,TRUE,,,,,,,OVC,9000,,,,,,,VFR,,,,,,,,,,,,METAR,377
KFXE 220353Z 11012KT 10SM FEW036 23/16 A3007 RMK AO2 SLP184 T02280161,KFXE,2024-03-22T03:53:00Z,26.199,-80.1776,22.8,16.1,110,12,,10+,30.07,1018.4,,,TRUE,,,,,,,FEW,3600,,,,,,,VFR,,,,,,,,,,,,METAR,3
KFWN 220353Z AUTO VRB03KT 10SM CLR M02/M13 A3030 RMK AO2 SLP266 T10171133 $,KFWN,2024-03-22T03:53:00Z,41.1993,-74.6259,-1.7,-13.3,VRB,3,,10+,30.30,1026.6,,TRUE,TRUE,TRUE,,,,,,CLR,,,,,,,,VFR,,,,,,,,,,,,METAR,129
KFUL 220353Z 00000KT 10SM CLR 16/13 A3007 RMK AO2 SLP181 T01610133,KFUL,2024-03-22T03:53:00Z,33.8715,-117.986,16.1,13.3,0,0,,10+,30.07,1018.1,,,TRUE,,,,,,,CLR,,,,,,,,VFR,,,,,,,,,,,,METAR,23
KFTY 220353Z 14004KT 10SM CLR 20/05 A3005 RMK AO2 SLP169 T02000050,KFTY,2024-03-22T03:53:00Z,33.7776,-84.5247,20,5,140,4,,10+,30.05,1016.9,,,TRUE,,,,,,,CLR,,,,,,,,VFR,,,,,,,,,,,,METAR,245
KFTW 220353Z 09005KT 10SM CLR 13/12 A2984 RMK AO2 SLP100 T01280122,KFTW,2024-03-22T03:53:00Z,32.8248,-97.364,12.8,12.2,90,5,,10+,29.84,1010,,,TRUE,,,,,,,CLR,,,,,,,,VFR,,,,,,,,,,,,METAR,213
KFSM 220353Z AUTO 09004KT 10SM BKN070 15/08 A2995 RMK AO2 SLP138 T01500083,KFSM,2024-03-22T03:53:00Z,35.3335,-94.3653,15,8.3,90,4,,10+,29.95,1013.8,,TRUE,TRUE,,,,,,,BKN,7000,,,,,,,VFR,,,,,,,,,,,,METAR,136
KFRG 220353Z 32012G18KT 10SM CLR 01/M12 A3029 RMK AO2 SLP259 T00061117,KFRG,2024-03-22T03:53:00Z,40.7344,-73.4164,0.6,-11.7,320,12,18,10+,30.29,1025.9,,,TRUE,,,,,,,CLR,,,,,,,,VFR,,,,,,,,,,,,METAR,23
KFPR 220353Z 12016G24KT 10SM CLR 22/14 A3006 RMK AO2 SLP180 T02220144,KFPR,2024-03-22T03:53:00Z,27.4981,-80.3763,22.2,14.4,120,16,24,10+,30.06,1018,,,TRUE,,,,,,,CLR,,,,,,,,VFR,,,,,,,,,,,,METAR,7
KFOK 220353Z AUTO 30007KT 10SM CLR M01/M12 A3029 RMK AO2 SLP257 T10061122,KFOK,2024-03-22T03:53:00Z,40.8506,-72.6193,-0.6,-12.2,300,7,,10+,30.29,1025.7,,TRUE,TRUE,,,,,,,CLR,,,,,,,,VFR,,,,,,,,,,,,METAR,13
KFOE 220353Z AUTO 13007KT 10SM CLR 10/02 A2991 RMK AO2 SLP129 T01000017 $,KFOE,2024-03-22T03:53:00Z,38.9414,-95.6513,10,1.7,130,7,,10+,29.91,1012.9,,TRUE,TRUE,TRUE,,,,,,CLR,,,,,,,,VFR,,,,,,,,,,,,METAR,315
KFNT 220353Z AUTO 12005KT 10SM CLR M05/M11 A3029 RMK AO2 SLP270 T10501106,KFNT,2024-03-22T03:53:00Z,42.9669,-83.75,-5,-10.6,120,5,,10+,30.29,1027,,TRUE,TRUE,,,,,,,CLR,,,,,,,,VFR,,,,,,,,,,,,METAR,235
KFNB 220353Z AUTO 10005KT 10SM CLR 06/M04 A2992 RMK AO2 SLP136 T00611039,KFNB,2024-03-22T03:53:00Z,40.0791,-95.5893,6.1,-3.9,100,5,,10+,29.92,1013.6,,TRUE,TRUE,,,,,,,CLR,,,,,,,,VFR,,,,,,,,,,,,METAR,301
KFMY 220353Z AUTO 13009G17KT 10SM CLR 22/18 A3004 RMK AO2 SLP175 T02170178,KFMY,2024-03-22T03:53:00Z,26.584,-81.8615,21.7,17.8,130,9,17,10+,30.04,1017.5,,TRUE,TRUE,,,,,,,CLR,,,,,,,,VFR,,,,,,,,,,,,METAR,4
KFMN 220353Z AUTO 32015G30KT 10SM SCT110 14/M07 A3004 RMK AO2 PK WND 30036/0342 SLP150 T01441067,KFMN,2024-03-22T03:53:00Z,36.7435,-108.229,14.4,-6.7,320,15,30,10+,30.04,1015,,TRUE,TRUE,,,,,,,SCT,11000,,,,,,,VFR,,,,,,,,,,,,METAR,1677
KFLO 220353Z AUTO 12005KT 10SM CLR 12/09 A3019 RMK AO2 SLP220 T01220089,KFLO,2024-03-22T03:53:00Z,34.1877,-79.7308,12.2,8.9,120,5,,10+,30.19,1022,,TRUE,TRUE,,,,,,,CLR,,,,,,,,VFR,,,,,,,,,,,,METAR,43
KFLL 220353Z 11014KT 10SM FEW035 23/16 A3006 RMK AO2 SLP180 T02330156,KFLL,2024-03-22T03:53:00Z,26.0787,-80.1622,23.3,15.6,110,14,,10+,30.06,1018,,,TRUE,,,,,,,FEW,3500,,,,,,,VFR,,,,,,,,,,,,METAR,1
KFLD 220353Z AUTO 15008KT 10SM FEW055 OVC075 M01/M07 A3023 RMK AO2 SLP246 T10061072,KFLD,2024-03-22T03:53:00Z,43.7695,-88.4907,-0.6,-7.2,150,8,,10+,30.23,1024.6,,TRUE,TRUE,,,,,,,FEW,5500,OVC,7500,,,,,VFR,,,,,,,,,,,,METAR,242
KFHR 220353Z AUTO 00000KT 10SM OVC080 11/06 A3007 RMK AO2 SLP182 T01110056,KFHR,2024-03-22T03:53:00Z,48.52,-123.026,11.1,5.6,0,0,,10+,30.07,1018.2,,TRUE,TRUE,,,,,,,OVC,8000,,,,,,,VFR,,,,,,,,,,,,METAR,34
KFFT 220353Z AUTO 07008KT 10SM CLR 05/M09 A3017 RMK AO2 SLP218 T00501094,KFFT,2024-03-22T03:53:00Z,38.1846,-84.9039,5,-9.4,70,8,,10+,30.17,1021.8,,TRUE,TRUE,,,,,,,CLR,,,,,,,,VFR,,,,,,,,,,,,METAR,235
KFFC 220353Z AUTO 00000KT 10SM FEW110 15/08 A3006 RMK AO2 SLP176 T01500083,KFFC,2024-03-22T03:53:00Z,33.3543,-84.5689,15,8.3,0,0,,10+,30.06,1017.6,,TRUE,TRUE,,,,,,,FEW,11000,,,,,,,VFR,,,,,,,,,,,,METAR,242
KFDY 220353Z AUTO 11009KT 10SM CLR M02/M11 A3026 RMK AO2 SLP253 T10171106,KFDY,2024-03-22T03:53:00Z,41.0137,-83.6681,-1.7,-10.6,110,9,,10+,30.26,1025.3,,TRUE,TRUE,,,,,,,CLR,,,,,,,,VFR,,,,,,,,,,,,METAR,247
KFDR 220353Z AUTO 34006KT 10SM CLR 12/11 A2985 RMK AO2 SLP101 T01170111,KFDR,2024-03-22T03:53:00Z,34.3531,-98.9876,11.7,11.1,340,6,,10+,29.85,1010.1,,TRUE,TRUE,,,,,,,CLR,,,,,,,,VFR,,,,,,,,,,,,METAR,378
KFAY 220353Z 13007KT 7SM CLR 11/06 A3020 RMK AO2 SLP222 T01060056,KFAY,2024-03-22T03:53:00Z,34.9895,-78.8801,10.6,5.6,130,7,,7,30.20,1022.2,,,TRUE,,,,,,,CLR,,,,,,,,VFR,,,,,,,,,,,,METAR,57
KFAT 220353Z 33003KT 10SM SCT200 18/09 A3008 RMK AO2 SLP183 T01830089,KFAT,2024-03-22T03:53:00Z,36.78,-119.72,18.3,8.9,330,3,,10+,30.08,1018.3,,,TRUE,,,,,,,SCT,20000,,,,,,,VFR,,,,,,,,,,,,METAR,102
KEYE 220353Z AUTO 08006KT 10SM CLR 02/M10 A3017 RMK AO2 SLP225 T00221100,KEYE,2024-03-22T03:53:00Z,39.8248,-86.2958,2.2,-10,80,6,,10+,30.17,1022.5,,TRUE,TRUE,,,,,,,CLR,,,,,,,,VFR,,,,,,,,,,,,METAR,248
KEWB 220353Z AUTO 28011KT 10SM CLR M02/M13 A3019 RMK AO2 PK WND 28028/0300 SLP224 T10171133,KEWB,2024-03-22T03:53:00Z,41.6791,-70.9591,-1.7,-13.3,280,11,,10+,30.19,1022.4,,TRUE,TRUE,,,,,,,CLR,,,,,,,,VFR,,,,,,,,,,,,METAR,22
KEVW 220353Z AUTO 24008KT 10SM CLR 02/M06 A3012 RMK AO2 SLP177 T00221061,KEVW,2024-03-22T03:53:00Z,41.2727,-111.031,2.2,-6.1,240,8,,10+,30.12,1017.7,,TRUE,TRUE,,,,,,,CLR,,,,,,,,VFR,,,,,,,,,,,,METAR,2178
KESF 220353Z AUTO 08005KT 6SM RA BR SCT014 OVC100 12/12 A2992 RMK AO2 PRESFR SLP131 P0003 T01220117,KESF,2024-03-22T03:53:00Z,31.3963,-92.2828,12.2,11.7,80,5,,6,29.92,1013.1,,TRUE,TRUE,,,,,,RA BR,SCT,1400,OVC,10000,,,,,VFR,,,,,,0.03,,,,,,METAR,27
KEQY 220353Z AUTO VRB03KT 10SM CLR 13/04 A3015 RMK AO2 SLP219 T01280044,KEQY,2024-03-22T03:53:00Z,35.0147,-80.6242,12.8,4.4,VRB,3,,10+,30.15,1021.9,,TRUE,TRUE,,,,,,,CLR,,,,,,,,VFR,,,,,,,,,,,,METAR,205
KEPH 220353Z AUTO 29007KT 10SM CLR 12/M01 A2999 RMK AO2 SLP159 T01221011,KEPH,2024-03-22T03:53:00Z,47.3078,-119.516,12.2,-1.1,290,7,,10+,29.99,1015.9,,TRUE,TRUE,,,,,,,CLR,,,,,,,,VFR,,,,,,,,,,,,METAR,382
KENW 220353Z AUTO 10008KT 10SM BKN048 OVC080 02/M04 A3021 RMK AO2 SLP237 T00221039,KENW,2024-03-22T03:53:00Z,42.5953,-87.9383,2.2,-3.9,100,8,,10+,30.21,1023.7,,TRUE,TRUE,,,,,,,BKN,4800,OVC,8000,,,,,VFR,,,,,,,,,,,,METAR,222
KEMP 220353Z AUTO 15008KT 10SM SCT044 12/07 A2992 RMK AO2 SLP132 T01220067,KEMP,2024-03-22T03:53:00Z,38.3291,-96.1945,12.2,6.7,150,8,,10+,29.92,1013.2,,TRUE,TRUE,,,,,,,SCT,4400,,,,,,,VFR,,,,,,,,,,,,METAR,366
KELY 220353Z AUTO 17010KT 10SM CLR 02/M07 A3012 RMK AO2 SLP171 T00221072,KELY,2024-03-22T03:53:00Z,39.2954,-114.847,2.2,-7.2,170,10,,10+,30.12,1017.1,,TRUE,TRUE,,,,,,,CLR,,,,,,,,VFR,,,,,,,,,,,,METAR,1906
KELN 220353Z AUTO 33012KT 10SM FEW055 10/03 A3002 RMK AO2 SLP171 T01000033,KELN,2024-03-22T03:53:00Z,47.0338,-120.531,10,3.3,330,12,,10+,30.02,1017.1,,TRUE,TRUE,,,,,,,FEW,5500,,,,,,,VFR,,,,,,,,,,,,METAR,532
KELM 220353Z AUTO 26005KT 10SM CLR M04/M11 A3031 RMK AO2 SLP278 T10441106,KELM,2024-03-22T03:53:00Z,42.1601,-76.89,-4.4,-10.6,260,5,,10+,30.31,1027.8,,TRUE,TRUE,,,,,,,CLR,,,,,,,,VFR,,,,,,,,,,,,METAR,287
KELD 220353Z AUTO 13004KT 10SM OVC070 16/09 A2993 RMK AO2 SLP135 T01610089,KELD,2024-03-22T03:53:00Z,33.2207,-92.814,16.1,8.9,130,4,,10+,29.93,1013.5,,TRUE,TRUE,,,,,,,OVC,7000,,,,,,,VFR,,,,,,,,,,,,METAR,76
KEET 220353Z AUTO 00000KT 7SM BKN100 16/09 A3003 RMK AO2 SLP164 T01560094,KEET,2024-03-22T03:53:00Z,33.1783,-86.7818,15.6,9.4,0,0,,7,30.03,1016.4,,TRUE,TRUE,,,,,,,BKN,10000,,,,,,,VFR,,,,,,,,,,,,METAR,172
KEEO 220353Z AUTO 06004KT 10SM BKN060 OVC080 04/02 A3010 RMK AO2 SLP175 T00390017,KEEO,2024-03-22T03:53:00Z,40.0444,-107.888,3.9,1.7,60,4,,10+,30.10,1017.5,,TRUE,TRUE,,,,,,,BKN,6000,OVC,8000,,,,,VFR,,,,,,,,,,,,METAR,1957
KECP 220353Z AUTO 25004KT 10SM OVC100 16/12 A3006 RMK AO1 SLP191 T01610117,KECP,2024-03-22T03:53:00Z,30.3487,-85.7884,16.1,11.7,250,4,,10+,30.06,1019.1,,TRUE,TRUE,,,,,,,OVC,10000,,,,,,,VFR,,,,,,,,,,,,METAR,17
KDXR 220353Z AUTO 30005G19KT 10SM CLR M01/M14 A3028 RMK AO2 SLP257 T10111139 $,KDXR,2024-03-22T03:53:00Z,41.3722,-73.4834,-1.1,-13.9,300,5,19,10+,30.28,1025.7,,TRUE,TRUE,TRUE,,,,,,CLR,,,,,,,,VFR,,,,,,,,,,,,METAR,138
KDWH 220353Z AUTO 10005KT 10SM FEW006 BKN025 OVC030 17/17 A2986 RMK AO2 RAE41 SLP109 P0002 T01720167 $,KDWH,2024-03-22T03:53:00Z,30.068,-95.5563,17.2,16.7,100,5,,10+,29.86,1010.9,,TRUE,TRUE,TRUE,,,,,,FEW,600,BKN,2500,OVC,3000,,,MVFR,,,,,,0.02,,,,,,METAR,46
KDVT 220353Z 00000KT 10SM CLR 19/06 A3001 RMK AO2 SLP148 T01940056,KDVT,2024-03-22T03:53:00Z,33.6902,-112.066,19.4,5.6,0,0,,10+,30.01,1014.8,,,TRUE,,,,,,,CLR,,,,,,,,VFR,,,,,,,,,,,,METAR,454
KDUJ 220353Z AUTO 03006KT 10SM CLR M06/M12 A3027 RMK AO2 SLP275 T10561117,KDUJ,2024-03-22T03:53:00Z,41.1795,-78.8933,-5.6,-11.7,30,6,,10+,30.27,1027.5,,TRUE,TRUE,,,,,,,CLR,,,,,,,,VFR,,,,,,,,,,,,METAR,552
KDTW 220353Z 11004KT 10SM FEW140 SCT250 M02/M08 A3031 RMK AO2 SLP271 T10171078,KDTW,2024-03-22T03:53:00Z,42.2311,-83.3312,-1.7,-7.8,110,4,,10+,30.31,1027.1,,,TRUE,,,,,,,FEW,14000,SCT,25000,,,,,VFR,,,,,,,,,,,,METAR,192
KDTS 220353Z AUTO 14003KT 10SM BKN080 BKN090 18/13 A3003 RMK AO2 SLP167 T01830128,KDTS,2024-03-22T03:53:00Z,30.3933,-86.4674,18.3,12.8,140,3,,10+,30.03,1016.7,,TRUE,TRUE,,,,,,,BKN,8000,BKN,9000,,,,,VFR,,,,,,,,,,,,METAR,5
KDTO 220353Z AUTO 22003KT 10SM CLR 13/12 A2985 RMK AO2 SLP103 T01280122,KDTO,2024-03-22T03:53:00Z,33.2088,-97.1992,12.8,12.2,220,3,,10+,29.85,1010.3,,TRUE,TRUE,,,,,,,CLR,,,,,,,,VFR,,,,,,,,,,,,METAR,199
KDRT 220353Z AUTO 28003KT 10SM CLR 19/04 A2987 RMK AO2 SLP110 T01890044 $,KDRT,2024-03-22T03:53:00Z,29.3784,-100.927,18.9,4.4,280,3,,10+,29.87,1011,,TRUE,TRUE,TRUE,,,,,,CLR,,,,,,,,VFR,,,,,,,,,,,,METAR,303
KDRO 220353Z AUTO 00000KT 10SM CLR 07/M05 A3008 RMK AO2 SLP167 T00721050,KDRO,2024-03-22T03:53:00Z,37.1431,-107.76,7.2,-5,0,0,,10+,30.08,1016.7,,TRUE,TRUE,,,,,,,CLR,,,,,,,,VFR,,,,,,,,,,,,METAR,2021
KDRA 220353Z AUTO 03004KT 10SM CLR 16/M02 A3002 RMK AO2 SLP139 T01561022,KDRA,2024-03-22T03:53:00Z,36.621,-116.029,15.6,-2.2,30,4,,10+,30.02,1013.9,,TRUE,TRUE,,,,,,,CLR,,,,,,,,VFR,,,,,,,,,,,,METAR,988
KDNL 220353Z AUTO 13008KT 10SM CLR 17/09 A3013 RMK AO2 SLP199 T01670094,KDNL,2024-03-22T03:53:00Z,33.4668,-82.0385,16.7,9.4,130,8,,10+,30.13,1019.9,,TRUE,TRUE,,,,,,,CLR,,,,,,,,VFR,,,,,,,,,,,,METAR,126
KDMO 220353Z AUTO 11008KT 10SM CLR 08/M04 A2998 RMK AO2 SLP155 T00831039,KDMO,2024-03-22T03:53:00Z,38.712,-93.1747,8.3,-3.9,110,8,,10+,29.98,1015.5,,TRUE,TRUE,,,,,,,CLR,,,,,,,,VFR,,,,,,,,,,,,METAR,271
KDMN 220353Z AUTO 31008KT 10SM CLR 16/M01 A3007 RMK AO2 SLP136 T01561011,KDMN,2024-03-22T03:53:00Z,32.2592,-107.721,15.6,-1.1,310,8,,10+,30.07,1013.6,,TRUE,TRUE,,,,,,,CLR,,,,,,,,VFR,,,,,,,,,,,,METAR,1310
KDMH 220353Z AUTO 08/M11 A3032 RMK AO1 SLP268 T00781111,KDMH,2024-03-22T03:53:00Z,39.281,-76.611,7.8,-11.1,,,,,30.32,1026.8,,TRUE,TRUE,,,,,,,,,,,,,,,VFR,,,,,,,,,,,,METAR,4
KDLS 220353Z AUTO 00000KT 10SM CLR 13/06 A3004 RMK AO2 SLP173 T01280061,KDLS,2024-03-22T03:53:00Z,45.619,-121.166,12.8,6.1,0,0,,10+,30.04,1017.3,,TRUE,TRUE,,,,,,,CLR,,,,,,,,VFR,,,,,,,,,,,,METAR,71
KDLN 220353Z AUTO 19007KT 10SM BKN080 OVC090 04/M03 A3002 RMK AO2 SLP166 T00441033,KDLN,2024-03-22T03:53:00Z,45.2584,-112.555,4.4,-3.3,190,7,,10+,30.02,1016.6,,TRUE,TRUE,,,,,,,BKN,8000,OVC,9000,,,,,VFR,,,,,,,,,,,,METAR,1586
KDKK 220353Z AUTO 30003KT 10SM FEW035 M03/M11 A3036 RMK AO2 SLP292 T10281111,KDKK,2024-03-22T03:53:00Z,42.4932,-79.2762,-2.8,-11.1,300,3,,10+,30.36,1029.2,,TRUE,TRUE,,,,,,,FEW,3500,,,,,,,VFR,,,,,,,,,,,,METAR,205
KDHT 220353Z AUTO 15009KT 10SM CLR 09/04 A2993 RMK AO2 SLP121 T00940044,KDHT,2024-03-22T03:53:00Z,36.0252,-102.549,9.4,4.4,150,9,,10+,29.93,1012.1,,TRUE,TRUE,,,,,,,CLR,,,,,,,,VFR,,,,,,,,,,,,METAR,1217
KDHN 220353Z AUTO 24006KT 10SM BKN090 18/08 A3008 RMK AO2 SLP183 T01780083,KDHN,2024-03-22T03:53:00Z,31.3177,-85.4432,17.8,8.3,240,6,,10+,30.08,1018.3,,TRUE,TRUE,,,,,,,BKN,9000,,,,,,,VFR,,,,,,,,,,,,METAR,113
KDGW 220353Z AUTO 32012KT 10SM -RA FEW026 OVC031 03/01 A3003 RMK AO2 RAB35 SLP165 P0000 T00330006 $,KDGW,2024-03-22T03:53:00Z,42.796,-105.38,3.3,0.6,320,12,,10+,30.03,1016.5,,TRUE,TRUE,TRUE,,,,,-RA,FEW,2600,OVC,3100,,,,,VFR,,,,,,0.005,,,,,,METAR,1503
KDFW 220353Z 17005KT 10SM FEW025 FEW100 BKN180 BKN250 14/13 A2982 RMK AO2 SLP094 OCNL LTGIC DSNT NE-SE CB DSNT NE-SE MOV E T01390128,KDFW,2024-03-22T03:53:00Z,32.8974,-97.0219,13.9,12.8,170,5,,10+,29.82,1009.4,,,TRUE,,,,,,,FEW,2500,FEW,10000,BKN,18000,BKN,25000,VFR,,,,,,,,,,,,METAR,168
KDFI 220353Z AUTO 00000KT 10SM BKN120 M02/M07 A3027 RMK AO2 SLP260 T10221072,KDFI,2024-03-22T03:53:00Z,41.3357,-84.4285,-2.2,-7.2,0,0,,10+,30.27,1026,,TRUE,TRUE,,,,,,,BKN,12000,,,,,,,VFR,,,,,,,,,,,,METAR,215
KDEW 220353Z AUTO 00000KT 10SM OVC090 07/03 A3001 RMK AO2 SLP170 T00720028,KDEW,2024-03-22T03:53:00Z,47.9742,-117.429,7.2,2.8,0,0,,10+,30.01,1017,,TRUE,TRUE,,,,,,,OVC,9000,,,,,,,VFR,,,,,,,,,,,,METAR,672
KDET 220353Z 15004KT 10SM CLR M02/M09 A3032 RMK AO2 SLP273 T10171089,KDET,2024-03-22T03:53:00Z,42.4072,-83.009,-1.7,-8.9,150,4,,10+,30.32,1027.3,,,TRUE,,,,,,,CLR,,,,,,,,VFR,,,,,,,,,,,,METAR,190
KDEQ 220353Z AUTO 00000KT 4SM RA BR BKN040 OVC070 14/13 A2993 RMK AO2 SLP131 P0007 T01390133,KDEQ,2024-03-22T03:53:00Z,34.048,-94.4016,13.9,13.3,0,0,,4,29.93,1013.1,,TRUE,TRUE,,,,,,RA BR,BKN,4000,OVC,7000,,,,,MVFR,,,,,,0.07,,,,,,METAR,107
KDEN 220353Z 35009KT 10SM FEW090 SCT130 BKN220 10/M02 A2995 RMK AO2 WSHFT 0309 SLP100 T01001022,KDEN,2024-03-22T03:53:00Z,39.8466,-104.656,10,-2.2,350,9,,10+,29.95,1010,,,TRUE,,,,,,,FEW,9000,SCT,13000,BKN,22000,,,VFR,,,,,,,,,,,,METAR,1656
KDCU 220353Z AUTO 04004KT 10SM SCT100 18/06 A3002 RMK AO2 SLP161 T01780056 $,KDCU,2024-03-22T03:53:00Z,34.658,-86.9434,17.8,5.6,40,4,,10+,30.02,1016.1,,TRUE,TRUE,TRUE,,,,,,SCT,10000,,,,,,,VFR,,,,,,,,,,,,METAR,180
KDBQ 220353Z AUTO 09010KT 10SM OVC095 02/M09 A3011 RMK AO2 SLP206 T00221089,KDBQ,2024-03-22T03:53:00Z,42.3984,-90.7092,2.2,-8.9,90,10,,10+,30.11,1020.6,,TRUE,TRUE,,,,,,,OVC,9500,,,,,,,VFR,,,,,,,,,,,,METAR,317
KDAN 220353Z AUTO 03003KT 10SM CLR 06/M02 A3020 RMK AO2 SLP222 T00611022,KDAN,2024-03-22T03:53:00Z,36.5729,-79.335,6.1,-2.2,30,3,,10+,30.20,1022.2,,TRUE,TRUE,,,,,,,CLR,,,,,,,,VFR,,,,,,,,,,,,METAR,170
KDAL 220353Z 00000KT 10SM FEW008 BKN130 OVC200 14/13 A2985 RMK AO2 RAE23 SLP103 P0000 T01440133,KDAL,2024-03-22T03:53:00Z,32.8384,-96.8358,14.4,13.3,0,0,,10+,29.85,1010.3,,,TRUE,,,,,,,FEW,800,BKN,13000,OVC,20000,,,VFR,,,,,,0.005,,,,,,METAR,148
KDAB 220353Z 14003KT 10SM FEW039 BKN250 21/17 A3008 RMK AO2 SLP184 T02060172,KDAB,2024-03-22T03:53:00Z,29.1735,-81.0719,20.6,17.2,140,3,,10+,30.08,1018.4,,,TRUE,,,,,,,FEW,3900,BKN,25000,,,,,VFR,,,,,,,,,,,,METAR,8
KCYS 220353Z 01017G28KT 10SM CLR 03/M03 A3000 RMK AO2 PK WND 36028/0346 WSHFT 0306 SLP130 T00331033,KCYS,2024-03-22T03:53:00Z,41.1579,-104.808,3.3,-3.3,10,17,28,10+,30.00,1013,,,TRUE,,,,,,,CLR,,,,,,,,VFR,,,,,,,,,,,,METAR,1868
KCUT 220353Z AUTO 30003KT 10SM BKN100 BKN120 03/M04 A2994 RMK AO2 SLP129 T00331044 $,KCUT,2024-03-22T03:53:00Z,43.7331,-103.615,3.3,-4.4,300,3,,10+,29.94,1012.9,,TRUE,TRUE,TRUE,,,,,,BKN,10000,BKN,12000,,,,,VFR,,,,,,,,,,,,METAR,1700
KCUB 220353Z AUTO 00000KT 10SM CLR 16/07 A3016 RMK AO2 SLP212 T01560072 $,KCUB,2024-03-22T03:53:00Z,33.972,-80.9939,15.6,7.2,0,0,,10+,30.16,1021.2,,TRUE,TRUE,TRUE,,,,,,CLR,,,,,,,,VFR,,,,,,,,,,,,METAR,55
KCSV 220353Z AUTO 05004KT 10SM CLR 10/M04 A3011 RMK AO2 SLP192 T01001039,KCSV,2024-03-22T03:53:00Z,35.951,-85.0814,10,-3.9,50,4,,10+,30.11,1019.2,,TRUE,TRUE,,,,,,,CLR,,,,,,,,VFR,,,,,,,,,,,,METAR,569
KCRQ 220353Z AUTO 00000KT 10SM CLR 14/12 A3008 RMK AO2 SLP184 T01440117,KCRQ,2024-03-22T03:53:00Z,33.1299,-117.277,14.4,11.7,0,0,,10+,30.08,1018.4,,TRUE,TRUE,,,,,,,CLR,,,,,,,,VFR,,,,,,,,,,,,METAR,96
KCRG 220353Z AUTO 10004KT 10SM CLR 18/14 A3008 RMK AO2 SLP186 T01780144,KCRG,2024-03-22T03:53:00Z,30.3371,-81.5128,17.8,14.4,100,4,,10+,30.08,1018.6,,TRUE,TRUE,,,,,,,CLR,,,,,,,,VFR,,,,,,,,,,,,METAR,12
KCRE 220353Z AUTO 05006KT 10SM CLR 11/09 A3020 RMK AO1 SLP228 T01110094,KCRE,2024-03-22T03:53:00Z,33.8162,-78.7204,11.1,9.4,50,6,,10+,30.20,1022.8,,TRUE,TRUE,,,,,,,CLR,,,,,,,,VFR,,,,,,,,,,,,METAR,9
KCQC 220353Z AUTO 29010KT 10SM CLR 02/M07 A3007 RMK AO2 SLP158 T00221067 $,KCQC,2024-03-22T03:53:00Z,35.003,-105.663,2.2,-6.7,290,10,,10+,30.07,1015.8,,TRUE,TRUE,TRUE,,,,,,CLR,,,,,,,,VFR,,,,,,,,,,,,METAR,2163
KCPS 220353Z AUTO 11006KT 10SM CLR 07/M04 A3008 RMK AO2 SLP188 T00671044,KCPS,2024-03-22T03:53:00Z,38.57,-90.156,6.7,-4.4,110,6,,10+,30.08,1018.8,,TRUE,TRUE,,,,,,,CLR,,,,,,,,VFR,,,,,,,,,,,,METAR,125
KCPR 220353Z AUTO 07009KT 10SM SCT025 OVC042 03/M01 A3003 RMK AO2 SLP156 T00281011,KCPR,2024-03-22T03:53:00Z,42.8978,-106.474,2.8,-1.1,70,9,,10+,30.03,1015.6,,TRUE,TRUE,,,,,,,SCT,2500,OVC,4200,,,,,VFR,,,,,,,,,,,,METAR,1623
KCOT 220353Z AUTO 12005KT 10SM CLR 18/16 A2987 RMK AO2 SLP110 T01830161 $,KCOT,2024-03-22T03:53:00Z,28.4585,-99.2228,18.3,16.1,120,5,,10+,29.87,1011,,TRUE,TRUE,TRUE,,,,,,CLR,,,,,,,,VFR,,,,,,,,,,,,METAR,144
KCNY 220353Z AUTO 24006KT 10SM SCT100 12/00 A3002 RMK AO2 SLP141 T01170000,KCNY,2024-03-22T03:53:00Z,38.7501,-109.763,11.7,0,240,6,,10+,30.02,1014.1,,TRUE,TRUE,,,,,,,SCT,10000,,,,,,,VFR,,,,,,,,,,,,METAR,1392
KCNO 220353Z AUTO 28004KT 10SM CLR 14/01 A3009 RMK AO2 SLP186 LAST T01440006,KCNO,2024-03-22T03:53:00Z,33.9756,-117.625,14.4,0.6,280,4,,10+,30.09,1018.6,,TRUE,TRUE,,,,,,,CLR,,,,,,,,VFR,,,,,,,,,,,,METAR,191
KCNM 220353Z AUTO 00000KT 10SM CLR 13/M01 A2993 RMK AO2 SLP102 T01331006,KCNM,2024-03-22T03:53:00Z,32.3335,-104.258,13.3,-0.6,0,0,,10+,29.93,1010.2,,TRUE,TRUE,,,,,,,CLR,,,,,,,,VFR,,,,,,,,,,,,METAR,993
KCMX 220353Z AUTO 07003KT 10SM CLR M08/M14 A3023 RMK AO2 SLP255 T10831139,KCMX,2024-03-22T03:53:00Z,47.1705,-88.4854,-8.3,-13.9,70,3,,10+,30.23,1025.5,,TRUE,TRUE,,,,,,,CLR,,,,,,,,VFR,,,,,,,,,,,,METAR,326
KCMI 220353Z 09011KT 10SM CLR 02/M08 A3014 RMK AO2 SLP213 T00221083,KCMI,2024-03-22T03:53:00Z,40.0324,-88.2755,2.2,-8.3,90,11,,10+,30.14,1021.3,,,TRUE,,,,,,,CLR,,,,,,,,VFR,,,,,,,,,,,,METAR,227
KCLM 220353Z AUTO 00000KT 10SM SCT055 OVC070 09/06 A3005 RMK AO2 SLP178 T00940056 $,KCLM,2024-03-22T03:53:00Z,48.1219,-123.507,9.4,5.6,0,0,,10+,30.05,1017.8,,TRUE,TRUE,TRUE,,,,,,SCT,5500,OVC,7000,,,,,VFR,,,,,,,,,,,,METAR,81
KCKB 220353Z 00000KT 10SM CLR 01/M12 A3026 RMK AO2 SLP254 T00111117,KCKB,2024-03-22T03:53:00Z,39.3022,-80.2239,1.1,-11.7,0,0,,10+,30.26,1025.4,,,TRUE,,,,,,,CLR,,,,,,,,VFR,,,,,,,,,,,,METAR,368
KCHO 220353Z AUTO 04005KT 10SM CLR 06/M09 A3028 RMK AO2 SLP255 T00561089 $,KCHO,2024-03-22T03:53:00Z,38.1374,-78.4551,5.6,-8.9,40,5,,10+,30.28,1025.5,,TRUE,TRUE,TRUE,,,,,,CLR,,,,,,,,VFR,,,,,,,,,,,,METAR,193
KCHA 220353Z 35004KT 10SM BKN250 13/05 A3007 RMK AO2 SLP180 LAST T01280050,KCHA,2024-03-22T03:53:00Z,35.0336,-85.2004,12.8,5,350,4,,10+,30.07,1018,,,TRUE,,,,,,,BKN,25000,,,,,,,VFR,,,,,,,,,,,,METAR,203
KCGI 220353Z AUTO 07004KT 10SM CLR 08/M03 A3005 RMK AO2 SLP177 T00831033,KCGI,2024-03-22T03:53:00Z,37.2254,-89.5785,8.3,-3.3,70,4,,10+,30.05,1017.7,,TRUE,TRUE,,,,,,,CLR,,,,,,,,VFR,,,,,,,,,,,,METAR,103
KCEZ 220353Z AUTO 35007KT 10SM FEW100 10/M01 A3009 RMK AO2 SLP154 T01001011,KCEZ,2024-03-22T03:53:00Z,37.3071,-108.626,10,-1.1,350,7,,10+,30.09,1015.4,,TRUE,TRUE,,,,,,,FEW,10000,,,,,,,VFR,,,,,,,,,,,,METAR,1801
KCEW 220353Z AUTO 12003KT 10SM FEW075 BKN090 OVC110 14/09 A3005 RMK AO2 SLP173 T01440094,KCEW,2024-03-22T03:53:00Z,30.7771,-86.5194,14.4,9.4,120,3,,10+,30.05,1017.3,,TRUE,TRUE,,,,,,,FEW,7500,BKN,9000,OVC,11000,,,VFR,,,,,,,,,,,,METAR,47
KCDW 220353Z 31003KT 10SM CLR 00/M13 A3032 RMK AO2 SLP276 T00001128,KCDW,2024-03-22T03:53:00Z,40.8764,-74.2829,0,-12.8,310,3,,10+,30.32,1027.6,,,TRUE,,,,,,,CLR,,,,,,,,VFR,,,,,,,,,,,,METAR,52
KCDS 220353Z AUTO 11004KT 10SM CLR 11/10 A2988 RMK AO2 SLP111 T01110100,KCDS,2024-03-22T03:53:00Z,34.4275,-100.284,11.1,10,110,4,,10+,29.88,1011.1,,TRUE,TRUE,,,,,,,CLR,,,,,,,,VFR,,,,,,,,,,,,METAR,595
KCDR 220353Z AUTO 00000KT 10SM BKN100 BKN110 01/M07 A3000 RMK AO2 SLP195 T00061072 $,KCDR,2024-03-22T03:53:00Z,42.8374,-103.098,0.6,-7.2,0,0,,10+,30.00,1019.5,,TRUE,TRUE,TRUE,,,,,,BKN,10000,BKN,11000,,,,,VFR,,,,,,,,,,,,METAR,1002
KCDC 220353Z AUTO 14006KT 10SM FEW095 09/M01 A3012 RMK AO2 SLP164 T00941011,KCDC,2024-03-22T03:53:00Z,37.7067,-113.097,9.4,-1.1,140,6,,10+,30.12,1016.4,,TRUE,TRUE,,,,,,,FEW,9500,,,,,,,VFR,,,,,,,,,,,,METAR,1703
KCCR 220353Z 24007KT 10SM CLR 14/07 A3009 RMK AO2 SLP174 T01440072,KCCR,2024-03-22T03:53:00Z,37.9916,-122.053,14.4,7.2,240,7,,10+,30.09,1017.4,,,TRUE,,,,,,,CLR,,,,,,,,VFR,,,,,,,,,,,,METAR,6
KCAG 220353Z AUTO 00000KT 10SM OVC085 04/01 A3009 RMK AO2 SLP190 T00390006,KCAG,2024-03-22T03:53:00Z,40.493,-107.524,3.9,0.6,0,0,,10+,30.09,1019,,TRUE,TRUE,,,,,,,OVC,8500,,,,,,,VFR,,,,,,,,,,,,METAR,1888
KBYI 220353Z AUTO 25006KT 10SM CLR 07/M01 A3007 RMK AO2 SLP174 T00671011,KBYI,2024-03-22T03:53:00Z,42.5452,-113.769,6.7,-1.1,250,6,,10+,30.07,1017.4,,TRUE,TRUE,,,,,,,CLR,,,,,,,,VFR,,,,,,,,,,,,METAR,1263
KBYG 220353Z AUTO 00000KT 10SM BKN065 01/M01 A2997 RMK AO2 SLP169 T00061011,KBYG,2024-03-22T03:53:00Z,44.3812,-106.719,0.6,-1.1,0,0,,10+,29.97,1016.9,,TRUE,TRUE,,,,,,,BKN,6500,,,,,,,VFR,,,,,,,,,,,,METAR,1503
KBWG 220353Z AUTO 06007KT 10SM CLR 09/M04 A3011 RMK AO2 SLP196 T00891039,KBWG,2024-03-22T03:53:00Z,36.9647,-86.4238,8.9,-3.9,60,7,,10+,30.11,1019.6,,TRUE,TRUE,,,,,,,CLR,,,,,,,,VFR,,,,,,,,,,,,METAR,159
KBVY 220353Z AUTO 30013G24KT 10SM CLR M02/M13 A3014 RMK AO2 SLP204 T10221133,KBVY,2024-03-22T03:53:00Z,42.5841,-70.9153,-2.2,-13.3,300,13,24,10+,30.14,1020.4,,TRUE,TRUE,,,,,,,CLR,,,,,,,,VFR,,,,,,,,,,,,METAR,28
KBVO 220353Z AUTO 00000KT 10SM SCT060 BKN080 OVC120 13/11 A2995 RMK AO2 SLP137 T01330111,KBVO,2024-03-22T03:53:00Z,36.7664,-96.0129,13.3,11.1,0,0,,10+,29.95,1013.7,,TRUE,TRUE,,,,,,,SCT,6000,BKN,8000,OVC,12000,,,VFR,,,,,,,,,,,,METAR,210
KBUR 220353Z 17004KT 9SM CLR 14/11 A3008 RMK AO2 SLP178 T01440111,KBUR,2024-03-22T03:53:00Z,34.1996,-118.365,14.4,11.1,170,4,,9,30.08,1017.8,,,TRUE,,,,,,,CLR,,,,,,,,VFR,,,,,,,,,,,,METAR,221
KBTM 220353Z AUTO 29006KT 10SM SCT050 OVC075 04/M03 A3003 RMK AO2 SLP180 T00391028,KBTM,2024-03-22T03:53:00Z,45.9644,-112.501,3.9,-2.8,290,6,,10+,30.03,1018,,TRUE,TRUE,,,,,,,SCT,5000,OVC,7500,,,,,VFR,,,,,,,,,,,,METAR,1680
KBTL 220353Z AUTO 07004KT 10SM FEW120 M01/M10 A3025 RMK AO2 SLP256 T10061100,KBTL,2024-03-22T03:53:00Z,42.3119,-85.2415,-0.6,-10,70,4,,10+,30.25,1025.6,,TRUE,TRUE,,,,,,,FEW,12000,,,,,,,VFR,,,,,,,,,,,,METAR,282
KBRO 220353Z 00000KT 5SM BR CLR 21/20 A2985 RMK AO2 SLP105 T02060200,KBRO,2024-03-22T03:53:00Z,25.9146,-97.4231,20.6,20,0,0,,5,29.85,1010.5,,,TRUE,,,,,,BR,CLR,,,,,,,,MVFR,,,,,,,,,,,,METAR,6
KBRL 220353Z AUTO 13013G20KT 10SM OVC060 06/M06 A3007 RMK AO2 SLP187 T00611056,KBRL,2024-03-22T03:53:00Z,40.7729,-91.1255,6.1,-5.6,130,13,20,10+,30.07,1018.7,,TRUE,TRUE,,,,,,,OVC,6000,,,,,,,VFR,,,,,,,,,,,,METAR,208
KBPK 220353Z AUTO 13005KT 10SM OVC060 13/04 A2999 RMK AO2 RAE0256 SLP151 P0000 T01280039,KBPK,2024-03-22T03:53:00Z,36.3705,-92.4719,12.8,3.9,130,5,,10+,29.99,1015.1,,TRUE,TRUE,,,,,,,OVC,6000,,,,,,,VFR,,,,,,0.005,,,,,,METAR,279
KBPI 220353Z AUTO 31004KT 10SM BKN060 03/M06 A3008 RMK AO2 SLP163 T00331061,KBPI,2024-03-22T03:53:00Z,42.578,-110.11,3.3,-6.1,310,4,,10+,30.08,1016.3,,TRUE,TRUE,,,,,,,BKN,6000,,,,,,,VFR,,,,,,,,,,,,METAR,2120
KBOI 220353Z AUTO 16003KT 10SM CLR 11/00 A3003 RMK AO2 SLP164 T01110000,KBOI,2024-03-22T03:53:00Z,43.567,-116.241,11.1,0,160,3,,10+,30.03,1016.4,,TRUE,TRUE,,,,,,,CLR,,,,,,,,VFR,,,,,,,,,,,,METAR,860
KBNO 220353Z AUTO 09006KT 10SM OVC080 09/03 A3003 RMK AO2 SLP167 T00890028,KBNO,2024-03-22T03:53:00Z,43.5949,-118.958,8.9,2.8,90,6,,10+,30.03,1016.7,,TRUE,TRUE,,,,,,,OVC,8000,,,,,,,VFR,,,,,,,,,,,,METAR,1263
KBNA 220353Z 06004KT 10SM OVC150 13/M03 A3007 RMK AO2 SLP181 T01331033,KBNA,2024-03-22T03:53:00Z,36.1105,-86.6881,13.3,-3.3,60,4,,10+,30.07,1018.1,,,TRUE,,,,,,,OVC,15000,,,,,,,VFR,,,,,,,,,,,,METAR,168
KBMQ 220353Z AUTO 28003KT 10SM CLR 12/12 A2989 RMK AO2 SLP114 T01170117,KBMQ,2024-03-22T03:53:00Z,30.7407,-98.2354,11.7,11.7,280,3,,10+,29.89,1011.4,,TRUE,TRUE,,,,,,,CLR,,,,,,,,VFR,,,,,,,,,,,,METAR,387
KBMG 220353Z AUTO 08006KT 10SM CLR 04/M08 A3015 RMK AO2 SLP214 T00391083,KBMG,2024-03-22T03:53:00Z,39.1432,-86.6168,3.9,-8.3,80,6,,10+,30.15,1021.4,,TRUE,TRUE,,,,,,,CLR,,,,,,,,VFR,,,,,,,,,,,,METAR,254
KBLI 220353Z 00000KT 10SM BKN070 10/06 A3006 RMK AO2 SLP189 T01000061 $,KBLI,2024-03-22T03:53:00Z,48.7991,-122.541,10,6.1,0,0,,10+,30.06,1018.9,,,TRUE,TRUE,,,,,,BKN,7000,,,,,,,VFR,,,,,,,,,,,,METAR,46
KBKV 220353Z AUTO 12010KT 10SM SCT090 22/17 A3003 RMK AO2 SLP169 T02170167,KBKV,2024-03-22T03:53:00Z,28.4739,-82.4537,21.7,16.7,120,10,,10+,30.03,1016.9,,TRUE,TRUE,,,,,,,SCT,9000,,,,,,,VFR,,,,,,,,,,,,METAR,21
KBKL 220353Z 10005KT 10SM CLR M01/M11 A3033 RMK AO2 SLP278 T10061111,KBKL,2024-03-22T03:53:00Z,41.5173,-81.6832,-0.6,-11.1,100,5,,10+,30.33,1027.8,,,TRUE,,,,,,,CLR,,,,,,,,VFR,,,,,,,,,,,,METAR,177
KBKE 220353Z AUTO 26006KT 10SM CLR 06/01 A3007 RMK AO2 SLP186 T00610006,KBKE,2024-03-22T03:53:00Z,44.843,-117.81,6.1,0.6,260,6,,10+,30.07,1018.6,,TRUE,TRUE,,,,,,,CLR,,,,,,,,VFR,,,,,,,,,,,,METAR,1025
KBIV 220353Z AUTO 10004KT 10SM BKN110 M02/M09 A3026 RMK AO2 SLP256 T10171089,KBIV,2024-03-22T03:53:00Z,42.7463,-86.0968,-1.7,-8.9,100,4,,10+,30.26,1025.6,,TRUE,TRUE,,,,,,,BKN,11000,,,,,,,VFR,,,,,,,,,,,,METAR,207
KBHM 220353Z 00000KT 10SM SCT110 OVC150 17/09 A3005 RMK AO2 SLP170 T01670089,KBHM,2024-03-22T03:53:00Z,33.5655,-86.7449,16.7,8.9,0,0,,10+,30.05,1017,,,TRUE,,,,,,,SCT,11000,OVC,15000,,,,,VFR,,,,,,,,,,,,METAR,191
KBGR 220353Z 29014G26KT 10SM SCT120 M05/M12 A2988 RMK AO2 PK WND 27026/0353 SLP122 T10501122,KBGR,2024-03-22T03:53:00Z,44.7979,-68.8195,-5,-12.2,290,14,26,10+,29.88,1012.2,,,TRUE,,,,,,,SCT,12000,,,,,,,VFR,,,,,,,,,,,,METAR,45
KBGM 220353Z AUTO 30008KT 10SM CLR M06/M13 A3024 RMK AO2 SLP266 T10611128,KBGM,2024-03-22T03:53:00Z,42.2068,-75.9799,-6.1,-12.8,300,8,,10+,30.24,1026.6,,TRUE,TRUE,,,,,,,CLR,,,,,,,,VFR,,,,,,,,,,,,METAR,485
KBFM 220353Z AUTO 13006KT 10SM FEW070 SCT090 OVC110 17/12 A3002 RMK AO2 RAB0258E15 SLP164 P0000 T01720117,KBFM,2024-03-22T03:53:00Z,30.6147,-88.063,17.2,11.7,130,6,,10+,30.02,1016.4,,TRUE,TRUE,,,,,,,FEW,7000,SCT,9000,OVC,11000,,,VFR,,,,,,0.005,,,,,,METAR,7
KBFF 220353Z AUTO 30006KT 10SM CLR 02/M07 A3001 RMK AO2 SLP164 T00221067,KBFF,2024-03-22T03:53:00Z,41.8747,-103.601,2.2,-6.7,300,6,,10+,30.01,1016.4,,TRUE,TRUE,,,,,,,CLR,,,,,,,,VFR,,,,,,,,,,,,METAR,1204
KBFD 220353Z AUTO 00000KT 10SM CLR M10/M13 A3025 RMK AO2 SLP276 T11001133,KBFD,2024-03-22T03:53:00Z,41.7984,-78.6354,-10,-13.3,0,0,,10+,30.25,1027.6,,TRUE,TRUE,,,,,,,CLR,,,,,,,,VFR,,,,,,,,,,,,METAR,642
KBEH 220353Z AUTO 08004KT 10SM BKN110 00/M07 A3023 RMK AO2 SLP245 T00001067,KBEH,2024-03-22T03:53:00Z,42.129,-86.4152,0,-6.7,80,4,,10+,30.23,1024.5,,TRUE,TRUE,,,,,,,BKN,11000,,,,,,,VFR,,,,,,,,,,,,METAR,196
KBDE 220353Z AUTO 08003KT 10SM CLR M05/M16 A3022 RMK AO2 SLP256 T10501156,KBDE,2024-03-22T03:53:00Z,48.7261,-94.6122,-5,-15.6,80,3,,10+,30.22,1025.6,,TRUE,TRUE,,,,,,,CLR,,,,,,,,VFR,,,,,,,,,,,,METAR,330
KBCE 220353Z AUTO 30009KT 10SM FEW110 03/M01 A3019 RMK AO2 SLP164 T00281011,KBCE,2024-03-22T03:53:00Z,37.7013,-112.149,2.8,-1.1,300,9,,10+,30.19,1016.4,,TRUE,TRUE,,,,,,,FEW,11000,,,,,,,VFR,,,,,,,,,,,,METAR,2311
KBBW 220353Z AUTO 14008KT 10SM CLR 08/02 A2976 RMK AO2 SLP084 T00780017,KBBW,2024-03-22T03:53:00Z,41.4365,-99.6385,7.8,1.7,140,8,,10+,29.76,1008.4,,TRUE,TRUE,,,,,,,CLR,,,,,,,,VFR,,,,,,,,,,,,METAR,771
KBAF 220353Z 30011G18KT 10SM FEW050 M03/M14 A3023 RMK AO2 PK WND 31026/0312 SLP244 T10281144,KBAF,2024-03-22T03:53:00Z,42.16,-72.7124,-2.8,-14.4,300,11,18,10+,30.23,1024.4,,,TRUE,,,,,,,FEW,5000,,,,,,,VFR,,,,,,,,,,,,METAR,80
KAZO 220353Z AUTO 00000KT 10SM FEW100 00/M09 A3025 RMK AO2 SLP255 T00001089,KAZO,2024-03-22T03:53:00Z,42.2283,-85.546,0,-8.9,0,0,,10+,30.25,1025.5,,TRUE,TRUE,,,,,,,FEW,10000,,,,,,,VFR,,,,,,,,,,,,METAR,264
KAWM 220353Z AUTO 06003KT 10SM CLR 16/07 A2997 RMK AO2 SLP147 T01560067,KAWM,2024-03-22T03:53:00Z,35.1401,-90.2359,15.6,6.7,60,3,,10+,29.97,1014.7,,TRUE,TRUE,,,,,,,CLR,,,,,,,,VFR,,,,,,,,,,,,METAR,64
KAUS 220353Z 19007KT 10SM FEW045 SCT095 13/12 A2986 RMK AO2 RAE23 TSE20 SLP111 FRQ LTG DSNT E TS MOV E P0002 T01280122,KAUS,2024-03-22T03:53:00Z,30.2099,-97.6806,12.8,12.2,190,7,,10+,29.86,1011.1,,,TRUE,,,,,,,FEW,4500,SCT,9500,,,,,VFR,,,,,,0.02,,,,,,METAR,148
KAUG 220353Z AUTO 29015G27KT 10SM CLR M05/M14 A2997 RMK AO2 PK WND 29030/0341 SLP153 T10501139,KAUG,2024-03-22T03:53:00Z,44.3161,-69.797,-5,-13.9,290,15,27,10+,29.97,1015.3,,TRUE,TRUE,,,,,,,CLR,,,,,,,,VFR,,,,,,,,,,,,METAR,107
KASX 220353Z AUTO 01003KT 10SM OVC100 M05/M11 A3022 RMK AO2 SLP250 T10501106,KASX,2024-03-22T03:53:00Z,46.5468,-90.9184,-5,-10.6,10,3,,10+,30.22,1025,,TRUE,TRUE,,,,,,,OVC,10000,,,,,,,VFR,,,,,,,,,,,,METAR,249
KASE 220353Z AUTO 21005KT 10SM FEW055 SCT080 BKN100 01/01 A3015 RMK AO2 RAE32 SLP167 P0000 T00110006,KASE,2024-03-22T03:53:00Z,39.2299,-106.871,1.1,0.6,210,5,,10+,30.15,1016.7,,TRUE,TRUE,,,,,,,FEW,5500,SCT,8000,BKN,10000,,,VFR,,,,,,0.005,,,,,,METAR,2384
KASD 220353Z AUTO 11003KT 10SM CLR 15/13 A2994 RMK AO2 SLP137 T01500128,KASD,2024-03-22T03:53:00Z,30.3436,-89.8224,15,12.8,110,3,,10+,29.94,1013.7,,TRUE,TRUE,,,,,,,CLR,,,,,,,,VFR,,,,,,,,,,,,METAR,8
KARB 220353Z AUTO 00000KT 10SM FEW120 M03/M11 A3029 RMK AO2 SLP268 T10281106,KARB,2024-03-22T03:53:00Z,42.2239,-83.7398,-2.8,-10.6,0,0,,10+,30.29,1026.8,,TRUE,TRUE,,,,,,,FEW,12000,,,,,,,VFR,,,,,,,,,,,,METAR,251
KAPF 220353Z AUTO 12010KT 10SM CLR 22/18 A3005 RMK AO2 SLP173 T02170178,KAPF,2024-03-22T03:53:00Z,26.155,-81.7751,21.7,17.8,120,10,,10+,30.05,1017.3,,TRUE,TRUE,,,,,,,CLR,,,,,,,,VFR,,,,,,,,,,,,METAR,2
KAPA 220353Z 32010KT 10SM SCT100 BKN250 11/M06 A2996 RMK AO2 SLP115 T01111056,KAPA,2024-03-22T03:53:00Z,39.5599,-104.848,11.1,-5.6,320,10,,10+,29.96,1011.5,,,TRUE,,,,,,,SCT,10000,BKN,25000,,,,,VFR,,,,,,,,,,,,METAR,1791
KAOO 220353Z AUTO 35005KT 10SM CLR M02/M13 A3027 RMK AO2 SLP271 T10221128,KAOO,2024-03-22T03:53:00Z,40.2999,-78.3168,-2.2,-12.8,350,5,,10+,30.27,1027.1,,TRUE,TRUE,,,,,,,CLR,,,,,,,,VFR,,,,,,,,,,,,METAR,450
KAOH 220353Z AUTO 09008KT 10SM CLR M02/M08 A3025 RMK AO2 SLP256 T10221083,KAOH,2024-03-22T03:53:00Z,40.7081,-84.0214,-2.2,-8.3,90,8,,10+,30.25,1025.6,,TRUE,TRUE,,,,,,,CLR,,,,,,,,VFR,,,,,,,,,,,,METAR,294
KANB 220353Z AUTO 00000KT 10SM OVC100 16/11 A3004 RMK AO2 SLP171 T01560106,KANB,2024-03-22T03:53:00Z,33.5904,-85.8479,15.6,10.6,0,0,,10+,30.04,1017.1,,TRUE,TRUE,,,,,,,OVC,10000,,,,,,,VFR,,,,,,,,,,,,METAR,187
KAMW 220353Z AUTO 10008KT 10SM SCT055 BKN080 OVC110 05/M09 A3000 RMK AO2 SLP164 T00501089,KAMW,2024-03-22T03:53:00Z,41.9905,-93.6185,5,-8.9,100,8,,10+,30.00,1016.4,,TRUE,TRUE,,,,,,,SCT,5500,BKN,8000,OVC,11000,,,VFR,,,,,,,,,,,,METAR,282
KAMG 220353Z AUTO 09004KT 10SM CLR 17/08 A3009 RMK AO2 SLP186 T01670078,KAMG,2024-03-22T03:53:00Z,31.5401,-82.5074,16.7,7.8,90,4,,10+,30.09,1018.6,,TRUE,TRUE,,,,,,,CLR,,,,,,,,VFR,,,,,,,,,,,,METAR,61
KAMA 220353Z 16003KT 10SM CLR 07/06 A2991 RMK AO2 SLP109 T00670056,KAMA,2024-03-22T03:53:00Z,35.2203,-101.717,6.7,5.6,160,3,,10+,29.91,1010.9,,,TRUE,,,,,,,CLR,,,,,,,,VFR,,,,,,,,,,,,METAR,1102
KALW 220353Z AUTO 12006KT 10SM BKN100 11/03 A3004 RMK AO2 SLP175 T01060033,KALW,2024-03-22T03:53:00Z,46.0946,-118.286,10.6,3.3,120,6,,10+,30.04,1017.5,,TRUE,TRUE,,,,,,,BKN,10000,,,,,,,VFR,,,,,,,,,,,,METAR,355
KALI 220353Z AUTO 32005KT 10SM CLR 17/16 A2987 RMK AO2 SLP114 T01720161,KALI,2024-03-22T03:53:00Z,27.7413,-98.0251,17.2,16.1,320,5,,10+,29.87,1011.4,,TRUE,TRUE,,,,,,,CLR,,,,,,,,VFR,,,,,,,,,,,,METAR,52
KAKO 220353Z AUTO 32011KT 10SM FEW110 12/M03 A2989 RMK AO2 SLP096 T01171033,KAKO,2024-03-22T03:53:00Z,40.1743,-103.215,11.7,-3.3,320,11,,10+,29.89,1009.6,,TRUE,TRUE,,,,,,,FEW,11000,,,,,,,VFR,,,,,,,,,,,,METAR,1431
KAIA 220353Z AUTO 32009KT 10SM BKN110 02/M06 A2995 RMK AO2 SLP152 T00171056,KAIA,2024-03-22T03:53:00Z,42.0573,-102.802,1.7,-5.6,320,9,,10+,29.95,1015.2,,TRUE,TRUE,,,,,,,BKN,11000,,,,,,,VFR,,,,,,,,,,,,METAR,1198
KAGS 220353Z 15005KT CLR 16/11 A3012 RMK AO2 SLP197 T01560106 $,KAGS,2024-03-22T03:53:00Z,33.3652,-81.9635,15.6,10.6,150,5,,,30.12,1019.7,,,TRUE,TRUE,,,,,,CLR,,,,,,,,VFR,,,,,,,,,,,,METAR,40
KAGC 220353Z 03004KT 10SM CLR M01/M12 A3028 RMK AO2 SLP274 T10111117,KAGC,2024-03-22T03:53:00Z,40.3551,-79.9215,-1.1,-11.7,30,4,,10+,30.28,1027.4,,,TRUE,,,,,,,CLR,,,,,,,,VFR,,,,,,,,,,,,METAR,380
KAFW 220353Z 00000KT 10SM FEW015 SCT080 BKN160 13/12 A2984 RMK AO2 SLP101 T01330122 $,KAFW,2024-03-22T03:53:00Z,32.99,-97.32,13.3,12.2,0,0,,10+,29.84,1010.1,,,TRUE,TRUE,,,,,,FEW,1500,SCT,8000,BKN,16000,,,VFR,,,,,,,,,,,,METAR,208
KAEX 220353Z 12006KT 10SM OVC009 12/11 A2995 RMK AO2 RAE49 SLP145 P0005 T01220111,KAEX,2024-03-22T03:53:00Z,31.3346,-92.5585,12.2,11.1,120,6,,10+,29.95,1014.5,,,TRUE,,,,,,,OVC,900,,,,,,,IFR,,,,,,0.05,,,,,,METAR,25
KADG 220353Z AUTO 14005KT 10SM SCT110 M02/M09 A3029 RMK AO2 SLP269 T10171094,KADG,2024-03-22T03:53:00Z,41.8678,-84.0794,-1.7,-9.4,140,5,,10+,30.29,1026.9,,TRUE,TRUE,,,,,,,SCT,11000,,,,,,,VFR,,,,,,,,,,,,METAR,244
KACV 220353Z AUTO 05005KT 10SM CLR 11/09 A3003 RMK AO2 SLP176 T01060089,KACV,2024-03-22T03:53:00Z,40.9784,-124.105,10.6,8.9,50,5,,10+,30.03,1017.6,,TRUE,TRUE,,,,,,,CLR,,,,,,,,VFR,,,,,,,,,,,,METAR,63
KACK 220353Z AUTO 28013G26KT 10SM CLR M01/M12 A3018 RMK AO2 PK WND 30033/0300 SLP219 T10061117,KACK,2024-03-22T03:53:00Z,41.2541,-70.0589,-0.6,-11.7,280,13,26,10+,30.18,1021.9,,TRUE,TRUE,,,,,,,CLR,,,,,,,,VFR,,,,,,,,,,,,METAR,12
KABY 220353Z AUTO 15005KT 10SM CLR 17/08 A3007 RMK AO2 SLP180 T01720078,KABY,2024-03-22T03:53:00Z,31.5364,-84.1958,17.2,7.8,150,5,,10+,30.07,1018,,TRUE,TRUE,,,,,,,CLR,,,,,,,,VFR,,,,,,,,,,,,METAR,60
KAAF 220353Z AUTO 26004KT 10SM BKN080 OVC100 18/12 A3007 RMK AO2 RAB26E35 SLP181 P0000 T01780122,KAAF,2024-03-22T03:53:00Z,29.7268,-85.0248,17.8,12.2,260,4,,10+,30.07,1018.1,,TRUE,TRUE,,,,,,,BKN,8000,OVC,10000,,,,,VFR,,,,,,0.005,,,,,,METAR,5
PTYA 220352Z 06012G21KT 12SM FEW016 BKN300 31/22 A2988 RMK SLP118 T03110217,PTYA,2024-03-22T03:52:00Z,9.487,138.077,31.1,21.7,60,12,21,12,29.88,1011.8,,,,,,,,,,FEW,1600,BKN,30000,,,,,VFR,,,,,,,,,,,,METAR,4
PATA 220352Z 00000KT 10SM BKN130 M02/M09 A2993 RMK AO2 SLP140 T10171094 PNO $,PATA,2024-03-22T03:52:00Z,65.173,-152.107,-1.7,-9.4,0,0,,10+,29.93,1014,,,TRUE,TRUE,,,,,,BKN,13000,,,,,,,VFR,,,,,,,,,,,,METAR,62
PABA 220352Z 10SM CLR M09/M11 A2995 RMK AO2 SLP147 T10941106 FZRANO,PABA,2024-03-22T03:52:00Z,70.135,-143.585,-9.4,-10.6,,,,10+,29.95,1014.7,,,TRUE,,,,TRUE,,,CLR,,,,,,,,VFR,,,,,,,,,,,,METAR,1
MMSP 220352Z 25006KT 8SM SKC 22/M04 A3017,MMSP,2024-03-22T03:52:00Z,22.256,-100.93,22,-4,250,6,,8,30.17,,,,,,,,,,,SKC,,,,,,,,VFR,,,,,,,,,,,,METAR,1841
KVTN 220352Z AUTO 02018G27KT 10SM BKN070 OVC085 03/M09 A2993 RMK AO2 PK WND 35037/0333 SLP153 T00331089,KVTN,2024-03-22T03:52:00Z,42.8585,-100.551,3.3,-8.9,20,18,27,10+,29.93,1015.3,,TRUE,TRUE,,,,,,,BKN,7000,OVC,8500,,,,,VFR,,,,,,,,,,,,METAR,790
KTRM 220352Z AUTO 34010KT 10SM CLR 24/05 A2995 RMK AO2 SLP143 T02440050,KTRM,2024-03-22T03:52:00Z,33.6317,-116.164,24.4,5,340,10,,10+,29.95,1014.3,,TRUE,TRUE,,,,,,,CLR,,,,,,,,VFR,,,,,,,,,,,,METAR,-39
KTOL 220352Z 13003KT 10SM FEW110 M02/M11 A3028 RMK AO2 SLP263 T10221106,KTOL,2024-03-22T03:52:00Z,41.5871,-83.8054,-2.2,-10.6,130,3,,10+,30.28,1026.3,,,TRUE,,,,,,,FEW,11000,,,,,,,VFR,,,,,,,,,,,,METAR,206
KTAN 220352Z AUTO 29006G20KT 10SM CLR M01/M14 A3019 RMK AO2 SLP223 T10111144,KTAN,2024-03-22T03:52:00Z,41.8756,-71.0208,-1.1,-14.4,290,6,20,10+,30.19,1022.3,,TRUE,TRUE,,,,,,,CLR,,,,,,,,VFR,,,,,,,,,,,,METAR,8
KSUX 220352Z AUTO 09015KT 10SM BKN055 04/M08 A2992 RMK AO2 SLP139 T00441083,KSUX,2024-03-22T03:52:00Z,42.3917,-96.3795,4.4,-8.3,90,15,,10+,29.92,1013.9,,TRUE,TRUE,,,,,,,BKN,5500,,,,,,,VFR,,,,,,,,,,,,METAR,332
KSPS 220352Z 35008KT 10SM FEW005 OVC020 13/13 A2985 RMK AO2 RAB00E23B37E48 SLP104 P0000 T01330128,KSPS,2024-03-22T03:52:00Z,33.9785,-98.493,13.3,12.8,350,8,,10+,29.85,1010.4,,,TRUE,,,,,,,FEW,500,OVC,2000,,,,,MVFR,,,,,,0.005,,,,,,METAR,310
KSPI 220352Z AUTO 11009KT 10SM CLR 04/M06 A3010 RMK AO2 SLP197 T00441056,KSPI,2024-03-22T03:52:00Z,39.8453,-89.684,4.4,-5.6,110,9,,10+,30.10,1019.7,,TRUE,TRUE,,,,,,,CLR,,,,,,,,VFR,,,,,,,,,,,,METAR,179
KSGF 220352Z 15012KT 10SM BKN095 13/03 A2997 RMK AO2 SLP146 T01330033,KSGF,2024-03-22T03:52:00Z,37.2398,-93.39,13.3,3.3,150,12,,10+,29.97,1014.6,,,TRUE,,,,,,,BKN,9500,,,,,,,VFR,,,,,,,,,,,,METAR,387
KSBD 220352Z 28005KT 10SM CLR 17/07 A3009 RMK LAST,KSBD,2024-03-22T03:52:00Z,34.09,-117.247,17,7,280,5,,10+,30.09,,,,,,,,,,,CLR,,,,,,,,VFR,,,,,,,,,,,,METAR,353
KREO 220352Z AUTO 13004KT 11/M01 A3002 RMK AO1 SLP155 T01061006,KREO,2024-03-22T03:52:00Z,42.5902,-117.865,10.6,-0.6,130,4,,,30.02,1015.5,,TRUE,TRUE,,,,,,,,,,,,,,,VFR,,,,,,,,,,,,METAR,1237
KRAP 220352Z 02008KT 10SM FEW037 BKN047 M04/M07 A3003 RMK AO2 SLP210 T10391067,KRAP,2024-03-22T03:52:00Z,44.0458,-103.054,-3.9,-6.7,20,8,,10+,30.03,1021,,,TRUE,,,,,,,FEW,3700,BKN,4700,,,,,VFR,,,,,,,,,,,,METAR,965
KPYM 220352Z AUTO 28010G22KT 10SM CLR M02/M14 A3016 RMK AO2 PK WND 28026/0332 SLP217 T10171139,KPYM,2024-03-22T03:52:00Z,41.9085,-70.7278,-1.7,-13.9,280,10,22,10+,30.16,1021.7,,TRUE,TRUE,,,,,,,CLR,,,,,,,,VFR,,,,,,,,,,,,METAR,42
KPWK 220352Z AUTO 12006KT 10SM CLR 02/M07 A3022 RMK AO2 SLP239 T00221067 $,KPWK,2024-03-22T03:52:00Z,42.1208,-87.9048,2.2,-6.7,120,6,,10+,30.22,1023.9,,TRUE,TRUE,TRUE,,,,,,CLR,,,,,,,,VFR,,,,,,,,,,,,METAR,194
KPPF 220352Z AUTO 21003KT 9SM -RA BKN085 OVC100 14/12 A2996 RMK AO2 RAE0258B42 SLP143 P0000 T01390117,KPPF,2024-03-22T03:52:00Z,37.3281,-95.5044,13.9,11.7,210,3,,9,29.96,1014.3,,TRUE,TRUE,,,,,,-RA,BKN,8500,OVC,10000,,,,,VFR,,,,,,0.005,,,,,,METAR,265
KP69 220352Z AUTO 36003KT 08/07 A3011 RMK AO1 SLP201 T00830072 $,KP69,2024-03-22T03:52:00Z,46.144,-115.597,8.3,7.2,360,3,,,30.11,1020.1,,TRUE,TRUE,TRUE,,,,,,,,,,,,,,VFR,,,,,,,,,,,,METAR,447
KORE 220352Z AUTO 29006KT 10SM FEW049 M04/M14 A3018 RMK AO2 SLP229 T10391139,KORE,2024-03-22T03:52:00Z,42.57,-72.287,-3.9,-13.9,290,6,,10+,30.18,1022.9,,TRUE,TRUE,,,,,,,FEW,4900,,,,,,,VFR,,,,,,,,,,,,METAR,165
KOMA 220352Z 15011KT 10SM BKN060 08/M06 A2992 RMK AO2 SLP137 T00781056,KOMA,2024-03-22T03:52:00Z,41.3119,-95.9018,7.8,-5.6,150,11,,10+,29.92,1013.7,,,TRUE,,,,,,,BKN,6000,,,,,,,VFR,,,,,,,,,,,,METAR,299
KOKB 220352Z AUTO 00000KT 8SM OVC012 13/12 A3008 RMK AO2 SLP186 T01330117,KOKB,2024-03-22T03:52:00Z,33.2195,-117.35,13.3,11.7,0,0,,8,30.08,1018.6,,TRUE,TRUE,,,,,,,OVC,1200,,,,,,,MVFR,,,,,,,,,,,,METAR,7
KNZY 220352Z 31007KT 10SM SCT015 SCT250 16/12 A3008 RMK AO2 SLP185 T01610122 $,KNZY,2024-03-22T03:52:00Z,32.6922,-117.21,16.1,12.2,310,7,,10+,30.08,1018.5,,,TRUE,TRUE,,,,,,SCT,1500,SCT,25000,,,,,VFR,,,,,,,,,,,,METAR,4
KNRB 220352Z 09007KT 10SM SCT120 OVC250 20/16 A3008 RMK AO2 SLP185 T02000156,KNRB,2024-03-22T03:52:00Z,30.396,-81.423,20,15.6,90,7,,10+,30.08,1018.5,,,TRUE,,,,,,,SCT,12000,OVC,25000,,,,,VFR,,,,,,,,,,,,METAR,4
KNHK 220352Z AUTO 00000KT 10SM CLR 02/M03 A3031 RMK AO2 SLP265 T00171033,KNHK,2024-03-22T03:52:00Z,38.284,-76.408,1.7,-3.3,0,0,,10+,30.31,1026.5,,TRUE,TRUE,,,,,,,CLR,,,,,,,,VFR,,,,,,,,,,,,METAR,5
KNFW 220352Z 00000KT 10SM CLR 14/12 A2984 RMK AO2 SLP091 T01390117 $,KNFW,2024-03-22T03:52:00Z,32.781,-97.436,13.9,11.7,0,0,,10+,29.84,1009.1,,,TRUE,TRUE,,,,,,CLR,,,,,,,,VFR,,,,,,,,,,,,METAR,188
KMWH 220352Z 00000KT 10SM CLR 12/03 A3001 RMK AO2 SLP163 T01220028,KMWH,2024-03-22T03:52:00Z,47.193,-119.315,12.2,2.8,0,0,,10+,30.01,1016.3,,,TRUE,,,,,,,CLR,,,,,,,,VFR,,,,,,,,,,,,METAR,355
KMLI 220352Z AUTO 10009KT 10SM SCT065 BKN110 04/M07 A3010 RMK AO2 SLP198 T00391072,KMLI,2024-03-22T03:52:00Z,41.4482,-90.5237,3.9,-7.2,100,9,,10+,30.10,1019.8,,TRUE,TRUE,,,,,,,SCT,6500,BKN,11000,,,,,VFR,,,,,,,,,,,,METAR,174
KMLF 220352Z AUTO 23009KT 10SM CLR 07/01 A3008 RMK AO2 SLP164 T00720006,KMLF,2024-03-22T03:52:00Z,38.4225,-113.011,7.2,0.6,230,9,,10+,30.08,1016.4,,TRUE,TRUE,,,,,,,CLR,,,,,,,,VFR,,,,,,,,,,,,METAR,1537
KMKE 220352Z 11009KT 10SM OVC060 01/M07 A3022 RMK AO2 SLP242 T00061067,KMKE,2024-03-22T03:52:00Z,42.9549,-87.9045,0.6,-6.7,110,9,,10+,30.22,1024.2,,,TRUE,,,,,,,OVC,6000,,,,,,,VFR,,,,,,,,,,,,METAR,203
KMHK 220352Z AUTO 12004KT 10SM CLR 13/04 A2990 RMK AO2 SLP125 T01280039,KMHK,2024-03-22T03:52:00Z,39.1346,-96.6789,12.8,3.9,120,4,,10+,29.90,1012.5,,TRUE,TRUE,,,,,,,CLR,,,,,,,,VFR,,,,,,,,,,,,METAR,320
KMFD 220352Z AUTO 10006KT 10SM CLR M04/M10 A3027 RMK AO2 SLP269 T10441100,KMFD,2024-03-22T03:52:00Z,40.8204,-82.5177,-4.4,-10,100,6,,10+,30.27,1026.9,,TRUE,TRUE,,,,,,,CLR,,,,,,,,VFR,,,,,,,,,,,,METAR,394
KMEB 220352Z AUTO 14005KT 10SM CLR 11/06 A3020 RMK AO2 SLP224 T01060061,KMEB,2024-03-22T03:52:00Z,34.7913,-79.3683,10.6,6.1,140,5,,10+,30.20,1022.4,,TRUE,TRUE,,,,,,,CLR,,,,,,,,VFR,,,,,,,,,,,,METAR,65
KMDH 220352Z AUTO 07003KT 10SM CLR 07/M05 A3007 RMK AO2 SLP185 T00721050,KMDH,2024-03-22T03:52:00Z,37.7833,-89.2453,7.2,-5,70,3,,10+,30.07,1018.5,,TRUE,TRUE,,,,,,,CLR,,,,,,,,VFR,,,,,,,,,,,,METAR,122
KMBG 220352Z AUTO 08009KT 3SM -SN BKN030 OVC090 M05/M08 A3009 RMK AO2 SLP215 P0001 T10501078,KMBG,2024-03-22T03:52:00Z,45.543,-100.404,-5,-7.8,80,9,,3,30.09,1021.5,,TRUE,TRUE,,,,,,-SN,BKN,3000,OVC,9000,,,,,MVFR,,,,,,0.01,,,,,,METAR,515
KLWC 220352Z AUTO 11004KT 10SM CLR 08/00 A2993 RMK AO1 SLP136 T00830000,KLWC,2024-03-22T03:52:00Z,39.0078,-95.2115,8.3,0,110,4,,10+,29.93,1013.6,,TRUE,TRUE,,,,,,,CLR,,,,,,,,VFR,,,,,,,,,,,,METAR,252
KIWA 220352Z 14005KT 10SM CLR 19/04 A3003,KIWA,2024-03-22T03:52:00Z,33.3008,-111.644,19,4,140,5,,10+,30.03,,,,,,,,,,,CLR,,,,,,,,VFR,,,,,,,,,,,,METAR,420
KIOW 220352Z AUTO 11008KT 10SM BKN060 OVC100 06/M06 A3009 RMK AO2 SLP193 T00611056,KIOW,2024-03-22T03:52:00Z,41.6394,-91.5445,6.1,-5.6,110,8,,10+,30.09,1019.3,,TRUE,TRUE,,,,,,,BKN,6000,OVC,10000,,,,,VFR,,,,,,,,,,,,METAR,199
KIEN 220352Z AUTO 02007KT 10SM CLR 01/M09 A2999 RMK AO2 SLP184 T00061094,KIEN,2024-03-22T03:52:00Z,43.0261,-102.52,0.6,-9.4,20,7,,10+,29.99,1018.4,,TRUE,TRUE,,,,,,,CLR,,,,,,,,VFR,,,,,,,,,,,,METAR,1002
KIAD 220352Z 00000KT 10SM SCT250 03/M11 A3032 RMK AO2 SLP268 T00281106,KIAD,2024-03-22T03:52:00Z,38.9348,-77.4473,2.8,-10.6,0,0,,10+,30.32,1026.8,,,TRUE,,,,,,,SCT,25000,,,,,,,VFR,,,,,,,,,,,,METAR,90
KHUT 220352Z AUTO 17007KT 10SM CLR 11/09 A2990 RMK AO2 SLP119 T01110089,KHUT,2024-03-22T03:52:00Z,38.0682,-97.8607,11.1,8.9,170,7,,10+,29.90,1011.9,,TRUE,TRUE,,,,,,,CLR,,,,,,,,VFR,,,,,,,,,,,,METAR,464
KHIE 220352Z AUTO VRB04G17KT 10SM CLR M08/M16 A3008 RMK AO2 SLP208 T10781156,KHIE,2024-03-22T03:52:00Z,44.3659,-71.5522,-7.8,-15.6,VRB,4,17,10+,30.08,1020.8,,TRUE,TRUE,,,,,,,CLR,,,,,,,,VFR,,,,,,,,,,,,METAR,321
KFIT 220352Z AUTO 28013G19KT 10SM CLR M03/M14 A3017 RMK AO2 SLP220 T10331139,KFIT,2024-03-22T03:52:00Z,42.5549,-71.757,-3.3,-13.9,280,13,19,10+,30.17,1022,,TRUE,TRUE,,,,,,,CLR,,,,,,,,VFR,,,,,,,,,,,,METAR,102
KEST 220352Z AUTO 07016KT 10SM OVC060 M02/M06 A3005 RMK AO2 SLP193 T10171061,KEST,2024-03-22T03:52:00Z,43.4008,-94.7476,-1.7,-6.1,70,16,,10+,30.05,1019.3,,TRUE,TRUE,,,,,,,OVC,6000,,,,,,,VFR,,,,,,,,,,,,METAR,401
KDVN 220352Z AUTO 12010KT 10SM CLR 04/M08 A3012 RMK AO2 SLP202 T00441083,KDVN,2024-03-22T03:52:00Z,41.6133,-90.5948,4.4,-8.3,120,10,,10+,30.12,1020.2,,TRUE,TRUE,,,,,,,CLR,,,,,,,,VFR,,,,,,,,,,,,METAR,227
KDPA 220352Z 10007KT 10SM FEW120 02/M07 A3018 RMK AO2 SLP228 T00171067,KDPA,2024-03-22T03:52:00Z,41.8964,-88.2512,1.7,-6.7,100,7,,10+,30.18,1022.8,,,TRUE,,,,,,,FEW,12000,,,,,,,VFR,,,,,,,,,,,,METAR,228
KDDC 220352Z AUTO 15010KT 10SM CLR 11/07 A2989 RMK AO2 SLP117 T01060067,KDDC,2024-03-22T03:52:00Z,37.7711,-99.9692,10.6,6.7,150,10,,10+,29.89,1011.7,,TRUE,TRUE,,,,,,,CLR,,,,,,,,VFR,,,,,,,,,,,,METAR,786
KDCA 220352Z 02007KT 10SM BKN250 07/M11 A3032 RMK AO2 SLP268 T00671106 $,KDCA,2024-03-22T03:52:00Z,38.8472,-77.0345,6.7,-10.6,20,7,,10+,30.32,1026.8,,,TRUE,TRUE,,,,,,BKN,25000,,,,,,,VFR,,,,,,,,,,,,METAR,4
KCVG 220352Z 08011KT 10SM CLR 03/M12 A3019 RMK AO2 SLP229 T00281117,KCVG,2024-03-22T03:52:00Z,39.0444,-84.6724,2.8,-11.7,80,11,,10+,30.19,1022.9,,,TRUE,,,,,,,CLR,,,,,,,,VFR,,,,,,,,,,,,METAR,264
KCQX 220352Z AUTO 28006G21KT 10SM CLR M01/M13 A3016 RMK AO2 SLP214 T10111133,KCQX,2024-03-22T03:52:00Z,41.6878,-69.9932,-1.1,-13.3,280,6,21,10+,30.16,1021.4,,TRUE,TRUE,,,,,,,CLR,,,,,,,,VFR,,,,,,,,,,,,METAR,17
KCNU 220352Z AUTO 17007KT 10SM FEW075 OVC095 16/10 A2994 RMK AO2 SLP135 T01560100,KCNU,2024-03-22T03:52:00Z,37.6705,-95.4846,15.6,10,170,7,,10+,29.94,1013.5,,TRUE,TRUE,,,,,,,FEW,7500,OVC,9500,,,,,VFR,,,,,,,,,,,,METAR,301
KCLT 220352Z 14007KT 10SM BKN250 15/02 A3015 RMK AO2 SLP220 T01500022,KCLT,2024-03-22T03:52:00Z,35.2225,-80.9543,15,2.2,140,7,,10+,30.15,1022,,,TRUE,,,,,,,BKN,25000,,,,,,,VFR,,,,,,,,,,,,METAR,223
KCKV 220352Z AUTO 09008KT 10SM CLR 10/M04 A3007 RMK AO2 SLP183 T01001039,KCKV,2024-03-22T03:52:00Z,36.6169,-87.4118,10,-3.9,90,8,,10+,30.07,1018.3,,TRUE,TRUE,,,,,,,CLR,,,,,,,,VFR,,,,,,,,,,,,METAR,166
KCID 220352Z 09008KT 10SM BKN060 BKN090 OVC110 03/M07 A3005 RMK AO2 SLP185 T00331067,KCID,2024-03-22T03:52:00Z,41.8829,-91.7246,3.3,-6.7,90,8,,10+,30.05,1018.5,,,TRUE,,,,,,,BKN,6000,BKN,9000,OVC,11000,,,VFR,,,,,,,,,,,,METAR,257
KCFV 220352Z AUTO 00000KT 9SM BKN075 OVC095 13/12 A2993 RMK AO2 RAE42 SLP135 P0001 T01330122,KCFV,2024-03-22T03:52:00Z,37.0912,-95.5726,13.3,12.2,0,0,,9,29.93,1013.5,,TRUE,TRUE,,,,,,,BKN,7500,OVC,9500,,,,,VFR,,,,,,0.01,,,,,,METAR,228
KBML 220352Z AUTO 31010G20KT 10SM OVC035 M08/M15 A3001 RMK AO2 SLP184 T10781150,KBML,2024-03-22T03:52:00Z,44.576,-71.1782,-7.8,-15,310,10,20,10+,30.01,1018.4,,TRUE,TRUE,,,,,,,OVC,3500,,,,,,,VFR,,,,,,,,,,,,METAR,344
KBLU 220352Z AUTO 12004KT 10SM CLR 06/00 A3016 RMK AO2 SLP190 T00610000,KBLU,2024-03-22T03:52:00Z,39.2762,-120.709,6.1,0,120,4,,10+,30.16,1019,,TRUE,TRUE,,,,,,,CLR,,,,,,,,VFR,,,,,,,,,,,,METAR,1605
KBLH 220352Z AUTO 23005KT 10SM CLR 23/04 A2996 RMK AO2 SLP141 T02330039,KBLH,2024-03-22T03:52:00Z,33.6188,-114.715,23.3,3.9,230,5,,10+,29.96,1014.1,,TRUE,TRUE,,,,,,,CLR,,,,,,,,VFR,,,,,,,,,,,,METAR,119
KBLF 220352Z AUTO 08003KT 10SM BKN100 06/M10 A3020 RMK AO2 SLP229 T00561100,KBLF,2024-03-22T03:52:00Z,37.2978,-81.2036,5.6,-10,80,3,,10+,30.20,1022.9,,TRUE,TRUE,,,,,,,BKN,10000,,,,,,,VFR,,,,,,,,,,,,METAR,871
KBIS 220352Z 04005KT 10SM FEW028 SCT110 M07/M08 A3018 RMK AO2 SNE14 SLP250 P0000 T10721083,KBIS,2024-03-22T03:52:00Z,46.7823,-100.757,-7.2,-8.3,40,5,,10+,30.18,1025,,,TRUE,,,,,,,FEW,2800,SCT,11000,,,,,VFR,,,,,,0.005,,,,,,METAR,506
KBDR 220352Z AUTO 31013G20KT 10SM CLR M01/M13 A3028 RMK AO2 SLP254 T10061128,KBDR,2024-03-22T03:52:00Z,41.1642,-73.1266,-0.6,-12.8,310,13,20,10+,30.28,1025.4,,TRUE,TRUE,,,,,,,CLR,,,,,,,,VFR,,,,,,,,,,,,METAR,5
KBAN 220352Z AUTO 10SM CLR 04/M06 A3013 RMK AO2 SLP176 T00441061 $,KBAN,2024-03-22T03:52:00Z,38.355,-119.522,4.4,-6.1,,,,10+,30.13,1017.6,,TRUE,TRUE,TRUE,,,,,,CLR,,,,,,,,VFR,,,,,,,,,,,,METAR,2067
KATL 220352Z 12003KT 10SM BKN150 OVC200 18/07 A3006 RMK AO2 SLP174 T01830067,KATL,2024-03-22T03:52:00Z,33.6297,-84.4422,18.3,6.7,120,3,,10+,30.06,1017.4,,,TRUE,,,,,,,BKN,15000,OVC,20000,,,,,VFR,,,,,,,,,,,,METAR,309
KARR 220352Z AUTO 08009KT 10SM SCT110 02/M07 A3018 RMK AO2 SLP225 T00171072,KARR,2024-03-22T03:52:00Z,41.7713,-88.4815,1.7,-7.2,80,9,,10+,30.18,1022.5,,TRUE,TRUE,,,,,,,SCT,11000,,,,,,,VFR,,,,,,,,,,,,METAR,213
KAQW 220352Z AUTO 28014G24KT 10SM SCT050 M03/M13 A3021 RMK AO2 PK WND 27029/0315 SLP241 T10331133,KAQW,2024-03-22T03:52:00Z,42.6973,-73.1696,-3.3,-13.3,280,14,24,10+,30.21,1024.1,,TRUE,TRUE,,,,,,,SCT,5000,,,,,,,VFR,,,,,,,,,,,,METAR,196
KALS 220352Z AUTO 33011KT 10SM CLR 06/M12 A3005 RMK AO2 SLP144 T00611117,KALS,2024-03-22T03:52:00Z,37.4393,-105.862,6.1,-11.7,330,11,,10+,30.05,1014.4,,TRUE,TRUE,,,,,,,CLR,,,,,,,,VFR,,,,,,,,,,,,METAR,2299
KAFN 220352Z AUTO VRB05KT 10SM CLR M04/M16 A3012 RMK AO2 SLP219 T10441156,KAFN,2024-03-22T03:52:00Z,42.8067,-72.0013,-4.4,-15.6,VRB,5,,10+,30.12,1021.9,,TRUE,TRUE,,,,,,,CLR,,,,,,,,VFR,,,,,,,,,,,,METAR,308
KABQ 220352Z 30008KT 10SM FEW140 13/M08 A3003 RMK AO2 SLP129 T01331078,KABQ,2024-03-22T03:52:00Z,35.0419,-106.615,13.3,-7.8,300,8,,10+,30.03,1012.9,,,TRUE,,,,,,,FEW,14000,,,,,,,VFR,,,,,,,,,,,,METAR,1620
KABI 220352Z 10SM CLR 12/11 A2990 RMK AO2 SLP114 T01170106,KABI,2024-03-22T03:52:00Z,32.4106,-99.6821,11.7,10.6,,,,10+,29.90,1011.4,,,TRUE,,,,,,,CLR,,,,,,,,VFR,,,,,,,,,,,,METAR,543
PTKK 220351Z 09007KT 15SM FEW014 BKN280 31/27 A2977 RMK SLP083 T03090272,PTKK,2024-03-22T03:51:00Z,7.462,151.843,30.9,27.2,90,7,,15,29.77,1008.3,,,,,,,,,,FEW,1400,BKN,28000,,,,,VFR,,,,,,,,,,,,METAR,3
PKMR 220351Z 02003KT 20SM FEW016 FEW300 31/26 A2981 RMK SLP095 T03120261,PKMR,2024-03-22T03:51:00Z,7.09,171.383,31.2,26.1,20,3,,20,29.81,1009.5,,,,,,,,,,FEW,1600,FEW,30000,,,,,VFR,,,,,,,,,,,,METAR,7
PHBK 220351Z AUTO 10SM CLR 27/16 A3011 RMK AO2 SLP198 T02670156,PHBK,2024-03-22T03:51:00Z,22.034,-159.783,26.7,15.6,,,,10+,30.11,1019.8,,TRUE,TRUE,,,,,,,CLR,,,,,,,,VFR,,,,,,,,,,,,METAR,5
MUGM 220351Z 34008KT 10SM FEW045 26/20 A3002 RMK AO2 SLP165 T02560200 $,MUGM,2024-03-22T03:51:00Z,19.909,-75.206,25.6,20,340,8,,10+,30.02,1016.5,,,TRUE,TRUE,,,,,,FEW,4500,,,,,,,VFR,,,,,,,,,,,,METAR,21
MMMX 220351Z 24010KT 8SM SKC 20/05 A3030 NOSIG RMK HZY AND FULYR 3RD 4TH QUAD,MMMX,2024-03-22T03:51:00Z,19.436,-99.072,20,5,240,10,,8,30.30,,,,,,TRUE,,,,,SKC,,,,,,,,VFR,,,,,,,,,,,,METAR,2224
KYNG 220351Z 07005KT 10SM FEW200 M05/M11 A3031 RMK AO2 SLP281 T10501106,KYNG,2024-03-22T03:51:00Z,41.2548,-80.6736,-5,-10.6,70,5,,10+,30.31,1028.1,,,TRUE,,,,,,,FEW,20000,,,,,,,VFR,,,,,,,,,,,,METAR,356
KXWA 220351Z AUTO 05005KT 4SM -SN BR OVC055 M07/M08 A3018 RMK AO2 SLP268 P0001 T10671078,KXWA,2024-03-22T03:51:00Z,48.2542,-103.747,-6.7,-7.8,50,5,,4,30.18,1026.8,,TRUE,TRUE,,,,,,-SN BR,OVC,5500,,,,,,,MVFR,,,,,,0.01,,,,,,METAR,717
KVNY 220351Z 09004KT 9SM CLR 16/11 A3006 RMK AO2 SLP177 T01560111,KVNY,2024-03-22T03:51:00Z,34.2121,-118.491,15.6,11.1,90,4,,9,30.06,1017.7,,,TRUE,,,,,,,CLR,,,,,,,,VFR,,,,,,,,,,,,METAR,241
KVCT 220351Z AUTO 08005KT 6SM BR OVC006 19/18 A2986 RMK AO2 SLP109 T01940183,KVCT,2024-03-22T03:51:00Z,28.8624,-96.9301,19.4,18.3,80,5,,6,29.86,1010.9,,TRUE,TRUE,,,,,,BR,OVC,600,,,,,,,IFR,,,,,,,,,,,,METAR,33
KUGN 220351Z AUTO 10008KT 10SM OVC085 02/M07 A3021 RMK AO2 SLP239 T00171067,KUGN,2024-03-22T03:51:00Z,42.4255,-87.8634,1.7,-6.7,100,8,,10+,30.21,1023.9,,TRUE,TRUE,,,,,,,OVC,8500,,,,,,,VFR,,,,,,,,,,,,METAR,217
KTPL 220351Z AUTO 32006KT 10SM SCT100 13/12 A2986 RMK AO2 TSE05RAE29 SLP105 P0006 T01280122,KTPL,2024-03-22T03:51:00Z,31.157,-97.4094,12.8,12.2,320,6,,10+,29.86,1010.5,,TRUE,TRUE,,,,,,,SCT,10000,,,,,,,VFR,,,,,,0.06,,,,,,METAR,206
KTEB 220351Z 32008KT 10SM CLR M01/M12 A3031 RMK AO2 SLP264 T10061117 $,KTEB,2024-03-22T03:51:00Z,40.859,-74.0562,-0.6,-11.7,320,8,,10+,30.31,1026.4,,,TRUE,TRUE,,,,,,CLR,,,,,,,,VFR,,,,,,,,,,,,METAR,3
KSTL 220351Z 11009KT 10SM FEW100 08/M06 A3008 RMK AO2 SLP190 T00781056,KSTL,2024-03-22T03:51:00Z,38.7524,-90.3734,7.8,-5.6,110,9,,10+,30.08,1019,,,TRUE,,,,,,,FEW,10000,,,,,,,VFR,,,,,,,,,,,,METAR,163
KSNT 220351Z AUTO VRB03KT M02/M06 A3010 RMK AO1 SLP167 T10171061,KSNT,2024-03-22T03:51:00Z,44.1708,-114.927,-1.7,-6.1,VRB,3,,,30.10,1016.7,,TRUE,TRUE,,,,,,,,,,,,,,,VFR,,,,,,,,,,,,METAR,1980
KSMX 220351Z AUTO 00000KT 10SM CLR 12/11 A3010 RMK AO2 SLP197 T01220106,KSMX,2024-03-22T03:51:00Z,34.894,-120.452,12.2,10.6,0,0,,10+,30.10,1019.7,,TRUE,TRUE,,,,,,,CLR,,,,,,,,VFR,,,,,,,,,,,,METAR,73
KSMO 220351Z 23003KT 10SM FEW010 15/13 A3009 RMK AO2 SLP187 T01500128,KSMO,2024-03-22T03:51:00Z,34.021,-118.447,15,12.8,230,3,,10+,30.09,1018.7,,,TRUE,,,,,,,FEW,1000,,,,,,,VFR,,,,,,,,,,,,METAR,56
KSLK 220351Z AUTO 24004KT 10SM CLR M11/M18 A3015 RMK AO2 SLP245 T11111183,KSLK,2024-03-22T03:51:00Z,44.3928,-74.2029,-11.1,-18.3,240,4,,10+,30.15,1024.5,,TRUE,TRUE,,,,,,,CLR,,,,,,,,VFR,,,,,,,,,,,,METAR,502
KSJT 220351Z AUTO 07008KT 10SM CLR 14/10 A2990 RMK AO2 SLP115 T01440100,KSJT,2024-03-22T03:51:00Z,31.3517,-100.495,14.4,10,70,8,,10+,29.90,1011.5,,TRUE,TRUE,,,,,,,CLR,,,,,,,,VFR,,,,,,,,,,,,METAR,582
KSDB 220351Z AUTO 32014KT 10SM CLR 10/M01 A3014 RMK AO2 SLP181 T01001006,KSDB,2024-03-22T03:51:00Z,34.7433,-118.725,10,-0.6,320,14,,10+,30.14,1018.1,,TRUE,TRUE,,,,,,,CLR,,,,,,,,VFR,,,,,,,,,,,,METAR,1377
KSAT 220351Z 00000KT 10SM BKN006 BKN050 OVC250 15/14 A2987 RMK AO2 RAE09 TSE41 SLP103 TS MOVD E P0000 T01500139,KSAT,2024-03-22T03:51:00Z,29.5443,-98.4839,15,13.9,0,0,,10+,29.87,1010.3,,,TRUE,,,,,,,BKN,600,BKN,5000,OVC,25000,,,IFR,,,,,,0.005,,,,,,METAR,246
KSAN 220351Z 32005KT 10SM FEW020 SCT250 16/13 A3010 RMK AO2 SLP192 T01560128 $,KSAN,2024-03-22T03:51:00Z,32.7365,-117.197,15.6,12.8,320,5,,10+,30.10,1019.2,,,TRUE,TRUE,,,,,,FEW,2000,SCT,25000,,,,,VFR,,,,,,,,,,,,METAR,3
KSAD 220351Z AUTO 30010KT 10SM CLR 17/01 A3005 RMK AO2 SLP151 T01670011,KSAD,2024-03-22T03:51:00Z,32.8565,-109.636,16.7,1.1,300,10,,10+,30.05,1015.1,,TRUE,TRUE,,,,,,,CLR,,,,,,,,VFR,,,,,,,,,,,,METAR,937
KROW 220351Z AUTO 33007KT 10SM SCT120 17/M02 A2992 RMK AO2 SLP086 T01721017,KROW,2024-03-22T03:51:00Z,33.3074,-104.508,17.2,-1.7,330,7,,10+,29.92,1008.6,,TRUE,TRUE,,,,,,,SCT,12000,,,,,,,VFR,,,,,,,,,,,,METAR,1105
KRDU 220351Z 14005KT 10SM FEW250 12/01 A3020 RMK AO2 SLP227 T01220011,KRDU,2024-03-22T03:51:00Z,35.8923,-78.782,12.2,1.1,140,5,,10+,30.20,1022.7,,,TRUE,,,,,,,FEW,25000,,,,,,,VFR,,,,,,,,,,,,METAR,121
KPWM 220351Z 26015G23KT 10SM FEW050 M03/M14 A3004 RMK AO2 PK WND 29029/0326 SLP174 LAST T10331139 $,KPWM,2024-03-22T03:51:00Z,43.6424,-70.3044,-3.3,-13.9,260,15,23,10+,30.04,1017.4,,,TRUE,TRUE,,,,,,FEW,5000,,,,,,,VFR,,,,,,,,,,,,METAR,15
KPVD 220351Z 29011G19KT 10SM CLR M02/M13 A3022 RMK AO2 SLP232 LAST T10221128 $,KPVD,2024-03-22T03:51:00Z,41.7225,-71.4325,-2.2,-12.8,290,11,19,10+,30.22,1023.2,,,TRUE,TRUE,,,,,,CLR,,,,,,,,VFR,,,,,,,,,,,,METAR,15
KPIT 220351Z 02007KT 10SM CLR M01/M11 A3029 RMK AO2 SLP279 T10111111,KPIT,2024-03-22T03:51:00Z,40.4814,-80.2083,-1.1,-11.1,20,7,,10+,30.29,1027.9,,,TRUE,,,,,,,CLR,,,,,,,,VFR,,,,,,,,,,,,METAR,339
KPHX 220351Z 23003KT 10SM CLR 23/04 A2998 RMK AO2 SLP139 T02280039,KPHX,2024-03-22T03:51:00Z,33.4278,-112.004,22.8,3.9,230,3,,10+,29.98,1013.9,,,TRUE,,,,,,,CLR,,,,,,,,VFR,,,,,,,,,,,,METAR,338
KP59 220351Z AUTO 25004KT M09/M14 A3026 RMK AO1 SLP265 T10891139,KP59,2024-03-22T03:51:00Z,47.467,-87.875,-8.9,-13.9,250,4,,,30.26,1026.5,,TRUE,TRUE,,,,,,,,,,,,,,,VFR,,,,,,,,,,,,METAR,185
KOXR 220351Z 00000KT 10SM CLR 14/12 A3008 RMK AO2 SLP185 T01390117,KOXR,2024-03-22T03:51:00Z,34.2001,-119.204,13.9,11.7,0,0,,10+,30.08,1018.5,,,TRUE,,,,,,,CLR,,,,,,,,VFR,,,,,,,,,,,,METAR,12
KOXC 220351Z AUTO 30008KT 10SM CLR M03/M12 A3024 RMK AO2 SLP261 T10331122 FZRANO,KOXC,2024-03-22T03:51:00Z,41.4741,-73.1353,-3.3,-12.2,300,8,,10+,30.24,1026.1,,TRUE,TRUE,,,,TRUE,,,CLR,,,,,,,,VFR,,,,,,,,,,,,METAR,211
KORF 220351Z 13004KT 10SM CLR 07/01 A3027 RMK AO2 SLP250 T00670011,KORF,2024-03-22T03:51:00Z,36.9037,-76.1927,6.7,1.1,130,4,,10+,30.27,1025,,,TRUE,,,,,,,CLR,,,,,,,,VFR,,,,,,,,,,,,METAR,5
KORD 220351Z 11011KT 10SM SCT070 BKN120 BKN180 02/M07 A3019 RMK AO2 SLP231 T00221067 $,KORD,2024-03-22T03:51:00Z,41.9602,-87.9316,2.2,-6.7,110,11,,10+,30.19,1023.1,,,TRUE,TRUE,,,,,,SCT,7000,BKN,12000,BKN,18000,,,VFR,,,,,,,,,,,,METAR,202
KOCF 220351Z AUTO 11006KT 10SM BKN060 20/16 A3005 RMK AO2 SLP175 T02000156 $,KOCF,2024-03-22T03:51:00Z,29.1636,-82.221,20,15.6,110,6,,10+,30.05,1017.5,,TRUE,TRUE,TRUE,,,,,,BKN,6000,,,,,,,VFR,,,,,,,,,,,,METAR,24
KNYC 220351Z AUTO 30010G18KT 10SM CLR 01/M13 A3033 RMK AO2 SLP262 T00061128 $,KNYC,2024-03-22T03:51:00Z,40.779,-73.9692,0.6,-12.8,300,10,18,10+,30.33,1026.2,,TRUE,TRUE,TRUE,,,,,,CLR,,,,,,,,VFR,,,,,,,,,,,,METAR,33
KNBT 220351Z AUTO 08010KT 10SM CLR 14/09 A3025 RMK AO2 SLP246 T01440094,KNBT,2024-03-22T03:51:00Z,35.022,-76.463,14.4,9.4,80,10,,10+,30.25,1024.6,,TRUE,TRUE,,,,,,,CLR,,,,,,,,VFR,,,,,,,,,,,,METAR,5
KMYL 220351Z AUTO 07003KT 10SM SCT065 01/M04 A3006 RMK AO2 SLP193 T00111039,KMYL,2024-03-22T03:51:00Z,44.8943,-116.1,1.1,-3.9,70,3,,10+,30.06,1019.3,,TRUE,TRUE,,,,,,,SCT,6500,,,,,,,VFR,,,,,,,,,,,,METAR,1532
KLGU 220351Z AUTO 27003KT 10SM CLR 08/01 A3007 RMK AO2 SLP170 T00830006,KLGU,2024-03-22T03:51:00Z,41.7865,-111.852,8.3,0.6,270,3,,10+,30.07,1017,,TRUE,TRUE,,,,,,,CLR,,,,,,,,VFR,,,,,,,,,,,,METAR,1359
KLGA 220351Z 32017G23KT 10SM FEW250 01/M11 A3031 RMK AO2 SLP262 T00111106 $,KLGA,2024-03-22T03:51:00Z,40.7794,-73.8803,1.1,-10.6,320,17,23,10+,30.31,1026.2,,,TRUE,TRUE,,,,,,FEW,25000,,,,,,,VFR,,,,,,,,,,,,METAR,9
KJFK 220351Z 32016G27KT 10SM FEW250 01/M12 A3032 RMK AO2 PK WND 32027/0349 SLP266 T00061117,KJFK,2024-03-22T03:51:00Z,40.6392,-73.7639,0.6,-11.7,320,16,27,10+,30.32,1026.6,,,TRUE,,,,,,,FEW,25000,,,,,,,VFR,,,,,,,,,,,,METAR,3
KJCT 220351Z AUTO 09004KT 10SM FEW110 14/08 A2991 RMK AO2 SLP099 T01390083,KJCT,2024-03-22T03:51:00Z,30.5105,-99.7665,13.9,8.3,90,4,,10+,29.91,1009.9,,TRUE,TRUE,,,,,,,FEW,11000,,,,,,,VFR,,,,,,,,,,,,METAR,522
KILG 220351Z AUTO 24003KT 10SM CLR 01/M09 A3032 RMK AO2 SLP269 T00061094 $,KILG,2024-03-22T03:51:00Z,39.6744,-75.6057,0.6,-9.4,240,3,,10+,30.32,1026.9,,TRUE,TRUE,TRUE,,,,,,CLR,,,,,,,,VFR,,,,,,,,,,,,METAR,22
KIGM 220351Z AUTO 17008KT 10SM CLR 12/02 A3008 RMK AO2 SLP141 T01170022,KIGM,2024-03-22T03:51:00Z,35.2575,-113.934,11.7,2.2,170,8,,10+,30.08,1014.1,,TRUE,TRUE,,,,,,,CLR,,,,,,,,VFR,,,,,,,,,,,,METAR,1045
KHTS 220351Z 06005KT 10SM CLR 06/M11 A3021 RMK AO2 SLP235 T00611111,KHTS,2024-03-22T03:51:00Z,38.3653,-82.5548,6.1,-11.1,60,5,,10+,30.21,1023.5,,,TRUE,,,,,,,CLR,,,,,,,,VFR,,,,,,,,,,,,METAR,252
KHSE 220351Z AUTO 06006KT 10SM CLR 09/07 A3025 RMK AO2 SLP244 T00940067,KHSE,2024-03-22T03:51:00Z,35.2324,-75.6223,9.4,6.7,60,6,,10+,30.25,1024.4,,TRUE,TRUE,,,,,,,CLR,,,,,,,,VFR,,,,,,,,,,,,METAR,4
KHDO 220351Z AUTO 11005KT 10SM CLR 17/16 A2988 RMK AO2 SLP109 T01670161,KHDO,2024-03-22T03:51:00Z,29.3601,-99.1742,16.7,16.1,110,5,,10+,29.88,1010.9,,TRUE,TRUE,,,,,,,CLR,,,,,,,,VFR,,,,,,,,,,,,METAR,280
KEWR 220351Z 34013G27KT 10SM FEW250 01/M12 A3032 RMK AO2 PK WND 31027/0347 SLP265 T00111117,KEWR,2024-03-22T03:51:00Z,40.6828,-74.1692,1.1,-11.7,340,13,27,10+,30.32,1026.5,,,TRUE,,,,,,,FEW,25000,,,,,,,VFR,,,,,,,,,,,,METAR,2
KERI 220351Z AUTO 00000KT 10SM CLR M05/M11 A3036 RMK AO2 SLP291 T10501106,KERI,2024-03-22T03:51:00Z,42.0803,-80.1824,-5,-10.6,0,0,,10+,30.36,1029.1,,TRUE,TRUE,,,,,,,CLR,,,,,,,,VFR,,,,,,,,,,,,METAR,222
KELP 220351Z 27013KT 10SM CLR 19/M01 A3001 RMK AO2 SLP110 T01941011,KELP,2024-03-22T03:51:00Z,31.8123,-106.377,19.4,-1.1,270,13,,10+,30.01,1011,,,TRUE,,,,,,,CLR,,,,,,,,VFR,,,,,,,,,,,,METAR,1205
KEKN 220351Z AUTO 00000KT 10SM CLR M03/M08 A3024 RMK AO2 SLP264 T10331083,KEKN,2024-03-22T03:51:00Z,38.8899,-79.8554,-3.3,-8.3,0,0,,10+,30.24,1026.4,,TRUE,TRUE,,,,,,,CLR,,,,,,,,VFR,,,,,,,,,,,,METAR,596
KDAW 220351Z AUTO 30020G34KT 240V320 10SM CLR M02/M16 A3009 RMK AO2 PK WND 30034/0350 SLP189 T10221156,KDAW,2024-03-22T03:51:00Z,43.2794,-70.9243,-2.2,-15.6,300,20,34,10+,30.09,1018.9,,TRUE,TRUE,,,,,,,CLR,,,,,,,,VFR,,,,,,,,,,,,METAR,100
KCSG 220351Z AUTO 00000KT 10SM SCT100 17/08 A3004 RMK AO2 SLP170 T01720083,KCSG,2024-03-22T03:51:00Z,32.5163,-84.9422,17.2,8.3,0,0,,10+,30.04,1017,,TRUE,TRUE,,,,,,,SCT,10000,,,,,,,VFR,,,,,,,,,,,,METAR,120
KCRP 220351Z 31009KT 10SM FEW012 FEW020 19/19 A2985 RMK AO2 SLP107 T01940189,KCRP,2024-03-22T03:51:00Z,27.7733,-97.513,19.4,18.9,310,9,,10+,29.85,1010.7,,,TRUE,,,,,,,FEW,1200,FEW,2000,,,,,VFR,,,,,,,,,,,,METAR,11
KCON 220351Z AUTO 29012G24KT 10SM CLR M04/M16 A3013 RMK AO2 PK WND 28029/0336 SLP208 T10391156,KCON,2024-03-22T03:51:00Z,43.2049,-71.5026,-3.9,-15.6,290,12,24,10+,30.13,1020.8,,TRUE,TRUE,,,,,,,CLR,,,,,,,,VFR,,,,,,,,,,,,METAR,102
KCMH 220351Z 06006KT 10SM CLR 00/M10 A3027 RMK AO2 SLP257 T00001100 $,KCMH,2024-03-22T03:51:00Z,39.9907,-82.8771,0,-10,60,6,,10+,30.27,1025.7,,,TRUE,TRUE,,,,,,CLR,,,,,,,,VFR,,,,,,,,,,,,METAR,257
KCLE 220351Z 09006KT 10SM FEW250 M03/M12 A3031 RMK AO2 SLP290 T10281117,KCLE,2024-03-22T03:51:00Z,41.4057,-81.8519,-2.8,-11.7,90,6,,10+,30.31,1029,,,TRUE,,,,,,,FEW,25000,,,,,,,VFR,,,,,,,,,,,,METAR,237
KCDJ 220351Z AUTO 12005KT 08/M04 A2999 RMK AO1 SLP162 T00781044,KCDJ,2024-03-22T03:51:00Z,39.8198,-93.577,7.8,-4.4,120,5,,,29.99,1016.2,,TRUE,TRUE,,,,,,,,,,,,,,,VFR,,,,,,,,,,,,METAR,234
KCAK 220351Z 06005KT 10SM CLR M05/M11 A3030 RMK AO2 SLP277 T10501106,KCAK,2024-03-22T03:51:00Z,40.9181,-81.4434,-5,-10.6,60,5,,10+,30.30,1027.7,,,TRUE,,,,,,,CLR,,,,,,,,VFR,,,,,,,,,,,,METAR,369
KBKW 220351Z AUTO 00000KT 10SM CLR 03/M12 A3020 RMK AO2 SLP244 T00281117,KBKW,2024-03-22T03:51:00Z,37.7836,-81.1228,2.8,-11.7,0,0,,10+,30.20,1024.4,,TRUE,TRUE,,,,,,,CLR,,,,,,,,VFR,,,,,,,,,,,,METAR,762
KBGD 220351Z AUTO 15007KT 10SM CLR 13/07 A2992 RMK AO2 SLP108 T01330072,KBGD,2024-03-22T03:51:00Z,35.695,-101.396,13.3,7.2,150,7,,10+,29.92,1010.8,,TRUE,TRUE,,,,,,,CLR,,,,,,,,VFR,,,,,,,,,,,,METAR,928
KBED 220351Z AUTO 28013KT 10SM CLR M03/M14 A3015 RMK AO2 SLP228 T10281139,KBED,2024-03-22T03:51:00Z,42.4681,-71.2946,-2.8,-13.9,280,13,,10+,30.15,1022.8,,TRUE,TRUE,,,,,,,CLR,,,,,,,,VFR,,,,,,,,,,,,METAR,39
KBDL 220351Z 31011G24KT 10SM FEW050 M01/M12 A3024 RMK AO2 PK WND 30027/0324 SLP242 T10111122 $,KBDL,2024-03-22T03:51:00Z,41.9374,-72.682,-1.1,-12.2,310,11,24,10+,30.24,1024.2,,,TRUE,TRUE,,,,,,FEW,5000,,,,,,,VFR,,,,,,,,,,,,METAR,52
KBAZ 220351Z AUTO 35007KT 10SM CLR 13/12 A2986 RMK AO2 TSE0258 SLP107 T01280117 PWINO $,KBAZ,2024-03-22T03:51:00Z,29.7089,-98.0459,12.8,11.7,350,7,,10+,29.86,1010.7,,TRUE,TRUE,TRUE,,,,TRUE,,CLR,,,,,,,,VFR,,,,,,,,,,,,METAR,199
KAVX 220351Z AUTO 29006KT 10SM CLR 15/03 A3010 RMK AO2 SLP188 T01500033,KAVX,2024-03-22T03:51:00Z,33.4042,-118.415,15,3.3,290,6,,10+,30.10,1018.8,,TRUE,TRUE,,,,,,,CLR,,,,,,,,VFR,,,,,,,,,,,,METAR,482
KALB 220351Z 31010G31KT 10SM SCT050 M03/M13 A3029 RMK AO2 PK WND 31031/0344 SLP261 T10281133 $,KALB,2024-03-22T03:51:00Z,42.7473,-73.7991,-2.8,-13.3,310,10,31,10+,30.29,1026.1,,,TRUE,TRUE,,,,,,SCT,5000,,,,,,,VFR,,,,,,,,,,,,METAR,82
KAHN 220351Z AUTO 11006KT 10SM CLR 16/06 A3008 RMK AO2 SLP183 T01610056 $,KAHN,2024-03-22T03:51:00Z,33.9477,-83.3274,16.1,5.6,110,6,,10+,30.08,1018.3,,TRUE,TRUE,TRUE,,,,,,CLR,,,,,,,,VFR,,,,,,,,,,,,METAR,241
KACT 220351Z 14008KT 10SM -RA SCT075 OVC100 13/13 A2983 RMK AO2 LTG DSNT NE AND E TSE00 PRESFR SLP098 P0023 T01330128,KACT,2024-03-22T03:51:00Z,31.618,-97.2283,13.3,12.8,140,8,,10+,29.83,1009.8,,,TRUE,,,,,,-RA,SCT,7500,OVC,10000,,,,,VFR,,,,,,0.23,,,,,,METAR,150
KABE 220351Z 35006KT 10SM CLR M02/M12 A3031 RMK AO2 SLP269 T10171122 $,KABE,2024-03-22T03:51:00Z,40.658,-75.4347,-1.7,-12.2,350,6,,10+,30.31,1026.9,,,TRUE,TRUE,,,,,,CLR,,,,,,,,VFR,,,,,,,,,,,,METAR,117
K6R6 220351Z AUTO 29008KT 16/00 A2994 RMK AO1 SLP117 T01560000,K6R6,2024-03-22T03:51:00Z,30.0482,-102.213,15.6,0,290,8,,,29.94,1011.7,,TRUE,TRUE,,,,,,,,,,,,,,,VFR,,,,,,,,,,,,METAR,702
RJSO 220350Z 27010G21KT 240V330 9999 FEW030 BKN050 06/M06 Q1017 RMK 1CU030 6SC050 A3006,RJSO,2024-03-22T03:50:00Z,41.233,141.132,6,-6,270,10,21,6+,30.03,,,,,,,,,,,FEW,3000,BKN,5000,,,,,VFR,,,,,,,,,,,,SPECI,7
PTTP 220350Z 25005KT 15SM -SHRA SCT017TCU OVC300 30/27 A2983 RMK SHRAE04B42 TCU ALQDS SLP102 T02960270,PTTP,2024-03-22T03:50:00Z,6.96,158.21,29.6,27,250,5,,15,29.83,1010.2,,,,,,,,,-SHRA,SCT,1700,OVC,30000,,,,,VFR,,,,,,,,,,,,METAR,36
PTRO 220350Z 07013G20KT 13SM FEW010 SCT017 BKN130 BKN320 30/24 A2986 RMK HZ ALQDS,PTRO,2024-03-22T03:50:00Z,7.367,134.544,30,24,70,13,20,13,29.86,,,,,,,,,,,FEW,1000,SCT,1700,BKN,13000,BKN,32000,VFR,,,,,,,,,,,,METAR,30
PGWT 220350Z 08015KT 7SM SCT018 SCT065 SCT120 28/22 A2993,PGWT,2024-03-22T03:50:00Z,14.997,145.624,28,22,80,15,,7,29.93,,,,,,,,,,,SCT,1800,SCT,6500,SCT,12000,,,VFR,,,,,,,,,,,,METAR,84
PGRO 220350Z 03013KT 7SM FEW016 BKN080 29/21 A2988,PGRO,2024-03-22T03:50:00Z,14.172,145.24,29,21,30,13,,7,29.88,,,,,,,,,,,FEW,1600,BKN,8000,,,,,VFR,,,,,,,,,,,,METAR,181
OOSH 220350Z AUTO 18004KT //// ////// 26/19 Q1010 RMK 1007,OOSH,2024-03-22T03:50:00Z,24.388,56.624,26,19,180,4,,,29.82,,,TRUE,,,,,,,,,,,,,,,,VFR,,,,,,,,,,,,METAR,35
OOSA 220350Z 04004KT 9999 SCT020 26/20 Q1012 NOSIG,OOSA,2024-03-22T03:50:00Z,17.044,54.102,26,20,40,4,,6+,29.88,,,,,,TRUE,,,,,SCT,2000,,,,,,,VFR,,,,,,,,,,,,METAR,20
OOMS 220350Z VRB02KT CAVOK 29/15 Q1011 NOSIG,OOMS,2024-03-22T03:50:00Z,23.595,58.298,29,15,VRB,2,,6+,29.85,,,,,,TRUE,,,,,CAVOK,,,,,,,,VFR,,,,,,,,,,,,METAR,8
OOKB 220350Z VRB02KT CAVOK 23/12 Q1011 NOSIG,OOKB,2024-03-22T03:50:00Z,26.168,56.239,23,12,VRB,2,,6+,29.85,,,,,,TRUE,,,,,CAVOK,,,,,,,,VFR,,,,,,,,,,,,METAR,30
OODQ 220350Z AUTO 19007KT 9999 R22///// NCD 23/19 Q1012 NOSIG RMK RH79? 0,OODQ,2024-03-22T03:50:00Z,19.511,57.657,23,19,190,7,,6+,29.88,,,TRUE,,,TRUE,,,,,CLR,,,,,,,,VFR,,,,,,,,,,,,METAR,116
OOAD 220350Z AUTO 07005KT 9999 // NCD 24/18 Q1014 NOSIG,OOAD,2024-03-22T03:50:00Z,22.5,57.37,24,18,70,5,,6+,29.94,,,TRUE,,,TRUE,,,,,CLR,,,,,,,,VFR,,,,,,,,,,,,METAR,327
NSTU 220350Z VRB02KT 12SM FEW016TCU SCT120 31/26 A2984 RMK TCU W-NW SLP105 T03130258,NSTU,2024-03-22T03:50:00Z,-14.337,-170.721,31.3,25.8,VRB,2,,12,29.84,1010.5,,,,,,,,,,FEW,1600,SCT,12000,,,,,VFR,,,,,,,,,,,,METAR,8
MUVR 220350Z 12008KT 8000 SCT020 22/18 Q1017,MUVR,2024-03-22T03:50:00Z,23.033,-81.435,22,18,120,8,,4.97,30.03,,,,,,,,,,,SCT,2000,,,,,,,MVFR,,,,,,,,,,,,METAR,65
MUSC 220350Z 11006KT 9000 SKC 21/18 Q1018,MUSC,2024-03-22T03:50:00Z,22.494,-79.931,21,18,110,6,,5.59,30.06,,,,,,,,,,,SKC,,,,,,,,VFR,,,,,,,,,,,,METAR,97
MUHG 220350Z 04007KT CAVOK 21/19 Q1017,MUHG,2024-03-22T03:50:00Z,20.786,-76.316,21,19,40,7,,6+,30.03,,,,,,,,,,,CAVOK,,,,,,,,VFR,,,,,,,,,,,,METAR,100
MUHA 220350Z 11008KT 9000 SCT030 23/19 Q1016,MUHA,2024-03-22T03:50:00Z,22.991,-82.41,23,19,110,8,,5.59,30.00,,,,,,,,,,,SCT,3000,,,,,,,VFR,,,,,,,,,,,,METAR,61
MUCU 220350Z 36006KT 330V030 9000 SCT020 24/19 Q1016,MUCU,2024-03-22T03:50:00Z,19.971,-75.837,24,19,360,6,,5.59,30.00,,,,,,,,,,,SCT,2000,,,,,,,VFR,,,,,,,,,,,,METAR,70
MUCM 220350Z 04009KT 9000 SKC 21/18 Q1017,MUCM,2024-03-22T03:50:00Z,21.42,-77.85,21,18,40,9,,5.59,30.03,,,,,,,,,,,SKC,,,,,,,,VFR,,,,,,,,,,,,METAR,125
MUCL 220350Z AUTO 14010KT 27/22 Q1015,MUCL,2024-03-22T03:50:00Z,21.621,-81.552,27,22,140,10,,,29.97,,,TRUE,,,,,,,,,,,,,,,,VFR,,,,,,,,,,,,METAR,5
MUCC 220350Z 11010KT 9000 FEW020 24/17 Q1017,MUCC,2024-03-22T03:50:00Z,22.456,-78.339,24,17,110,10,,5.59,30.03,,,,,,,,,,,FEW,2000,,,,,,,VFR,,,,,,,,,,,,METAR,7
LXGB 220350Z AUTO 11015KT 5000 BR OVC013/// 17/15 Q1013,LXGB,2024-03-22T03:50:00Z,36.151,-5.35,17,15,110,15,,3.11,29.91,,,TRUE,,,,,,,BR,OVC,1300,,,,,,,MVFR,,,,,,,,,,,,METAR,5
LTFO 220350Z 22012KT 4500 -RA BR SCT012 BKN028 08/06 Q1012,LTFO,2024-03-22T03:50:00Z,41.179,40.845,8,6,220,12,,2.8,29.88,,,,,,,,,,-RA BR,SCT,1200,BKN,2800,,,,,IFR,,,,,,,,,,,,METAR,5
LTFH 220350Z 21004KT 7000 -SHRA SCT013 BKN029 05/04 Q1014 NOSIG,LTFH,2024-03-22T03:50:00Z,41.255,36.567,5,4,210,4,,4.35,29.94,,,,,,TRUE,,,,-SHRA,SCT,1300,BKN,2900,,,,,MVFR,,,,,,,,,,,,METAR,7
LTFG 220350Z 10005KT CAVOK 07/01 Q1010,LTFG,2024-03-22T03:50:00Z,36.299,32.3,7,1,100,5,,6+,29.82,,,,,,,,,,,CAVOK,,,,,,,,VFR,,,,,,,,,,,,METAR,26
LTFD 220350Z 08005KT 050V110 9999 SCT035 BKN100 07/03 Q1017,LTFD,2024-03-22T03:50:00Z,39.559,27.025,7,3,80,5,,6+,30.03,,,,,,,,,,,SCT,3500,BKN,10000,,,,,VFR,,,,,,,,,,,,METAR,15
LTDA 220350Z 24007KT 9999 SCT030 11/07 Q1008 NOSIG,LTDA,2024-03-22T03:50:00Z,36.361,36.283,11,7,240,7,,6+,29.76,,,,,,TRUE,,,,,SCT,3000,,,,,,,VFR,,,,,,,,,,,,METAR,80
LTCW 220350Z 09008KT 1100 R11/P1500N R29/P1500D -SHSN BR SCT005 BKN023 BKN070 00/00 Q1012,LTCW,2024-03-22T03:50:00Z,37.55,44.238,0,0,90,8,,0.68,29.88,,,,,,,,,,-SHSN BR,SCT,500,BKN,2300,BKN,7000,,,LIFR,,,,,,,,,,,,METAR,1852
LTCV 220350Z 09012KT 3200 -SHRA BKN023 BKN090 09/09 Q1009 RETSRA,LTCV,2024-03-22T03:50:00Z,37.365,42.06,9,9,90,12,,1.99,29.79,,,,,,,,,,-SHRA,BKN,2300,BKN,9000,,,,,IFR,,,,,,,,,,,,METAR,620
LTCT 220350Z 24006KT 9999 SCT040 BKN080 07/05 Q1010,LTCT,2024-03-22T03:50:00Z,39.977,43.878,7,5,240,6,,6+,29.82,,,,,,,,,,,SCT,4000,BKN,8000,,,,,VFR,,,,,,,,,,,,METAR,936
LTCR 220350Z 23009KT 9999 -SHRA FEW007 BKN035 BKN090 11/10 Q1007,LTCR,2024-03-22T03:50:00Z,37.232,40.638,11,10,230,9,,6+,29.73,,,,,,,,,,-SHRA,FEW,700,BKN,3500,BKN,9000,,,VFR,,,,,,,,,,,,METAR,529
LTCP 220350Z 09011KT 9999 -SHRA SCT004 FEW027TCU BKN033 07/07 Q1006,LTCP,2024-03-22T03:50:00Z,37.731,38.469,7,7,90,11,,6+,29.70,,,,,,,,,,-SHRA,SCT,400,FEW,2700,BKN,3300,,,VFR,,,,,,,,,,,,METAR,672
LTCN 220350Z 23010KT 9999 SCT035 BKN100 07/07 Q1006,LTCN,2024-03-22T03:50:00Z,37.539,36.953,7,7,230,10,,6+,29.70,,,,,,,,,,,SCT,3500,BKN,10000,,,,,VFR,,,,,,,,,,,,METAR,505
LTCL 220350Z 07008KT 9999 -SHRA BKN035 BKN090 09/06 Q1009,LTCL,2024-03-22T03:50:00Z,37.978,41.842,9,6,70,8,,6+,29.79,,,,,,,,,,-SHRA,BKN,3500,BKN,9000,,,,,VFR,,,,,,,,,,,,METAR,602
LTCI 220350Z 11004KT 030V160 9999 BKN025 BKN070 05/01 Q1009 RESHRA NOSIG,LTCI,2024-03-22T03:50:00Z,38.469,43.337,5,1,110,4,,6+,29.79,,,,,,TRUE,,,,,BKN,2500,BKN,7000,,,,,MVFR,,,,,,,,,,,,METAR,1654
LTCF 220350Z 13017KT 9999 SCT035 BKN070 03/01 Q1009 NOSIG,LTCF,2024-03-22T03:50:00Z,40.562,43.115,3,1,130,17,,6+,29.79,,,,,,TRUE,,,,,SCT,3500,BKN,7000,,,,,VFR,,,,,,,,,,,,METAR,1794
LTCD 220350Z VRB02KT 9999 SCT040 BKN080 03/02 Q1006 NOSIG,LTCD,2024-03-22T03:50:00Z,39.71,39.527,3,2,VRB,2,,6+,29.70,,,,,,TRUE,,,,,SCT,4000,BKN,8000,,,,,VFR,,,,,,,,,,,,METAR,1146
LTCB 220350Z 21005KT 8000 -SHRA SCT015 BKN028 06/03 Q1014 NOSIG,LTCB,2024-03-22T03:50:00Z,40.967,38.081,6,3,210,5,,4.97,29.94,,,,,,TRUE,,,,-SHRA,SCT,1500,BKN,2800,,,,,MVFR,,,,,,,,,,,,METAR,5
LTCA 220350Z 06010KT 9999 SCT035 BKN100 05/04 Q1005 NOSIG,LTCA,2024-03-22T03:50:00Z,38.607,39.291,5,4,60,10,,6+,29.68,,,,,,TRUE,,,,,SCT,3500,BKN,10000,,,,,VFR,,,,,,,,,,,,METAR,887
LTBY 220350Z 26004KT 200V290 3500 -SHSN BR FEW010 BKN025 BKN100 00/M00 Q1013,LTBY,2024-03-22T03:50:00Z,39.81,30.519,0,0,260,4,,2.17,29.91,,,,,,,,,,-SHSN BR,FEW,1000,BKN,2500,BKN,10000,,,IFR,,,,,,,,,,,,METAR,788
LTBQ 220350Z 31003KT 260V350 8000 -RA FEW012 BKN028 BKN080 05/04 Q1016 NOSIG,LTBQ,2024-03-22T03:50:00Z,40.735,30.083,5,4,310,3,,4.97,30.00,,,,,,TRUE,,,,-RA,FEW,1200,BKN,2800,BKN,8000,,,MVFR,,,,,,,,,,,,METAR,51
LTBH 220350Z 04004KT 9999 SCT035 BKN100 06/03 Q1017,LTBH,2024-03-22T03:50:00Z,40.14,26.425,6,3,40,4,,6+,30.03,,,,,,,,,,,SCT,3500,BKN,10000,,,,,VFR,,,,,,,,,,,,METAR,8
LTBF 220350Z 26008KT 9999 FEW020 SCT035 BKN100 06/04 Q1017 RESHRA NOSIG,LTBF,2024-03-22T03:50:00Z,39.619,27.926,6,4,260,8,,6+,30.03,,,,,,TRUE,,,,,FEW,2000,SCT,3500,BKN,10000,,,VFR,,,,,,,,,,,,METAR,95
LTBD 220350Z 03001KT CAVOK 03/01 Q1015,LTBD,2024-03-22T03:50:00Z,37.816,27.886,3,1,30,1,,6+,29.97,,,,,,,,,,,CAVOK,,,,,,,,VFR,,,,,,,,,,,,METAR,29
LTAY 220350Z 25007KT 9999 FEW035 M02/M04 Q1013 NOSIG,LTAY,2024-03-22T03:50:00Z,37.785,29.701,-2,-4,250,7,,6+,29.91,,,,,,TRUE,,,,,FEW,3500,,,,,,,VFR,,,,,,,,,,,,METAR,851
LTAR 220350Z 34010KT 2000 -SN SCT002 BKN020 OVC070 M04/M05 Q1008,LTAR,2024-03-22T03:50:00Z,39.798,36.894,-4,-5,340,10,,1.24,29.76,,,,,,,,,,-SN,SCT,200,BKN,2000,OVC,7000,,,IFR,,,,,,,,,,,,METAR,1601
LTAN 220350Z VRB02KT 9999 SCT040 M03/M04 Q1012 NOSIG,LTAN,2024-03-22T03:50:00Z,37.979,32.562,-3,-4,VRB,2,,6+,29.88,,,,,,TRUE,,,,,SCT,4000,,,,,,,VFR,,,,,,,,,,,,METAR,1029
LTAE 220350Z 28002KT 9999 -SN FEW015 BKN025 BKN080 M01/M03 Q1012 NOSIG RMK RWY21 00000KT,LTAE,2024-03-22T03:50:00Z,40.079,32.566,-1,-3,280,2,,6+,29.88,,,,,,TRUE,,,,-SN,FEW,1500,BKN,2500,BKN,8000,,,MVFR,,,,,,,,,,,,METAR,836
LOXZ 220350Z 00000KT 9999 FEW060 00/M01 Q1023,LOXZ,2024-03-22T03:50:00Z,47.203,14.744,0,-1,0,0,,6+,30.21,,,,,,,,,,,FEW,6000,,,,,,,VFR,,,,,,,,,,,,METAR,678
LGHI 220350Z 22002KT CAVOK 04/03 Q1014,LGHI,2024-03-22T03:50:00Z,38.343,26.141,4,3,220,2,,6+,29.94,,,,,,,,,,,CAVOK,,,,,,,,VFR,,,,,,,,,,,,METAR,6
KRYY 220350Z AUTO 00000KT 10SM CLR 16/07 A3007 RMK AO2 SLP175 T01610067 402440067 $,KRYY,2024-03-22T03:50:00Z,34.0146,-84.5964,16.1,6.7,0,0,,10+,30.07,1017.5,,TRUE,TRUE,TRUE,,,,,,CLR,,,,,,,,VFR,,,,,,,,,,,,METAR,306
KNQA 220350Z 00000KT 10SM SCT12O 17/03 A2997,KNQA,2024-03-22T03:50:00Z,35.3619,-89.8612,17,3,0,0,,10+,29.97,,,,,,,,,,,,,,,,,,,VFR,,,,,,,,,,,,METAR,90
KDAG 220350Z AUTO 24013KT 10SM CLR 19/02 A3003 RMK AO2 SLP151 T01940017,KDAG,2024-03-22T03:50:00Z,34.8537,-116.787,19.4,1.7,240,13,,10+,30.03,1015.1,,TRUE,TRUE,,,,,,,CLR,,,,,,,,VFR,,,,,,,,,,,,METAR,584
ETNG 220350Z 24009KT CAVOK 12/08 Q1020,ETNG,2024-03-22T03:50:00Z,50.964,6.032,12,8,240,9,,6+,30.12,,,,,,,,,,,CAVOK,,,,,,,,VFR,,,,,,,,,,,,METAR,76
ESSA 220350Z 19010KT 9999 -RA BKN006 01/01 Q1005 TEMPO 4000 RADZ,ESSA,2024-03-22T03:50:00Z,59.664,17.92,1,1,190,10,,6+,29.68,,,,,,,,,,-RA,BKN,600,,,,,,,IFR,,,,,,,,,,,,METAR,36
ENSB 220350Z 11008KT CAVOK M23/M27 Q1020 RMK WIND 1400FT 11010KT,ENSB,2024-03-22T03:50:00Z,78.246,15.466,-23,-27,110,8,,6+,30.12,,,,,,,,,,,CAVOK,,,,,,,,VFR,,-1,,,,,,,,,,METAR,30
ENMH 220350Z 12009KT 6000 2000S -SHSN VV012 M05/M07 Q1009,ENMH,2024-03-22T03:50:00Z,71.029,27.829,-5,-7,120,9,,3.73,29.79,,,,,,,,,,-SHSN,OVX,0,,,,,,,MVFR,,,,,,,,,,,1200,METAR,10
EGYP 220350Z 24017KT 9999 SCT033 03/01 Q1004,EGYP,2024-03-22T03:50:00Z,-51.82,-58.448,3,1,240,17,,6+,29.65,,,,,,,,,,,SCT,3300,,,,,,,VFR,,,,,,,,,,,,METAR,70
EGYM 220350Z 24010KT 9999 OVC015 10/07 Q1017 RMK WHT,EGYM,2024-03-22T03:50:00Z,52.648,0.567,10,7,240,10,,6+,30.03,,,,,,,,,,,OVC,1500,,,,,,,MVFR,,,,,,,,,,,,METAR,25
EGYH 220350Z AUTO ///14KT 9999 BKN014/// SCT024/// BKN032/// 10/08 Q1016,EGYH,2024-03-22T03:50:00Z,52.873,0.139,10,8,,,,6+,30.00,,,TRUE,,,,,,,,BKN,1400,SCT,2400,BKN,3200,,,MVFR,,,,,,,,,,,,METAR,5
EGYE 220350Z AUTO 27014KT //// SCT003/// BKN023/// 09/08 Q1017,EGYE,2024-03-22T03:50:00Z,52.962,-0.562,9,8,270,14,,,30.03,,,TRUE,,,,,,,,SCT,300,BKN,2300,,,,,MVFR,,,,,,,,,,,,METAR,105
EGYD 220350Z AUTO 27015KT 4300 DZ OVC005/// 10/09 Q1016,EGYD,2024-03-22T03:50:00Z,53.031,-0.503,10,9,270,15,,2.67,30.00,,,TRUE,,,,,,,DZ,OVC,500,,,,,,,IFR,,,,,,,,,,,,METAR,65
EGXZ 220350Z AUTO 25010KT 9999 FEW025/// SCT043/// OVC180/// 09/06 Q1014,EGXZ,2024-03-22T03:50:00Z,54.205,-1.39,9,6,250,10,,6+,29.94,,,TRUE,,,,,,,,FEW,2500,SCT,4300,OVC,18000,,,VFR,,,,,,,,,,,,METAR,24
EGXV 220350Z AUTO 26008KT 9999 // OVC100/// 10/06 Q1014,EGXV,2024-03-22T03:50:00Z,53.876,-0.435,10,6,260,8,,6+,29.94,,,TRUE,,,,,,,,OVC,10000,,,,,,,VFR,,,,,,,,,,,,METAR,6
EGXT 220350Z AUTO 24013KT 2900 -DZ OVC006/// 10/09 Q1016,EGXT,2024-03-22T03:50:00Z,52.611,-0.461,10,9,240,13,,1.8,30.00,,,TRUE,,,,,,,-DZ,OVC,600,,,,,,,IFR,,,,,,,,,,,,METAR,74
EGXS 220350Z AUTO 22008KT 9999 OVC011/// 10/09 Q1015,EGXS,2024-03-22T03:50:00Z,53.475,0.152,10,9,220,8,,6+,29.97,,,TRUE,,,,,,,,OVC,1100,,,,,,,MVFR,,,,,,,,,,,,METAR,6
EGXE 220350Z AUTO 27012KT 9999 FEW028/// BKN170/// 09/05 Q1013,EGXE,2024-03-22T03:50:00Z,54.297,-1.533,9,5,270,12,,6+,29.91,,,TRUE,,,,,,,,FEW,2800,BKN,17000,,,,,VFR,,,,,,,,,,,,METAR,30
EGXC 220350Z 25013KT 9999 -DZ SCT009 BKN018 10/09 Q1016 RMK GRN,EGXC,2024-03-22T03:50:00Z,53.094,-0.173,10,9,250,13,,6+,30.00,,,,,,,,,,-DZ,SCT,900,BKN,1800,,,,,MVFR,,,,,,,,,,,,METAR,9
EGWU 220350Z AUTO 25008KT 9999 FEW016/// BKN160/// 10/07 Q1019,EGWU,2024-03-22T03:50:00Z,51.549,-0.417,10,7,250,8,,6+,30.09,,,TRUE,,,,,,,,FEW,1600,BKN,16000,,,,,VFR,,,,,,,,,,,,METAR,33
EGWC 220350Z AUTO 29007KT //// ///////// ///// Q////,EGWC,2024-03-22T03:50:00Z,52.64,-2.311,,,290,7,,,0.00,,,TRUE,,,,,,,,,,,,,,,,VFR,,,,,,,,,,,,METAR,79
EGVP 220350Z AUTO 24008KT 9999 OVC030/// 09/06 Q1019,EGVP,2024-03-22T03:50:00Z,51.139,-1.569,9,6,240,8,,6+,30.09,,,TRUE,,,,,,,,OVC,3000,,,,,,,MVFR,,,,,,,,,,,,METAR,80
EGVO 220350Z AUTO 22006KT 9999 BKN014/// BKN032/// 09/06 Q1019,EGVO,2024-03-22T03:50:00Z,51.239,-0.945,9,6,220,6,,6+,30.09,,,TRUE,,,,,,,,BKN,1400,BKN,3200,,,,,MVFR,,,,,,,,,,,,METAR,118
EGUW 220350Z AUTO 25013KT 9999 FEW017/// BKN039/// 10/07 Q1017,EGUW,2024-03-22T03:50:00Z,52.124,0.957,10,7,250,13,,6+,30.03,,,TRUE,,,,,,,,FEW,1700,BKN,3900,,,,,VFR,,,,,,,,,,,,METAR,86
EGUB 220350Z AUTO 23005KT 9999 OVC013/// 10/07 Q1019,EGUB,2024-03-22T03:50:00Z,51.62,-1.099,10,7,230,5,,6+,30.09,,,TRUE,,,,,,,,OVC,1300,,,,,,,MVFR,,,,,,,,,,,,METAR,56
EGQS 220350Z 24017KT 9999 FEW020CB SCT030 BKN050 04/02 Q1004 RESHRA TEMPO SCT020CB RMK BLU TEMPO WHT,EGQS,2024-03-22T03:50:00Z,57.711,-3.324,4,2,240,17,,6+,29.65,,,,,,,,,,,FEW,2000,SCT,3000,BKN,5000,,,VFR,,,,,,,,,,,,METAR,6
EGQM 220350Z AUTO 23014KT 9999 NCD 07/03 Q1011,EGQM,2024-03-22T03:50:00Z,55.421,-1.601,7,3,230,14,,6+,29.85,,,TRUE,,,,,,,,CLR,,,,,,,,VFR,,,,,,,,,,,,METAR,24
EGQL 220350Z 26012KT 9999 FEW026 06/02 Q1008 RMK BLU,EGQL,2024-03-22T03:50:00Z,56.377,-2.862,6,2,260,12,,6+,29.76,,,,,,,,,,,FEW,2600,,,,,,,VFR,,,,,,,,,,,,METAR,11
EGQK 220350Z AUTO 24013KT 9999 -RA FEW011/// SCT017/// 05/03 Q1005,EGQK,2024-03-22T03:50:00Z,57.646,-3.563,5,3,240,13,,6+,29.68,,,TRUE,,,,,,,-RA,FEW,1100,SCT,1700,,,,,VFR,,,,,,,,,,,,METAR,5
EGQA 220350Z AUTO 23009KT 9999 // NCD 04/02 Q1004,EGQA,2024-03-22T03:50:00Z,57.825,-3.955,4,2,230,9,,6+,29.65,,,TRUE,,,,,,,,CLR,,,,,,,,VFR,,,,,,,,,,,,METAR,4
EGPE 220350Z 24013KT 9999 FEW018 SCT032 05/02 Q1005,EGPE,2024-03-22T03:50:00Z,57.538,-4.053,5,2,240,13,,6+,29.68,,,,,,,,,,,FEW,1800,SCT,3200,,,,,VFR,,,,,,,,,,,,METAR,7
EGOV 220350Z AUTO 27010KT 9999 OVC190/// 09/07 Q1018,EGOV,2024-03-22T03:50:00Z,53.252,-4.536,9,7,270,10,,6+,30.06,,,TRUE,,,,,,,,OVC,19000,,,,,,,VFR,,,,,,,,,,,,METAR,11
EGOS 220350Z AUTO 25010KT 9999 -RA OVC050/// 09/07 Q1018,EGOS,2024-03-22T03:50:00Z,52.795,-2.665,9,7,250,10,,6+,30.06,,,TRUE,,,,,,,-RA,OVC,5000,,,,,,,VFR,,,,,,,,,,,,METAR,76
EGOP 220350Z AUTO 33016KT 9999 // OVC006/// 09/09 Q1019,EGOP,2024-03-22T03:50:00Z,51.714,-4.367,9,9,330,16,,6+,30.09,,,TRUE,,,,,,,,OVC,600,,,,,,,IFR,,,,,,,,,,,,METAR,8
EGOM 220350Z AUTO 27021KT 9999 BR BKN008/// BKN032/// 05/05 Q1011,EGOM,2024-03-22T03:50:00Z,55.05,-2.554,5,5,270,21,,6+,29.85,,,TRUE,,,,,,,BR,BKN,800,BKN,3200,,,,,IFR,,,,,,,,,,,,METAR,286
EGNS 220350Z 28017KT 9999 FEW025 08/04 Q1016,EGNS,2024-03-22T03:50:00Z,54.085,-4.632,8,4,280,17,,6+,30.00,,,,,,,,,,,FEW,2500,,,,,,,VFR,,,,,,,,,,,,METAR,18
EGKK 220350Z 22006KT 9999 FEW006 09/08 Q1020,EGKK,2024-03-22T03:50:00Z,51.148,-0.19,9,8,220,6,,6+,30.12,,,,,,,,,,,FEW,600,,,,,,,VFR,,,,,,,,,,,,METAR,58
EGDY 220350Z AUTO 23007KT 9999 BKN012/// BKN042/// 10/07 Q1020,EGDY,2024-03-22T03:50:00Z,51.006,-2.643,10,7,230,7,,6+,30.12,,,TRUE,,,,,,,,BKN,1200,BKN,4200,,,,,MVFR,,,,,,,,,,,,METAR,21
EGDR 220350Z AUTO 25011KT 0600 // OVC001/// 10/10 Q1022,EGDR,2024-03-22T03:50:00Z,50.084,-5.257,10,10,250,11,,0.37,30.18,,,TRUE,,,,,,,,OVC,100,,,,,,,LIFR,,,,,,,,,,,,METAR,74
EGDM 220350Z AUTO 24008KT 9999 OVC024/// 09/06 Q1019,EGDM,2024-03-22T03:50:00Z,51.153,-1.75,9,6,240,8,,6+,30.09,,,TRUE,,,,,,,,OVC,2400,,,,,,,MVFR,,,,,,,,,,,,METAR,122
BGSF 220350Z AUTO 03005KT 9999NDV NCD M21/M24 Q1025,BGSF,2024-03-22T03:50:00Z,67.013,-50.718,-21,-24,30,5,,,30.27,,,TRUE,,,,,,,,CLR,,,,,,,,VFR,,,,,,,,,,,,METAR,75
BGKK 220350Z AUTO 29002KT 9999NDV -SHSN OVC055/// M06/M09 Q1007,BGKK,2024-03-22T03:50:00Z,65.575,-37.133,-6,-9,290,2,,,29.73,,,TRUE,,,,,,,-SHSN,OVC,5500,,,,,,,VFR,,,,,,,,,,,,METAR,37
BGJN 220350Z AUTO 03003KT 9999NDV -SN OVC027/// M12/M15 Q1024,BGJN,2024-03-22T03:50:00Z,69.24,-51.064,-12,-15,30,3,,,30.24,,,TRUE,,,,,,,-SN,OVC,2700,,,,,,,MVFR,,,,,,,,,,,,METAR,22
BGGH 220350Z AUTO 06005KT 9999 FEW017/// M11/M15 Q1023,BGGH,2024-03-22T03:50:00Z,64.191,-51.677,-11,-15,60,5,,6+,30.21,,,TRUE,,,,,,,,FEW,1700,,,,,,,VFR,,,,,,,,,,,,METAR,76
BGBW 220350Z AUTO 07003KT 9999NDV NCD M11/M19 Q1020,BGBW,2024-03-22T03:50:00Z,61.164,-45.42,-11,-19,70,3,,,30.12,,,TRUE,,,,,,,,CLR,,,,,,,,VFR,,,,,,,,,,,,METAR,49
MMTM 220349Z 00000KT 5SM SCT070 25/23 A2981 RMK 8/030 HZY,MMTM,2024-03-22T03:49:00Z,22.29,-97.863,25,23,0,0,,5,29.81,,,,,,,,,,,SCT,7000,,,,,,,MVFR,,,,,,,,,,,,METAR,21
KJDN 220348Z AUTO 04011KT M05/M07 A3014 RMK AO1 SLP246 T10501072,KJDN,2024-03-22T03:48:00Z,47.3259,-106.949,-5,-7.2,40,11,,,30.14,1024.6,,TRUE,TRUE,,,,,,,,,,,,,,,VFR,,,,,,,,,,,,METAR,802
MMTO 220347Z 26005KT 7SM SKC 16/05 A3040 RMK HZY,MMTO,2024-03-22T03:47:00Z,19.343,-99.568,16,5,260,5,,7,30.40,,,,,,,,,,,SKC,,,,,,,,VFR,,,,,,,,,,,,METAR,2582
MMSM 220347Z 25010KT 9SM SKC 20/03 A3029 RMK HZY,MMSM,2024-03-22T03:47:00Z,19.763,-99.002,20,3,250,10,,9,30.29,,,,,,,,,,,SKC,,,,,,,,VFR,,,,,,,,,,,,METAR,2250
MMLP 220347Z 36000KT 0SM SKC 20/11 A3001,MMLP,2024-03-22T03:47:00Z,24.077,-110.364,20,11,360,0,,,30.01,,,,,,,,,,,SKC,,,,,,,,VFR,,,,,,,,,,,,METAR,16
MMAA 220347Z 27006KT 5SM SKC 25/23 A2988 RMK HZY,MMAA,2024-03-22T03:47:00Z,16.758,-99.754,25,23,270,6,,5,29.88,,,,,,,,,,,SKC,,,,,,,,MVFR,,,,,,,,,,,,METAR,5
KSUN 220347Z 31005KT 10SM CLR 06/M03 A3008,KSUN,2024-03-22T03:47:00Z,43.4969,-114.292,6,-3,310,5,,10+,30.08,,,,,,,,,,,CLR,,,,,,,,VFR,,,,,,,,,,,,METAR,1619
KRHV 220347Z 29006KT 10SM SCT040 16/11 A3010,KRHV,2024-03-22T03:47:00Z,37.3331,-121.82,16,11,290,6,,10+,30.10,,,,,,,,,,,SCT,4000,,,,,,,VFR,,,,,,,,,,,,METAR,37
KPOC 220347Z 24005KT 10SM CLR 15/11 A3009 RMK LAST,KPOC,2024-03-22T03:47:00Z,34.0928,-117.779,15,11,240,5,,10+,30.09,,,,,,,,,,,CLR,,,,,,,,VFR,,,,,,,,,,,,METAR,304
KPAO 220347Z 32005KT 10SM SKC 13/11 A3010 RMK LAST,KPAO,2024-03-22T03:47:00Z,37.458,-122.112,13,11,320,5,,10+,30.10,,,,,,,,,,,SKC,,,,,,,,VFR,,,,,,,,,,,,METAR,2
KMWN 220347Z 26066G78KT 0SM FZFG BLSN VV000 M21/M21 RMK PK WND 27094/06 VRY LGT ICG,KMWN,2024-03-22T03:47:00Z,44.271,-71.304,-21,-21,260,66,78,,0.00,,,,,,,,,,FZFG BLSN,OVX,0,,,,,,,VFR,,,,,,,,,,,0,METAR,1911
KGYR 220347Z 26005KT 10SM SKC 22/02 A3000 RMK LAST,KGYR,2024-03-22T03:47:00Z,33.428,-112.368,22,2,260,5,,10+,30.00,,,,,,,,,,,SKC,,,,,,,,VFR,,,,,,,,,,,,METAR,292
KCQT 220347Z AUTO 00000KT 10SM CLR 16/12 A3009 RMK AO2 SLP188 T01560117,KCQT,2024-03-22T03:47:00Z,34.024,-118.291,15.6,11.7,0,0,,10+,30.09,1018.8,,TRUE,TRUE,,,,,,,CLR,,,,,,,,VFR,,,,,,,,,,,,METAR,51
KCHD 220347Z 21004KT 10SM CLR 23/02 A3001 RMK LAST,KCHD,2024-03-22T03:47:00Z,33.2669,-111.809,23,2,210,4,,10+,30.01,,,,,,,,,,,CLR,,,,,,,,VFR,,,,,,,,,,,,METAR,378
MMLM 220346Z 31008KT 10SM SKC 19/13 A2998,MMLM,2024-03-22T03:46:00Z,25.688,-109.085,19,13,310,8,,10+,29.98,,,,,,,,,,,SKC,,,,,,,,VFR,,,,,,,,,,,,METAR,6
MMTL 220345Z E00000KT 8SM SCT025 26/22 A2982 RMK 8/400,MMTL,2024-03-22T03:45:00Z,20.1725,-87.6622,26,22,0,0,,8,29.82,,,,,,,,,,,SCT,2500,,,,,,,VFR,,,,,,,,,,,,METAR,20
LHSM 220345Z AUTO 32005KT CAVOK 09/06 Q1020,LHSM,2024-03-22T03:45:00Z,46.689,17.161,9,6,320,5,,6+,30.12,,,TRUE,,,,,,,,CAVOK,,,,,,,,VFR,,,,,,,,,,,,METAR,119
LHPR 220345Z AUTO 29011KT CAVOK 11/07 Q1020,LHPR,2024-03-22T03:45:00Z,47.627,17.808,11,7,290,11,,6+,30.12,,,TRUE,,,,,,,,CAVOK,,,,,,,,VFR,,,,,,,,,,,,METAR,127
LHPP 220345Z AUTO 31006KT CAVOK 11/04 Q1020,LHPP,2024-03-22T03:45:00Z,45.991,18.241,11,4,310,6,,6+,30.12,,,TRUE,,,,,,,,CAVOK,,,,,,,,VFR,,,,,,,,,,,,METAR,193
LHPA 220345Z 33009KT 300V360 CAVOK 11/08 Q1020 NOSIG RMK BLU,LHPA,2024-03-22T03:45:00Z,47.362,17.494,11,8,330,9,,6+,30.12,,,,,,TRUE,,,,,CAVOK,,,,,,,,VFR,,,,,,,,,,,,METAR,143
LHDC 220345Z AUTO 08001KT 9000 NSC 02/M01 Q1019 NOSIG,LHDC,2024-03-22T03:45:00Z,47.489,21.615,2,-1,80,1,,5.59,30.09,,,TRUE,,,TRUE,,,,,CLR,,,,,,,,VFR,,,,,,,,,,,,METAR,105
KSWF 220345Z 32011G21KT 10SM SKC M03/M12 A3028,KSWF,2024-03-22T03:45:00Z,41.5045,-74.0999,-3,-12,320,11,21,10+,30.28,,,,,,,,,,,SKC,,,,,,,,VFR,,,,,,,,,,,,METAR,139
EGUN 220345Z 25010KT 9999 OVC016 10/06 A3003 RMK AO2A SLP172 $,EGUN,2024-03-22T03:45:00Z,52.362,0.486,10,6,250,10,,6+,30.03,1017.2,,,TRUE,TRUE,,,,,,OVC,1600,,,,,,,MVFR,,,,,,,,,,,,SPECI,10
MMVR 220344Z 11003KT 6SM SKC 26/26 A2975 RMK HZY BR,MMVR,2024-03-22T03:44:00Z,19.144,-96.189,26,26,110,3,,6,29.75,,,,,,,,,,,SKC,,,,,,,,VFR,,,,,,,,,,,,METAR,26
MMMD 220344Z 17011KT 7SM FEW300 31/21 A2982 RMK 8/001 HZY,MMMD,2024-03-22T03:44:00Z,20.936,-89.659,31,21,170,11,,7,29.82,,,,,,,,,,,FEW,30000,,,,,,,VFR,,,,,,,,,,,,METAR,10
MMTG 220343Z 36004KT 6SM SKC 29/19 A2996 RMK FU HZ ARND ISOLD AC CI,MMTG,2024-03-22T03:43:00Z,16.571,-93.03,29,19,360,4,,6,29.96,,,,,,,,,,,SKC,,,,,,,,VFR,,,,,,,,,,,,METAR,463
MMMM 220342Z 22003KT 7SM SKC 20/04 A3023 RMK HZY,MMMM,2024-03-22T03:42:00Z,19.844,-101.037,20,4,220,3,,7,30.23,,,,,,,,,,,SKC,,,,,,,,VFR,,,,,,,,,,,,METAR,1840
MMMZ 220341Z 00000KT 12SM SKC 20/12 A2993,MMMZ,2024-03-22T03:41:00Z,23.161,-106.271,20,12,0,0,,12,29.93,,,,,,,,,,,SKC,,,,,,,,VFR,,,,,,,,,,,,METAR,7
MMGL 220341Z 25003KT 10SM SKC 20/M01 A3020 RMK CI,MMGL,2024-03-22T03:41:00Z,20.523,-103.312,20,-1,250,3,,10+,30.20,,,,,,,,,,,SKC,,,,,,,,VFR,,,,,,,,,,,,METAR,1531
MMZC 220340Z E20015KT 8SM SKC 16/01 A3025 RMK HZY,MMZC,2024-03-22T03:40:00Z,22.904,-102.68,16,1,200,15,,8,30.25,,,,,,,,,,,SKC,,,,,,,,VFR,,,,,,,,,,,,METAR,2175
MMUN 220340Z 15007KT 7SM BKN015 27/23 A2992 RMK 8/500 ISOL TCU,MMUN,2024-03-22T03:40:00Z,21.038,-86.855,27,23,150,7,,7,29.92,,,,,,,,,,,BKN,1500,,,,,,,MVFR,,,,,,,,,,,,METAR,13
MMTP 220340Z 00000KT 8SM SKC 29/26 A2991,MMTP,2024-03-22T03:40:00Z,14.795,-92.371,29,26,0,0,,8,29.91,,,,,,,,,,,SKC,,,,,,,,VFR,,,,,,,,,,,,METAR,27
MMTJ 220340Z 25004KT 8SM SKC 13/12 A3011 RMK HZY,MMTJ,2024-03-22T03:40:00Z,32.544,-116.982,13,12,250,4,,8,30.11,,,,,,,,,,,SKC,,,,,,,,VFR,,,,,,,,,,,,METAR,150
MMTC 220340Z 32006KT 8SM SKC 22/M01 A3002,MMTC,2024-03-22T03:40:00Z,25.564,-103.408,22,-1,320,6,,8,30.02,,,,,,,,,,,SKC,,,,,,,,VFR,,,,,,,,,,,,METAR,1128
MMQT 220340Z 25009KT 8SM FEW020 23/06 A3026 RMK 8/500,MMQT,2024-03-22T03:40:00Z,20.617,-100.194,23,6,250,9,,8,30.26,,,,,,,,,,,FEW,2000,,,,,,,VFR,,,,,,,,,,,,METAR,1909
MMPR 220340Z 00000KT 15SM SKC 23/20 A2994,MMPR,2024-03-22T03:40:00Z,20.68,-105.25,23,20,0,0,,15,29.94,,,,,,,,,,,SKC,,,,,,,,VFR,,,,,,,,,,,,METAR,6
MMMY 220340Z 17004KT 10SM SKC 21/17 A2990 RMK ISOL SC,MMMY,2024-03-22T03:40:00Z,25.774,-100.104,21,17,170,4,,10+,29.90,,,,,,,,,,,SKC,,,,,,,,VFR,,,,,,,,,,,,METAR,382
MMMT 220340Z 00000KT 5SM SKC 26/26 A2974 RMK HZY,MMMT,2024-03-22T03:40:00Z,18.098,-94.583,26,26,0,0,,5,29.74,,,,,,,,,,,SKC,,,,,,,,MVFR,,,,,,,,,,,,METAR,15
MMML 220340Z 20003KT 10SM SKC 20/06 A2998,MMML,2024-03-22T03:40:00Z,32.631,-115.238,20,6,200,3,,10+,29.98,,,,,,,,,,,SKC,,,,,,,,VFR,,,,,,,,,,,,METAR,21
MMLO 220340Z 26008KT 8SM SKC 22/00 A3016,MMLO,2024-03-22T03:40:00Z,20.997,-101.481,22,0,260,8,,8,30.16,,,,,,,,,,,SKC,,,,,,,,VFR,,,,,,,,,,,,METAR,1805
MMHO 220340Z 26004KT 10SM SKC 22/02 A3002 RMK HZY,MMHO,2024-03-22T03:40:00Z,29.097,-111.051,22,2,260,4,,10+,30.02,,,,,,,,,,,SKC,,,,,,,,VFR,,,,,,,,,,,,METAR,186
MMCP 220340Z 14012KT 7SM SKC 31/21 A2980,MMCP,2024-03-22T03:40:00Z,19.817,-90.502,31,21,140,12,,7,29.80,,,,,,,,,,,SKC,,,,,,,,VFR,,,,,,,,,,,,METAR,9
MMCL 220340Z 31003KT 10SM SKC 21/13 A2993 RMK HZY,MMCL,2024-03-22T03:40:00Z,24.766,-107.476,21,13,310,3,,10+,29.93,,,,,,,,,,,SKC,,,,,,,,VFR,,,,,,,,,,,,METAR,35
MMAS 220340Z 26007KT 8SM SKC 18/M07 A3024,MMAS,2024-03-22T03:40:00Z,21.702,-102.318,18,-7,260,7,,8,30.24,,,,,,,,,,,SKC,,,,,,,,VFR,,,,,,,,,,,,METAR,1866
MMAN 220340Z 00000KT 10SM SKC 22/17 A2992,MMAN,2024-03-22T03:40:00Z,25.865,-100.239,22,17,0,0,,10+,29.92,,,,,,,,,,,SKC,,,,,,,,VFR,,,,,,,,,,,,METAR,447
RKTY 220334Z 20004KT 9999 SCT150 13/M01 A3002,RKTY,2024-03-22T03:34:00Z,36.632,128.355,13,-1,200,4,,6+,30.02,,,,,,,,,,,SCT,15000,,,,,,,VFR,,,,,,,,,,,,SPECI,108
SELT 220332Z 30004KT 9999 FEW033 BKN100 11/09 Q1032,SELT,2024-03-22T03:32:00Z,-0.921,-78.619,11,9,300,4,,6+,30.47,,,,,,,,,,,FEW,3300,BKN,10000,,,,,VFR,,,,,,,,,,,,SPECI,2779
YMHB 220330Z 30016KT CAVOK 21/07 Q1019,YMHB,2024-03-22T03:30:00Z,-42.834,147.503,21,7,300,16,,6+,30.09,,,,,,,,,,,CAVOK,,,,,,,,VFR,,,,,,,,,,,,METAR,2
WIDD 220330Z 05012KT 9999 SCT014 31/23 Q1012 NOSIG,WIDD,2024-03-22T03:30:00Z,1.121,104.119,31,23,50,12,,6+,29.88,,,,,,TRUE,,,,,SCT,1400,,,,,,,VFR,,,,,,,,,,,,METAR,26
VYMD 220330Z 36002KT 6000 HZ SCT020 21/18 Q1013,VYMD,2024-03-22T03:30:00Z,21.702,95.978,21,18,360,2,,3.73,29.91,,,,,,,,,,HZ,SCT,2000,,,,,,,MVFR,,,,,,,,,,,,METAR,87
VIPT 220330Z 33001KT 4000 BR FEW100 22/20 Q1013,VIPT,2024-03-22T03:30:00Z,29.033,79.474,22,20,330,1,,2.49,29.91,,,,,,,,,,BR,FEW,10000,,,,,,,IFR,,,,,,,,,,,,METAR,236
FOOL 220330Z 14003KT 9999 FEW010 27/26 Q1007 NOSIG,FOOL,2024-03-22T03:30:00Z,0.459,9.412,27,26,140,3,,6+,29.73,,,,,,TRUE,,,,,FEW,1000,,,,,,,VFR,,,,,,,,,,,,METAR,9
RKSW 220328Z 16010G020KT 9999 FEW060 BKN150 15/M01 A2994 RMK CIG150,RKSW,2024-03-22T03:28:00Z,37.239,127.007,15,-1,160,10,20,6+,29.94,,,,,,,,,,,FEW,6000,BKN,15000,,,,,VFR,,,,,,,,,,,,SPECI,24
KBAD 220325Z AUTO 15010KT 10SM -RA BKN024 BKN039 BKN046 OVC065 13/11 A2995 RMK AO2 RAE00DZB00E18RAB18 CIG 024V065 SLP146,KBAD,2024-03-22T03:25:00Z,32.488,-93.658,13,11,150,10,,10+,29.95,1014.6,,TRUE,TRUE,,,,,,-RA,BKN,2400,BKN,3900,BKN,4600,OVC,6500,MVFR,,,,,,,,,,,,SPECI,49
